{"type":"Topology","objects":{"data":{"geometries":[{"properties":{"id":"AT","name":"\u00d6sterreich"},"type":"MultiPolygon","arcs":[[[0]]],"id":"feature_0"}],"type":"GeometryCollection"}},"bbox":[9.530749,46.37245349900007,17.160797500000058,49.01846626400004],"arcs":[[[15.16631447900005,48.96424605800007],[15.163729013000022,48.943678515000045],[15.22264203900005,48.95901207800006],[15.264083248000077,48.95656391800003],[15.282672479000041,48.992332169000065],[15.312165968000045,48.97764039900005],[15.363143441000034,48.98157254900008],[15.425639683000043,48.95298024700003],[15.472615003000044,48.947901872000045],[15.49813290700007,48.936237627000025],[15.512645684000063,48.91607295700004],[15.542449500000032,48.90769699900005],[15.613569864000056,48.89609572000006],[15.689115375000029,48.857481378000045],[15.753633500000035,48.85217849900005],[15.783363138000027,48.87351287100006],[15.840326399000048,48.873973043000035],[15.854337617000056,48.85662524600008],[15.876615706000052,48.85547162300003],[15.901990419000072,48.83855512100007],[15.923122570000032,48.83572782700003],[15.931814895000059,48.822633937000035],[15.954397356000072,48.82125413700004],[15.955013521000069,48.80367301900003],[15.994506295000065,48.78010375500003],[16.09669238400005,48.746697468000036],[16.321379773000046,48.73339524200003],[16.34519497900004,48.742084024000064],[16.368197526000074,48.72904003900004],[16.41120643200003,48.74803736500007],[16.459380751000026,48.804777483000066],[16.518615514000032,48.80112556300003],[16.54186826700004,48.81151653900008],[16.596437395000066,48.78320180700007],[16.662476259000073,48.779947667000044],[16.67577437600005,48.76656198900008],[16.683896576000052,48.73036275000004],[16.722505607000073,48.736805050000044],[16.79969730600004,48.70966563700006],[16.878827769000054,48.71946828500006],[16.900396115000035,48.715140215000076],[16.905317543000024,48.70919456200005],[16.915933369000072,48.69636942100004],[16.923184623000054,48.62362042400008],[16.940278,48.617245499000035],[16.93761264500006,48.57349055600008],[16.949778,48.535791999000025],[16.94080858700005,48.52341212200008],[16.91894553900005,48.51547012300006],[16.913769475000038,48.49954917800005],[16.895117051000057,48.49289370500003],[16.851106,48.438634999000044],[16.858412792000024,48.415611127000034],[16.838501630000053,48.377715812000076],[16.841989257000023,48.36327509500006],[16.852491710000038,48.349781790000065],[16.898798916000032,48.32749151100006],[16.909538531000067,48.28804816200005],[16.950410904000023,48.26342646000006],[16.950297182000043,48.235502017000044],[16.974633362000077,48.18611143700008],[16.976203,48.172244499000044],[17.02664992800004,48.14237377400008],[17.056797102000075,48.14112315600005],[17.066741,48.11868149900005],[17.088579398000036,48.09661589500007],[17.07513301000006,48.08154118300007],[17.08348359000007,48.04571660300007],[17.073329199000057,48.03009935400007],[17.08963926100006,48.022459954000055],[17.113653312000054,48.02815161900003],[17.160797500000058,48.00665649900003],[17.09859214200003,47.97175650400004],[17.11347098400006,47.95963248500004],[17.09558176400003,47.93721771200006],[17.108633737000048,47.92364276400008],[17.088335304000054,47.879270388000066],[17.015625037000063,47.86105290200004],[17.067332407000038,47.812033375000055],[17.05641829800004,47.78802484200003],[17.080726997000056,47.71541008100007],[17.075774488000036,47.70800080400005],[16.886669074000054,47.68908218100006],[16.874413639000068,47.69389491000004],[16.86360300800004,47.714698690000034],[16.82157991200006,47.68458192000003],[16.761058155000057,47.682347880000066],[16.715233958000056,47.73384108500005],[16.611361723000073,47.75899203300003],[16.553290227000048,47.74927071900004],[16.54302014700005,47.73868668500006],[16.54118704700005,47.716054617000054],[16.47364723900006,47.68654352000004],[16.45071945500007,47.691477097000075],[16.421542500000044,47.665297999000074],[16.49346539800007,47.641743114000064],[16.52387725400007,47.64206895800004],[16.578164825000044,47.61944256600003],[16.63062706200003,47.62688037800007],[16.651774561000025,47.620756],[16.669072425000024,47.60245439800008],[16.66704974000004,47.56651453500007],[16.710727488000032,47.539201554000044],[16.692560748000062,47.51344616700004],[16.656143455000063,47.50240278200005],[16.66713204900003,47.47391055600008],[16.64622,47.446596999000064],[16.56942667000004,47.406764801000065],[16.518990505000033,47.409110293000026],[16.501157800000044,47.39356046800003],[16.48115154100003,47.40811588100007],[16.45410733600005,47.41008035300007],[16.447687823000024,47.40247687500005],[16.44989388600004,47.38923821800006],[16.454175126000052,47.363546350000036],[16.43376150000006,47.352918499000054],[16.465031216000057,47.32664106000004],[16.47135910800006,47.31028522200006],[16.48156675900003,47.283901290000074],[16.472291848000054,47.26166408800003],[16.443552743000055,47.24234259000008],[16.426479648000054,47.19744899400007],[16.453545689000066,47.17699078900006],[16.46155419400003,47.14753437500008],[16.50658801800006,47.14671601200007],[16.521353454000064,47.133251477000044],[16.47242002400003,47.09216536000008],[16.479390558000034,47.07593813300008],[16.506483092000053,47.05744580000004],[16.459788744000036,47.03285385400005],[16.489695743000027,47.00231843200004],[16.434336649000045,46.99556649600004],[16.391758587000027,47.00174552900006],[16.36031722900003,47.00689241200007],[16.33252069200006,46.99911887800005],[16.29235512100007,47.005916574000025],[16.27169464800005,46.96654016900004],[16.224531505000073,46.94092056100004],[16.199511874000052,46.93679677400007],[16.176119638000046,46.90827420800008],[16.113849,46.86906799900004],[16.056475242000033,46.84025675400005],[15.996236,46.835398499000064],[15.98885309800005,46.82562881000007],[15.995651663000046,46.80788499200003],[15.987953850000054,46.74726455100006],[15.999723532000075,46.723638351000034],[16.026732310000057,46.710291307000034],[16.03982806600004,46.68775707100008],[16.03663746500007,46.65914671500008],[15.873848731000066,46.720082683000044],[15.830971094000063,46.721332475000054],[15.786422,46.70746949900007],[15.722157859000049,46.69677810200005],[15.649988,46.70575699900007],[15.650298191000047,46.69351380900008],[15.631181940000033,46.68258523800006],[15.59700420400003,46.688028701000064],[15.550898803000052,46.66977252600003],[15.545457911000028,46.63480136900006],[15.506566078000048,46.61708744200007],[15.469403189000047,46.61489074600007],[15.450846210000066,46.63928063900005],[15.401979500000039,46.65354849900007],[15.295894442000076,46.65118813200007],[15.235312954000051,46.64044258700005],[15.149447304000034,46.65799945500004],[15.10503441800006,46.65708665000005],[15.081522375000077,46.64737791200008],[15.065120500000035,46.652112499000054],[15.017543381000053,46.64035318600003],[14.981989359000067,46.60478485700003],[14.957052592000025,46.63050864200005],[14.92513483600004,46.617341260000046],[14.918933598000024,46.60527937200004],[14.888795870000024,46.607339582000066],[14.87478248800005,46.60829753500008],[14.838555907000057,46.56661744200005],[14.833944772000052,46.55514257700003],[14.815719376000061,46.509788452000066],[14.716406948000042,46.49629134300005],[14.698100389000047,46.46763758900005],[14.68376242200003,46.46478181700007],[14.674580500000047,46.450687499000026],[14.592713307000054,46.432867516000044],[14.58399597500005,46.389153718000046],[14.565175500000066,46.37245349900007],[14.524178455000026,46.42326617400005],[14.482283018000032,46.414619250000044],[14.444099799000071,46.425068295000074],[14.43450050000007,46.44294349900008],[14.319602235000048,46.43114653400005],[14.281885507000027,46.442523150000056],[14.240180532000068,46.43395855400007],[14.19384201500003,46.44228321600008],[14.166408855000043,46.435242895000044],[14.139944061000051,46.44884835700003],[14.115821372000028,46.476784837000025],[14.050414639000053,46.492035721000036],[14.00672922800004,46.48252729600006],[13.91663581000006,46.51914627100007],[13.832815909000033,46.516877942000065],[13.80188597800003,46.50639985000004],[13.714185,46.522703499000045],[13.678411478000044,46.52285617600006],[13.643502358000035,46.53441361300003],[13.620593772000063,46.541998008000064],[13.57616280800005,46.54029628200004],[13.567636438000022,46.54647698300005],[13.548464393000074,46.55276518800008],[13.519442194000021,46.54846946100008],[13.513757572000031,46.55514257700003],[13.504249500000071,46.56630399900007],[13.440228282000021,46.55849737300008],[13.378438538000069,46.57556643000004],[13.321284771000023,46.556145591000075],[13.239763999000047,46.55610929900007],[13.158761845000072,46.58900754500007],[12.931503668000062,46.60900610300007],[12.850870985000029,46.60723718600008],[12.826612763000071,46.62812569100004],[12.777671733000034,46.644644404000076],[12.731393,46.63428799900004],[12.715312403000041,46.648857425000074],[12.700627449000024,46.65133414200005],[12.690635,46.65697199900006],[12.644868211000073,46.65391870900004],[12.622712130000025,46.661144827000044],[12.567411297000035,46.65321993400005],[12.514642182000046,46.67791774500006],[12.477924,46.679835499000035],[12.386128908000046,46.71645424400003],[12.354636781000067,46.77439702100003],[12.28484478300004,46.78646691400007],[12.287025951000032,46.81644519100007],[12.30420041900004,46.83769710100006],[12.270203147000075,46.883690028000046],[12.245093926000038,46.888909210000065],[12.216797445000054,46.87661036700007],[12.189736494000044,46.904123981000055],[12.15422142400007,46.91264580100005],[12.165463102000047,46.939082531000054],[12.140078866000067,46.959065390000035],[12.133966075000046,46.97978883400003],[12.125063082000054,47.009971551000035],[12.133966075000046,47.01545723400005],[12.145360173000029,47.02247784100007],[12.203522058000033,47.02844226500008],[12.219314083000029,47.05764844000004],[12.24074550000006,47.06916849900006],[12.191019034000021,47.09034325700003],[12.133966075000046,47.080405760000076],[12.09492896300003,47.07541654100004],[12.072786176000022,47.06018430000006],[12.043225623000069,47.05935174700005],[12.021899709000024,47.048450014000025],[11.982827268000051,47.04919097800007],[11.923610814000028,47.034355325000035],[11.832739261000029,46.993495833000054],[11.783496744000047,46.99030483100006],[11.749926420000065,46.970111872000075],[11.740871157000072,46.971846182000036],[11.729464635000056,46.97403081700003],[11.706629046000046,46.992372989000046],[11.655517775000021,46.99596401900004],[11.627199500000074,47.01329899900003],[11.541099505000034,46.98637336300004],[11.507442367000067,47.006525073000034],[11.483342505000053,47.00966120500004],[11.43941165700005,46.97631834200007],[11.409212312000022,46.966099805000056],[11.386779420000039,46.970058065000046],[11.35777506200003,46.989235903000065],[11.32124311900003,46.99007315400007],[11.211136241000077,46.96540790000006],[11.164281500000072,46.96572249900004],[11.156771642000024,46.939672347000055],[11.117953233000037,46.92812057100008],[11.102468978000047,46.91396383500006],[11.096496605000027,46.88722292800003],[11.074150728000063,46.85112631700008],[11.075709313000061,46.82159721200003],[11.042531011000051,46.80263935700003],[11.016495488000032,46.76939044200003],[10.929061507000029,46.774390260000075],[10.87999422400003,46.765683609000064],[10.865929530000074,46.76833706100007],[10.815116788000068,46.77792341600008],[10.785319328000071,46.79287198000003],[10.737906432000045,46.789661041000045],[10.732913479000047,46.79945903500004],[10.755141595000055,46.82784316100003],[10.668576872000074,46.87136804100004],[10.56371097400006,46.84260864300006],[10.469651500000055,46.85490899900003],[10.468226624000067,46.885357928000076],[10.48705553600007,46.93598319600005],[10.427661865000061,46.95835725100005],[10.422348517000046,46.97674120600004],[10.389988889000051,46.99867031300005],[10.347354154000072,46.987214453000036],[10.327022724000074,46.956853462000026],[10.31074503800005,46.947010430000034],[10.311967773000049,46.925441798000065],[10.244074288000036,46.92944188300004],[10.229206173000023,46.89840745200007],[10.228870117000042,46.86829291400005],[10.144974500000046,46.85100949900004],[10.104815466000048,46.84360974300006],[10.085409394000067,46.85974701300006],[10.056627013000025,46.86379291800006],[10.018694140000036,46.89890878300008],[9.88137574500007,46.93393483700004],[9.874641913000062,46.96597485800004],[9.889809330000048,46.99330065400005],[9.871310010000059,47.02074195100005],[9.835244705000036,47.01453742700005],[9.784878552000066,47.036763767000025],[9.718879769000068,47.044587859000046],[9.68112779300003,47.06044912900006],[9.629980576000037,47.052504756000076],[9.607078,47.06077449900005],[9.614368978000073,47.07832366800005],[9.633024352000064,47.09226283900006],[9.620580500000074,47.15164549900004],[9.606796056000064,47.151376491000065],[9.573027900000056,47.17263449600006],[9.581182135000063,47.20676773100007],[9.557835363000038,47.22408770100003],[9.562478825000028,47.24544175200003],[9.530749,47.27058099900006],[9.578461914000059,47.31028522200006],[9.584001064000063,47.31489461600006],[9.61505905200005,47.35633553500003],[9.658126608000032,47.371587772000055],[9.669473371000038,47.38923821800006],[9.651691866000021,47.40959050400005],[9.64661503800005,47.43463799500006],[9.655783242000041,47.45115804800008],[9.592898933000072,47.46755753800005],[9.56442024200004,47.49766773700003],[9.55872050000005,47.54189299900003],[9.677136308000058,47.524179848000074],[9.721026032000054,47.53241997600003],[9.734281801000066,47.537859780000076],[9.765972858000055,47.58689851300005],[9.794082384000035,47.595002624000074],[9.823786749000021,47.58382234000004],[9.820160739000073,47.549030455000036],[9.866846820000035,47.53156327500005],[9.885646131000044,47.546298655000044],[9.921346515000039,47.53143290100007],[9.957822952000072,47.53685195700007],[9.967813500000034,47.54624049900008],[9.967190451000022,47.522695085000066],[9.990611434000073,47.50407026900007],[9.999526,47.48301699900003],[10.039235573000042,47.48553143300006],[10.06183756200005,47.46409063200008],[10.090142313000058,47.451937703000056],[10.099060156000064,47.42837861800007],[10.076920832000042,47.40623969200004],[10.100714204000042,47.361602531000074],[10.122286317000032,47.37179295800007],[10.160926073000041,47.371316096000044],[10.183915734000038,47.38804781600004],[10.230074857000034,47.38136035100007],[10.230510323000033,47.36835952400003],[10.205252079000047,47.33232250800006],[10.209452395000028,47.31028522200006],[10.181318404000024,47.29155789300006],[10.178353,47.270113999000046],[10.237022369000044,47.27438661600007],[10.32849804700004,47.30630397900006],[10.332434130000024,47.31028522200006],[10.392466950000028,47.37100682200003],[10.430273968000051,47.38923821800006],[10.437392887000044,47.40979091600008],[10.472359105000066,47.43676864100007],[10.465030952000063,47.478103935000036],[10.44421965600003,47.48659689400006],[10.434825903000046,47.50034700800006],[10.450367515000039,47.55134203500006],[10.433443467000075,47.57759512700005],[10.47264,47.58695049900007],[10.461497228000042,47.55560990400005],[10.518547949000038,47.536123287000066],[10.571510529000022,47.53637366300006],[10.585819965000042,47.55906681600004],[10.603379604000054,47.56847342900005],[10.687013597000032,47.557278695000036],[10.703417616000024,47.542719686000055],[10.75393050200006,47.53430936900003],[10.776118760000031,47.516322899000045],[10.865929530000074,47.53306863900008],[10.886199,47.53684799900003],[10.913759716000072,47.515449885000066],[10.875563132000025,47.500950749000026],[10.872265414000026,47.48537117600006],[10.930964625000058,47.48123348100006],[10.93360318300006,47.46946706800003],[10.980343159000029,47.43144019400006],[10.97150302600005,47.40524665700008],[10.991202500000043,47.396130999000036],[11.005510167000068,47.39434477000003],[11.016500500000063,47.39636799900006],[11.106176923000021,47.396096096000065],[11.135301870000035,47.41355842100006],[11.156913773000042,47.41901234100004],[11.209055275000026,47.43217062700006],[11.249016078000068,47.42930869600008],[11.226878448000036,47.39812794100004],[11.266362353000034,47.39802124500005],[11.286676096000065,47.40724346500008],[11.29458199800007,47.42604962400003],[11.339228355000046,47.44730617500005],[11.42142750000005,47.444851999000036],[11.40827415700005,47.466330937000066],[11.391477885000029,47.46715427500004],[11.384371293000072,47.472490281000034],[11.389605431000064,47.48073513400004],[11.40558343400005,47.48967035600003],[11.410219,47.49532399900005],[11.437512390000052,47.51408485500008],[11.50460762800003,47.50627188400006],[11.572632069000065,47.516033855000046],[11.58582066100007,47.52666910000005],[11.589064368000038,47.55399235800007],[11.60529282400006,47.576472455000044],[11.630492096000069,47.58354551000008],[11.632883,47.59244599900006],[11.669326029000047,47.58460011500006],[11.740871157000072,47.588238739000076],[11.774782196000046,47.58996337900004],[11.83874858400003,47.582778879000045],[11.85738513900003,47.60080024000007],[11.91097042000007,47.61248267000008],[12.003296990000024,47.62306581100006],[12.023307032000048,47.613590705000036],[12.060662,47.61874349900006],[12.133966075000046,47.606999048000034],[12.19827869200003,47.60917385300007],[12.198323014000039,47.63889999600008],[12.168274089000022,47.69728038200003],[12.21964799400007,47.71633618900006],[12.248247998000068,47.73685879400006],[12.259098881000057,47.730652848000034],[12.245954297000026,47.697973164000075],[12.257755271000065,47.68312527900008],[12.338045500000021,47.69708749900008],[12.36873766900004,47.68531378700004],[12.43680633100007,47.69378421400006],[12.442445591000023,47.67555714700006],[12.464928723000071,47.65152610200005],[12.502197526000032,47.626341068000045],[12.53928288000003,47.63528291100005],[12.575026500000035,47.63231599900007],[12.606527190000065,47.672280115000035],[12.695795500000031,47.68222299900003],[12.777055689000065,47.66557831600005],[12.764179213000034,47.64937004600006],[12.812688681000054,47.61685259800004],[12.78229662900003,47.57979321900007],[12.792065356000023,47.56125045700003],[12.815999653000063,47.54676440500003],[12.845184196000048,47.544152980000035],[12.910370656000055,47.49671478300007],[12.963994053000022,47.47695771800005],[12.983724536000068,47.48154357300007],[13.006959335000033,47.46754254600006],[13.044206244000065,47.49340645500007],[13.046055500000023,47.52050249900003],[13.034350482000036,47.53388215200005],[13.051769427000067,47.556818674000056],[13.044635130000074,47.57874725400006],[13.065446691000034,47.587403521000056],[13.066404286000022,47.60385775300006],[13.095359490000021,47.63282318500006],[13.077799869000046,47.68512150400005],[13.021464516000037,47.72063195700008],[12.973286277000057,47.70776427800007],[12.929542187000038,47.71123072200004],[12.909218449000036,47.72318567600007],[12.93909310500004,47.75971703000005],[12.940249079000068,47.783169686000065],[12.965298493000034,47.80254868600008],[12.972455928000045,47.812033375000055],[13.001256709000074,47.85019878600008],[12.936762522000038,47.94026903100007],[12.912531516000058,47.955400834000045],[12.875785500000063,47.962608999000054],[12.869735580000054,47.968937813000025],[12.860181500000067,47.99663999900008],[12.841666905000068,48.02192130000003],[12.760921632000077,48.075089536000064],[12.751555,48.112810499000034],[12.758437359000027,48.11874916900007],[12.759206,48.12706099900004],[12.768749,48.12847738700003],[12.784727729000053,48.12352994400004],[12.793154500000071,48.132448999000076],[12.799899058000051,48.14664204400003],[12.81158279400006,48.15132926700005],[12.827681157000029,48.153348046000076],[12.834137464000037,48.15841052800005],[12.836333935000027,48.164628581000045],[12.84806,48.16786199900008],[12.854415500000073,48.179358499000045],[12.860504369000068,48.18611143700008],[12.875866429000041,48.20174971300003],[12.94468450000005,48.20669249900004],[13.02339370900006,48.25761790100006],[13.164293334000035,48.29013023200008],[13.177043,48.29438999900003],[13.260885539000071,48.29598936000008],[13.319243610000058,48.319200608000074],[13.410249744000055,48.37559659500005],[13.437478832000068,48.43241816500006],[13.430044818000056,48.46063624200008],[13.454755187000046,48.50947425600003],[13.438430500000038,48.54889499900003],[13.445265297000049,48.56029409900003],[13.468697193000025,48.55572089200007],[13.493793180000068,48.56718839400003],[13.513369500000067,48.590977999000074],[13.567636438000022,48.56224438500004],[13.601714709000078,48.56707244200004],[13.643502358000035,48.54905664000006],[13.727090500000031,48.51301949900005],[13.745148675000053,48.53188652400007],[13.754467980000072,48.56104324800003],[13.773287340000024,48.557498750000036],[13.801406129000043,48.576631905000056],[13.80545488000007,48.59997717600004],[13.824209702000076,48.621198063000065],[13.815896427000041,48.68490250600007],[13.834560920000058,48.69749854100007],[13.806629047000058,48.70919456200005],[13.796107,48.71360049900005],[13.80987579200007,48.72791527700008],[13.818309465000027,48.73238001800007],[13.821720190000065,48.754453253000065],[13.828639500000065,48.75906199900004],[13.838004825000041,48.76473319300004],[13.839507,48.77160499900003],[13.880211939000048,48.76373341400006],[13.939656676000027,48.72430863900007],[13.994246673000077,48.70919456200005],[14.00293492700007,48.70678908600007],[14.031749004000062,48.680941629000074],[14.056096745000048,48.67300272800003],[14.053787147000037,48.65655268100005],[14.027696092000042,48.65113629500007],[14.014922880000029,48.637995498000066],[14.043862592000039,48.62565333600003],[14.05030103200005,48.60827187600006],[14.103412367000033,48.59124419900007],[14.140614768000034,48.596429982000075],[14.268524565000064,48.57988364500005],[14.336333146000072,48.55467129400006],[14.360027866000053,48.571896148000064],[14.387849820000042,48.57377521600006],[14.390626277000024,48.59124714700005],[14.432340839000062,48.59291952600006],[14.45235424200007,48.62583879500005],[14.447786385000029,48.64153286800007],[14.46442916500007,48.645310977000065],[14.503839241000037,48.62001665400004],[14.556217416000038,48.60798847800004],[14.609555570000055,48.62605603000003],[14.627312449000044,48.60689147100004],[14.65095141300003,48.60497845200007],[14.665379151000025,48.58438645700005],[14.691014,48.58430199900005],[14.717654840000023,48.60242971100007],[14.714979951000032,48.65363625600003],[14.72873069800005,48.68808537700005],[14.763469788000066,48.70919456200005],[14.804166666000071,48.73392399200003],[14.813334483000062,48.778585099000054],[14.87607143100007,48.77869183800004],[14.952597043000026,48.76034215800007],[14.976379813000051,48.77223105100006],[14.955722539000021,48.79332779400005],[14.97016852300004,48.83610908800006],[14.980700150000075,48.84497074400008],[14.973823037000045,48.86764590900003],[14.99067541900007,48.90476932000007],[14.977165894000052,48.96820884200008],[14.997647524000058,48.99570821000003],[14.997698099000047,49.01322621700007],[15.023326482000073,49.01846626400004],[15.060285896000039,49.012895283000034],[15.075451833000045,48.99829065600005],[15.149862090000056,48.99408035300007],[15.16631447900005,48.96424605800007]]]}