{"type":"Topology","objects":{"data":{"geometries":[{"properties":{"id":"BE1","name":"Brussels"},"type":"MultiPolygon","arcs":[[[7]]],"id":"feature_0"},{"properties":{"id":"BE3","name":"R\u00e9gion wallonne"},"type":"MultiPolygon","arcs":[[[-9,0,-4,1]],[[-6,2]]],"id":"feature_1"},{"properties":{"id":"BE2","name":"Flanders"},"type":"MultiPolygon","arcs":[[[3,4,5,6],[7]],[[8,9]],[[10]]],"id":"feature_2"}],"type":"GeometryCollection"}},"bbox":[2.546011,49.49723799900005,6.405028500000071,51.50246449900004],"arcs":[[[5.892073,50.75523749900003],[5.90126196600005,50.75207630700004],[5.905964026000049,50.755287948000046],[5.913640550000025,50.75531495800004],[5.91761942100004,50.750964485000054],[5.930423738000059,50.75636582000004],[5.936111,50.75680199900006],[5.948220990000038,50.75943466000007],[5.960132027000043,50.76202392600004],[5.971998144000054,50.759749406000026],[5.975390974000049,50.75541868000005],[5.983559996000054,50.75309021600003],[6.020999,50.75429549900008],[6.036539775000051,50.74522521600005],[6.038157926000054,50.72320607200004],[6.115915148000056,50.718751102000056],[6.177843489000054,50.65306123700003],[6.184152246000053,50.62809549800005],[6.203118352000047,50.632827888000065],[6.265564287000075,50.62468023100007],[6.241527022000071,50.59143420000004],[6.189312500000028,50.56609399900003],[6.17704724400005,50.55169361900005],[6.193872891000069,50.53522718200003],[6.192200500000069,50.521055499000056],[6.206558622000045,50.517992519000074],[6.226624314000048,50.49761363400006],[6.315556,50.49704249900003],[6.340088792000074,50.48741258000007],[6.344090183000048,50.46160466900005],[6.374414809000029,50.44775970900008],[6.367037278000055,50.40716819200003],[6.346815586000048,50.380147229000045],[6.400671583000076,50.341918785000075],[6.405028500000071,50.32330849900006],[6.358115791000046,50.310706107000044],[6.313106885000025,50.32070623000004],[6.289261899000053,50.29463051600004],[6.281067442000051,50.269833437000045],[6.217401471000073,50.25569769900005],[6.180311293000045,50.234340177000036],[6.170740799000043,50.22085300600003],[6.184899576000021,50.206860103000054],[6.186511186000075,50.18405334400006],[6.144672540000045,50.17226522000004],[6.140660356000069,50.15270910400005],[6.152019087000042,50.14346306300007],[6.137662500000033,50.12995149900007],[6.115962705000072,50.13685155200005],[6.120461112000044,50.15053332900004],[6.110959765000075,50.16656142900007],[6.085489481000025,50.170036819000075],[6.074383281000053,50.157105794000074],[6.055715213000042,50.15586508300004],[6.03299461000006,50.16492014600004],[6.02489950000006,50.18277949900005],[5.971969669000032,50.171890129000076],[5.954893088000063,50.13314738100007],[5.898151486000074,50.109885492000046],[5.883949374000053,50.08166487900007],[5.862947050000059,50.06460338900007],[5.857175522000034,50.031105138000044],[5.825528615000053,50.01096430700005],[5.831739888000072,49.982598616000075],[5.779931464000072,49.95875126200008],[5.762409908000052,49.92034198700003],[5.745485421000069,49.903620199000045],[5.772172845000057,49.87804059000007],[5.746319,49.85359499900005],[5.752513055000065,49.84786140800003],[5.743103647000055,49.83375291100003],[5.756460878000041,49.79419061700003],[5.78915564700003,49.79209417100003],[5.827044530000023,49.747831372000064],[5.829912404000027,49.724328325000045],[5.863424523000049,49.72472719600006],[5.882016413000031,49.71322850200005],[5.864868356000045,49.680575290000036],[5.906198040000049,49.661603753000065],[5.904065234000029,49.64010009200007],[5.879727736000063,49.62298070700007],[5.872898560000067,49.60838445500008],[5.850885899000048,49.59501493400006],[5.868141019000063,49.58530626500004],[5.868308609000053,49.57417938900005],[5.818117,49.54631049900007],[5.807443069000044,49.550122644000055],[5.79343517500007,49.55151188100007],[5.783978104000028,49.55816822600008],[5.77703955000004,49.56079130900008],[5.771254814000031,49.56297808900007],[5.758997470000054,49.56028212200005],[5.756299072000047,49.55546474100004],[5.757128,49.542587499000035],[5.740037518000065,49.539031151000074],[5.734556,49.545690499000045],[5.706503453000039,49.539954856000065],[5.652030382000021,49.55140064600005],[5.622595052000065,49.532769098000074],[5.611182558000053,49.509314173000064],[5.559476682000025,49.527270944000065],[5.470883,49.49723799900005],[5.451100073000021,49.51743024000007],[5.464972354000054,49.53182696200008],[5.446006770000054,49.550098931000036],[5.453144857000041,49.565678836000075],[5.393511,49.61711099900003],[5.350342470000044,49.62823226300003],[5.314954924000062,49.61553364900004],[5.309076703000073,49.62495713100003],[5.32545273300002,49.65614457000004],[5.285520783000038,49.68473598200006],[5.175873522000074,49.69415168200004],[5.153738500000031,49.717925999000045],[5.12973609900007,49.71344518500007],[5.11724356700006,49.73874247800006],[5.089363064000054,49.763350106000075],[5.020449427000074,49.77807108400003],[4.99394462600003,49.799236766000035],[4.969431,49.80182599900007],[4.924614930000075,49.78655103600005],[4.856524681000053,49.79357016700004],[4.872621782000067,49.819533970000066],[4.853907112000059,49.86152446300008],[4.886685320000026,49.91122341200003],[4.847009748000062,49.946442088000026],[4.797384330000057,49.95727584700006],[4.792313732000025,49.96823168200007],[4.815459523000072,49.993662037000036],[4.82140860100003,50.02407692700007],[4.837950075000037,50.039632124000036],[4.823661601000026,50.06342450100004],[4.839960537000024,50.07339603300005],[4.844662615000061,50.096513669000046],[4.869514730000049,50.09143695700004],[4.870901859000071,50.12091528800005],[4.891011218000074,50.13592514900006],[4.874132261000057,50.15217947700006],[4.839188851000074,50.15384985800006],[4.822714295000026,50.16392076400007],[4.796697,50.14867799900003],[4.766432899000051,50.13686410200006],[4.747453687000075,50.11152301000004],[4.704843223000069,50.09516797400005],[4.68928309100005,50.07854296200003],[4.683471946000054,50.065668747000075],[4.697741590000021,50.05201610000006],[4.683181890000071,49.99776646600003],[4.580020001000037,49.98150093700008],[4.512657552000064,49.94791577900003],[4.432494,49.94161599900008],[4.350542507000057,49.95346010900005],[4.312685153000075,49.967292643000064],[4.233133,49.95782849900007],[4.215951889000053,49.95757817100008],[4.206612990000053,49.95744210300006],[4.197322,49.95449449900008],[4.19649890200003,49.967295094000065],[4.178456950000054,49.97236951800005],[4.173883,49.97603999900008],[4.153538978000029,49.97488513500008],[4.140853,49.97875999900003],[4.159568021000041,49.99416214300004],[4.13748675100004,50.01688328400007],[4.153089185000056,50.03903772900003],[4.227927880000038,50.07137928700007],[4.205670647000034,50.099914314000046],[4.19475305900005,50.13290231500008],[4.130040836000035,50.13674096400007],[4.152742876000048,50.163838112000064],[4.154711125000063,50.213024448000056],[4.218107218000057,50.257432719000064],[4.20473181400007,50.27209582900008],[4.165828775000023,50.28620061300006],[4.153368010000065,50.276683742000046],[4.163547205000043,50.260380258000055],[4.143411818000061,50.25845902700007],[4.125862224000059,50.27622803700007],[4.11757626800005,50.300242980000064],[4.081304032000048,50.31133602800003],[4.046112376000053,50.342231371000025],[4.027774500000021,50.35833049900003],[3.896868788000063,50.32756268800006],[3.845350731000053,50.35165277900006],[3.748665489000075,50.34922135900007],[3.735121451000055,50.339707229000055],[3.728673184000058,50.31571702600007],[3.708769423000035,50.305670786000064],[3.667010202000029,50.350223173000074],[3.66061518500004,50.371148385000026],[3.672889204000057,50.410597737000046],[3.65551,50.46173549900004],[3.615081500000031,50.490398999000035],[3.565276646000029,50.49908566000005],[3.503395155000021,50.490141031000064],[3.500038305000032,50.499385225000026],[3.516412572000036,50.52062456600004],[3.499982371000044,50.52875614700008],[3.470579894000025,50.530758528000035],[3.448108585000057,50.50930403800004],[3.379276406000031,50.49317686100005],[3.290002601000026,50.52669939300006],[3.281253704000051,50.53870482500008],[3.276353401000051,50.59760450700003],[3.242740419000029,50.65870978100003],[3.260947779000048,50.678200840000045],[3.25873880000006,50.69993027500004],[3.245294,50.713009499000066],[3.209402561000047,50.71407486500004],[3.176996,50.75616449900008]],[[5.687622,50.811923999000044],[5.698279565000064,50.78165863600003],[5.682000500000072,50.75744649900008]],[[3.018708500000059,50.773532999000054],[2.945436701000062,50.747285419000036],[2.92715948700004,50.70931004400006],[2.905894657000033,50.695238507000056],[2.863276,50.70834349900008]],[[5.687622,50.811923999000044],[5.656276639000055,50.804381523000075],[5.630211497000062,50.78492575300004],[5.526490236000029,50.75725588200004],[5.514293221000059,50.740517398000065],[5.485577475000071,50.72691918600003],[5.465929510000024,50.73610232000004],[5.450805510000066,50.722479788000044],[5.431686500000069,50.71980299900008],[5.411468305000028,50.72451017700007],[5.38701142900004,50.745485906000056],[5.350442766000072,50.74491537100005],[5.306592045000059,50.72034690300006],[5.279163633000053,50.72787278800007],[5.253752853000037,50.716609334000054],[5.236913,50.727272999000036],[5.225079246000064,50.718780235000054],[5.175634186000025,50.719208509000055],[5.175887967000051,50.70335059700005],[5.161473673000046,50.69599698400003],[5.103480500000046,50.70906399900008],[5.069223332000035,50.709756956000035],[5.047852703000046,50.72377957200007],[5.042083468000044,50.740678553000066],[5.019566500000053,50.750761999000076],[4.982027104000053,50.76845261500006],[4.920449317000021,50.74526708500008],[4.90750907100005,50.752683078000075],[4.901472961000024,50.768784520000054],[4.838594562000026,50.76535092300003],[4.790051836000032,50.79761440600004],[4.755492298000036,50.80622639100005],[4.717002299000058,50.79239650200003],[4.649413562000063,50.79464753700006],[4.639342494000061,50.77303242200003],[4.651447647000055,50.75462424700004],[4.635500426000021,50.744231124000066],[4.604282099000045,50.74364932100008],[4.597269,50.76353449900006],[4.568654480000021,50.74726874800007],[4.533646593000071,50.740346783000064],[4.523042298000064,50.72938085700008],[4.496485945000074,50.743973665000055],[4.49582881300006,50.75265867600007],[4.472062078000022,50.75405192100004],[4.379946569000026,50.73067786000007],[4.365793694000047,50.71706134000004],[4.333521609000059,50.73145382900003],[4.32950641900004,50.71912121400004],[4.315944816000069,50.71751549600003],[4.293487609000067,50.69612260400004],[4.267587029000026,50.69951969300007],[4.242512431000023,50.69200647300005],[4.184145050000041,50.70868744000006],[4.152696253000045,50.72792324200003],[4.100130484000033,50.70602187900005],[4.077932597000029,50.71139969600006],[4.058261057000038,50.698086465000074],[3.937630615000046,50.69009274000007],[3.913103976000059,50.69422254800003],[3.892330223000044,50.71332203900005],[3.895736500000055,50.73294449900004],[3.880348623000032,50.749756637000075],[3.835320053000032,50.74300250600004],[3.815390500000035,50.750724999000056],[3.775676500000031,50.747892499000045],[3.753590065000026,50.775301400000046],[3.722737786000039,50.76963094900003],[3.707291284000064,50.77899818100008],[3.67854116500007,50.769958974000076],[3.63521650000007,50.72292332100005],[3.541272500000048,50.733700499000065],[3.544415768000022,50.74817729000006],[3.531012970000063,50.76241312600007],[3.485655892000068,50.759232377000046],[3.460305500000061,50.76589899900006],[3.408272927000041,50.745116919000054],[3.358764910000048,50.71247673200003],[3.324118,50.72230899900006],[3.325122329000067,50.73407198000007],[3.304837354000028,50.751993983000034],[3.264611417000026,50.75127558400004],[3.224262864000025,50.76371126600003],[3.176996,50.75616449900008]],[[3.176996,50.75616449900008],[3.14656601300004,50.78826814300004],[3.114059935000057,50.79105159000005],[3.098481,50.77901899900007],[3.018708500000059,50.773532999000054]],[[3.018708500000059,50.773532999000054],[3.010706373000062,50.803649988000075],[2.996635748000074,50.80865195700005],[2.952628100000027,50.79562757900004],[2.956622866000032,50.77569995700003],[2.915397698000049,50.756681954000044],[2.850045277000049,50.75319967300004],[2.84671933900006,50.73353716100007],[2.863276,50.70834349900008]],[[2.863276,50.70834349900008],[2.846408328000052,50.71933954900004],[2.818282861000057,50.71831434200004],[2.794311090000065,50.726818156000036],[2.778806956000039,50.75016350100003],[2.735098691000076,50.78504412800004],[2.714884936000033,50.81157224900005],[2.693191979000062,50.813328743000056],[2.633510447000049,50.81816119800004],[2.604262539000047,50.850735608000036],[2.607036,50.91268949900007],[2.593965120000064,50.920060869000054],[2.628539849000049,50.95062064900003],[2.604195656000059,50.98862609500003],[2.578259931000048,51.003547326000046],[2.546011,51.08938199900007],[2.604628,51.110095999000066],[2.651029188000052,51.12914785400005],[2.679293830000063,51.13612051800004],[2.693191979000062,51.14106260500006],[2.703774,51.144825499000035],[2.749051500000064,51.16176999900006],[3.110688500000037,51.31225949900005],[3.154817500000036,51.323379499000055],[3.179541108000024,51.33107471500006],[3.169849449000026,51.35000626400006],[3.185943390000034,51.36117641200008],[3.199672325000051,51.36258425700004],[3.22264019000005,51.35860428900003],[3.22638398600003,51.35170783700005],[3.227534,51.34006499900005],[3.253304523000054,51.343356734000054],[3.294071144000043,51.35494853500006],[3.365787500000067,51.36983549900003],[3.381907285000068,51.336073671000065],[3.36284325400004,51.31463390400006],[3.380661,51.27429949900005],[3.437183913000069,51.24374769100007],[3.51923739700004,51.24626344600006],[3.524928256000067,51.25199308100008],[3.519478996000032,51.28563983000004],[3.579156472000022,51.29022117800008],[3.593884136000042,51.30325681800008],[3.783783664000055,51.25993805600007],[3.791647806000071,51.25384304500005],[3.793981648000056,51.21513304900003],[3.856339500000047,51.21105599900005],[3.886015832000055,51.22019017200006],[3.882508070000029,51.206032777000075],[3.893161150000026,51.20275792800004],[3.925268648000042,51.217129657000044],[3.945685337000043,51.21409791900004],[3.977666500000055,51.22513199900004],[4.006678511000075,51.241730156000074],[4.061566107000033,51.24561619100007],[4.159672615000034,51.29006163100007],[4.234817500000077,51.348253999000065],[4.242049,51.35396699900008],[4.226164089000065,51.360486464000076],[4.218264220000037,51.373026208000056],[4.243669500000067,51.37472949900007],[4.279565,51.376017499000056],[4.32898031600007,51.37656210600005],[4.34442208300004,51.359062692000066],[4.375975009000058,51.35548089300005],[4.42716198100004,51.36574316100007],[4.427318973000069,51.37715845800005],[4.387891904000071,51.415013688000045],[4.396215416000075,51.432563791000064],[4.392661417000056,51.450081209000075],[4.478997554000046,51.47710404800006],[4.54287090400004,51.47682052300007],[4.53171125700004,51.44550514200006],[4.538329755000063,51.42493736800003],[4.577543195000032,51.43191339600003],[4.669544,51.42638399900005],[4.667285639000056,51.44443922800008],[4.692802150000034,51.45231734300006],[4.704348141000025,51.46660754200008],[4.715785440000047,51.469155098000044],[4.72877565400006,51.48337630700007],[4.734006500000021,51.485591499000066],[4.746144537000021,51.48961305000006],[4.750610622000067,51.49798916200007],[4.759926,51.50246449900004],[4.806475551000062,51.49684020800004],[4.839040408000074,51.47810378200006],[4.825754268000026,51.44687302500006],[4.826744329000064,51.425197955000044],[4.77283630900007,51.42864335200005],[4.773402829000077,51.41693697100004],[4.78525124600003,51.41110300200006],[4.884981350000032,51.41459564300004],[4.927079735000063,51.39682076400004],[5.000884902000053,51.44337034600005],[5.014762694000069,51.47428818100008],[5.033819708000067,51.484649320000074],[5.049275531000035,51.47233137000006],[5.081104655000047,51.46664716300006],[5.10218,51.42900499900003],[5.071045,51.39342099900006],[5.115479278000066,51.36191510700007],[5.120852310000032,51.35455155400007],[5.131386218000046,51.347104916000035],[5.134464500000036,51.31549049900008],[5.162362023000071,51.31074220200003],[5.174154516000044,51.31604756200005],[5.200245,51.32261949900004],[5.241098,51.30566299900005],[5.226578017000065,51.26920095500003],[5.237716500000033,51.26160049900005],[5.329681319000031,51.26340749500008],[5.351861025000062,51.27394032800004],[5.414989220000052,51.26361115100008],[5.494725940000023,51.29849467400004],[5.515184288000057,51.29384479000004],[5.553517467000063,51.266147352000075],[5.566283500000054,51.22083649900003],[5.644884762000061,51.19962770400008],[5.662352829000042,51.18541452900007],[5.753333914000052,51.186567497000055],[5.770630435000044,51.17936836600006],[5.781677108000054,51.154982536000034],[5.829352529000062,51.16250465000007],[5.850795477000077,51.142682887000035],[5.812350282000068,51.11732022600006],[5.830267569000057,51.09967832900003],[5.800479992000021,51.08961665500004],[5.798274,51.05985349900004],[5.772750363000057,51.05697301400005],[5.761676603000069,51.03502194400005],[5.772617548000028,51.021926800000074],[5.766125500000044,51.00871549900006],[5.760226122000063,50.993030529000066],[5.724507809000045,50.96410878100005],[5.753773476000049,50.951061440000046],[5.722377602000051,50.91274785400003],[5.698644778000073,50.907387791000076],[5.681773925000073,50.88521784100004],[5.64837553600006,50.871182102000034],[5.641507184000034,50.851945457000056],[5.657656942000074,50.82085762000003],[5.687622,50.811923999000044]],[[4.271810788000039,50.81064139500006],[4.302692076000028,50.80834451100003],[4.333626526000046,50.77757509200006],[4.380799399000068,50.767433597000036],[4.480476500000066,50.79425799900008],[4.452995201000022,50.809490966000055],[4.476783500000067,50.820377499000074],[4.45920897000002,50.84925839600004],[4.427949333000072,50.866818281000064],[4.429360517000021,50.886508837000065],[4.400054501000056,50.91188882600005],[4.30197615700007,50.88913932200006],[4.284822825000049,50.867179382000074],[4.281406076000053,50.84424863700008],[4.255530538000073,50.82172722700005],[4.271810788000039,50.81064139500006]],[[5.892073,50.75523749900003],[5.907074263000027,50.73475187400004],[5.885805363000031,50.71383042100007],[5.819052,50.71455749900008],[5.778458157000046,50.74786740300004],[5.715471428000058,50.746991853000054],[5.682000500000072,50.75744649900008]],[[5.682000500000072,50.75744649900008],[5.697084769000071,50.75573376700004],[5.71976386700004,50.76276460100007],[5.72996958300007,50.75813977100006],[5.737277332000076,50.75778721300003],[5.74603998200007,50.769308281000065],[5.763358269000037,50.78079533500005],[5.770756240000026,50.78269501200003],[5.77703955000004,50.78093576400005],[5.784417536000035,50.768286069000055],[5.793760562000045,50.76933476100004],[5.808213444000046,50.75637171500006],[5.830474603000027,50.75887928700007],[5.844917,50.76538499900005],[5.849627102000056,50.75536903600005],[5.86343525500007,50.76334206200005],[5.886290695000071,50.76948368200004],[5.892073,50.75523749900003]],[[4.940001575000053,51.430601083000056],[4.928789963000042,51.43028531400006],[4.916859393000038,51.435385920000044],[4.923925826000072,51.441585513000064],[4.935002213000075,51.441786542000045],[4.940001575000053,51.430601083000056]]]}