{"type":"Topology","objects":{"data":{"geometries":[{"properties":{"id":"CZ","name":"\u010cesko"},"type":"MultiPolygon","arcs":[[[0]]],"id":"feature_0"}],"type":"GeometryCollection"}},"bbox":[12.100236351000035,48.55467129400006,18.856963292000046,51.05469899900004],"arcs":[[[14.389998803000026,51.02534154700004],[14.412177105000069,51.019602418000034],[14.457034134000025,51.03478998200006],[14.488005975000021,51.025321930000075],[14.491221,51.04353049900004],[14.504426855000077,51.040930642000035],[14.503997342000048,51.02224789600007],[14.540990046000047,51.00631290300004],[14.565978724000047,51.00725545100005],[14.59616122500006,50.98549892200003],[14.59461114100003,50.96256069200007],[14.564842491000036,50.92805666600003],[14.566268045000072,50.91984671400007],[14.584431078000023,50.915904889000046],[14.649644516000023,50.926947246000054],[14.650736906000077,50.90773139300006],[14.6188,50.85780449900005],[14.625826429000028,50.85660231700007],[14.631447639000044,50.855640538000046],[14.648274804000039,50.84901553000003],[14.65991450000007,50.85011099900004],[14.674963601000059,50.844856367000034],[14.71043166800007,50.83799020300006],[14.72489461400005,50.82453843700006],[14.771619890000068,50.82061752700008],[14.798895438000045,50.82542322200004],[14.807634139000072,50.844856367000034],[14.823362,50.870550499000046],[14.908984013000065,50.87424639500006],[14.96110617200003,50.86327282500008],[14.997001087000058,50.870306923000044],[14.99312128500003,50.921439356000064],[15.011918475000073,50.93984445500007],[15.017430108000042,50.969131993000076],[15.006319334000068,50.98261312000005],[14.974287704000062,50.987730174000035],[14.98281305100005,51.00702886200003],[15.02196663500007,51.02145927500004],[15.044187231000024,51.01315526500008],[15.063451023000027,51.01966900100007],[15.101000725000063,51.010278216000074],[15.10720516200007,50.993217024000046],[15.127904654000076,50.99226707500003],[15.144988178000062,51.01073092000007],[15.167680485000062,51.01797611900008],[15.180861315000072,50.98434280500004],[15.232291026000041,50.99667962500007],[15.247043569000027,50.98183478800007],[15.271460400000024,50.97720988100008],[15.28895958000004,50.95172649600005],[15.26884055100004,50.92518374100007],[15.279522875000055,50.89021996400004],[15.30977606600004,50.86280380900007],[15.358764632000032,50.844856367000034],[15.372404631000052,50.82464999000007],[15.369606008000062,50.79894708100005],[15.378363419000038,50.77849663300003],[15.396708236000052,50.77902206200008],[15.439051736000067,50.807810622000034],[15.535267500000032,50.77937599900008],[15.60111428700003,50.77599408800006],[15.70949805600003,50.738317161000055],[15.816829781000024,50.752804955000045],[15.866961856000046,50.67435573200004],[15.958159153000054,50.69102949900008],[15.988458876000038,50.68306513300007],[16.010538057000076,50.63061195600005],[15.99027532100007,50.613185024000074],[16.022730678000073,50.60179831600004],[16.05488927300007,50.612490998000055],[16.06906060700004,50.63890681100003],[16.107318,50.66207299900003],[16.16288915100006,50.64763319700006],[16.186360700000023,50.62978533900008],[16.21516904400005,50.63471540300003],[16.237045699000078,50.66935066600007],[16.295822679000025,50.66027835700004],[16.328510808000033,50.66453458500007],[16.41120643200003,50.611700142000075],[16.425901492000037,50.60303221000004],[16.443687845000056,50.581618855000045],[16.41120643200003,50.56926084400004],[16.407372146000057,50.549600361000046],[16.391082519000065,50.54132776300003],[16.396366744000034,50.52792221200008],[16.359517913000047,50.502405886000076],[16.315501960000063,50.505460706000065],[16.29450046900007,50.48207731200006],[16.256343272000038,50.47755812100007],[16.228761596000027,50.44655162000004],[16.20941760200003,50.448334113000044],[16.19933561600004,50.43475350400007],[16.21404493800003,50.41145397100007],[16.24517496900006,50.40913945200003],[16.28167756000005,50.370005193000054],[16.307572626000024,50.38099202400008],[16.359721038000032,50.37727212500005],[16.366401376000056,50.347958722000044],[16.39156894000007,50.32412210200005],[16.41120643200003,50.32370612400007],[16.435023729000022,50.32088328300006],[16.483296112000062,50.27188413600004],[16.55190643800006,50.22438346300004],[16.56094561200007,50.16815606800003],[16.580544974000077,50.15304103100004],[16.58029,50.14278799900006],[16.605793771000037,50.13511336100004],[16.634136074000025,50.11300266100005],[16.70716137200003,50.09828731300007],[16.745975800000053,50.13270259800004],[16.779849459000047,50.145779729000026],[16.81059384400004,50.187735658000065],[16.844553572000052,50.20500631600004],[16.86327,50.19812299900008],[16.88001228400003,50.201467121000064],[16.904119497000067,50.223105178000026],[16.955042931000037,50.22403675500004],[16.97192290000004,50.24163241100007],[16.99912586800002,50.219138712000074],[17.02481009400003,50.229244047000066],[17.005761276000044,50.25208678000007],[17.017603877000056,50.27586299600006],[17.005639657000074,50.29650649000007],[16.945499380000058,50.31851883200005],[16.910961779000047,50.38562135900003],[16.864934196000036,50.41003449800007],[16.882463064000035,50.44062031500005],[16.907924500000036,50.44945399900007],[16.97269087600006,50.42056489000004],[16.999388777000036,50.42533680100007],[17.058774363000055,50.40612647900008],[17.10556765900003,50.40457697800008],[17.144668710000076,50.38149146000006],[17.19626364000004,50.38649570600006],[17.206518285000072,50.36064810800008],[17.251192717000038,50.33127408300004],[17.29020864200004,50.31849482800004],[17.338386280000066,50.325362064000046],[17.349732214000028,50.305968705000055],[17.343722030000038,50.281987971000035],[17.352045850000025,50.266276101000074],[17.371358087000033,50.28123884100006],[17.388526033000062,50.28172396000008],[17.42137187700007,50.273660663000044],[17.429605,50.25451299900004],[17.503600495000057,50.274631301000056],[17.555219799000042,50.27034279600008],[17.588134920000073,50.276715644000035],[17.620384675000025,50.26833320500003],[17.683994736000045,50.29951373400007],[17.69061862500007,50.32524633700007],[17.711785621000047,50.32210973000008],[17.74814639400006,50.298223396000026],[17.726552515000037,50.263231923000035],[17.761061910000024,50.23620336300007],[17.755723,50.20870185200005],[17.718254216000048,50.203470580000044],[17.69796771700004,50.18461056500007],[17.603553481000063,50.16835812200003],[17.596832791000054,50.15803227100008],[17.610001758000067,50.142443737000065],[17.63743011500003,50.13036879800006],[17.658633208000026,50.10886254400003],[17.67350838400006,50.105831806000026],[17.690104949000045,50.11541299800007],[17.71503478300002,50.107750991000046],[17.753745215000038,50.071685365000064],[17.777009320000047,50.02369042600003],[17.828549174000045,50.00885228300007],[17.830967534000024,49.99380672800004],[17.86889200400003,49.97508613600007],[17.920794443000034,49.97926757400006],[17.955212501000062,50.004069274000074],[17.998002685000074,50.01543872000008],[18.041088914000056,50.00987572300005],[18.04282551500006,50.03442245700006],[18.012854572000037,50.033227784000076],[18.005752748000077,50.04214434600004],[18.009475429000076,50.05381533900004],[18.035061,50.06577199900005],[18.084603781000055,50.04389065000004],[18.11094653500004,49.99820504100006],[18.15674939400003,49.984781475000034],[18.17671224700007,49.99900192200005],[18.204946263000068,49.995065870000076],[18.220894272000066,49.97006202400007],[18.274233836000064,49.96320559900005],[18.284837467000045,49.93475826000008],[18.315950696000073,49.91864719100005],[18.341109467000024,49.93049153800007],[18.342217643000026,49.94520390900004],[18.426650008000024,49.93642993600008],[18.496948967000037,49.904166341000064],[18.533915617000048,49.901653381000074],[18.546986875000073,49.92254043100007],[18.570271091000052,49.91902191400004],[18.575724,49.91042299900005],[18.569419271000072,49.87994427400008],[18.60025615400002,49.86001473600004],[18.571746936000068,49.82905199600003],[18.62691140800007,49.74553665700006],[18.629098144000068,49.723071556000036],[18.652981702000034,49.70967639500003],[18.70437701000003,49.70412208000005],[18.71782584700003,49.685965785000064],[18.740114917000028,49.67894543400007],[18.77783421600003,49.68404251100003],[18.803311561000044,49.67788421600005],[18.83289661300006,49.586216758000035],[18.838688887000046,49.564508395000075],[18.856963292000046,49.54773456700008],[18.841208892000054,49.526549094000075],[18.851551,49.51718899900004],[18.810663189000024,49.51470197000003],[18.750858924000056,49.48934045500005],[18.676349230000028,49.50580658000007],[18.630459492000057,49.49708220500003],[18.607610072000057,49.49848252600003],[18.59408407600006,49.50841671900008],[18.562961976000054,49.505709694000075],[18.538752792000025,49.49026335100007],[18.54336786600004,49.46703957200003],[18.49672230500005,49.43622890800003],[18.471769007000034,49.40856688200006],[18.44305293700006,49.39372268900007],[18.40359550000005,49.396745499000076],[18.408381835000057,49.38978769300007],[18.415141962000064,49.368255342000054],[18.40804012800004,49.36080756600006],[18.399340101000064,49.35679287500005],[18.402968435000048,49.35032934600008],[18.393606942000076,49.34738696000005],[18.37899611000006,49.33097858800005],[18.368726655000046,49.325728921000064],[18.329396,49.31869099900007],[18.322436,49.31505899900003],[18.19323279200006,49.28957569800008],[18.180421568000042,49.26961144000006],[18.151563337000027,49.250051633000055],[18.14675334700007,49.23625815500003],[18.15310865500004,49.217282570000066],[18.131701226000075,49.18601209700006],[18.13300534800004,49.16120681700005],[18.11053227700006,49.134884584000076],[18.117689435000045,49.12057243500004],[18.112892540000075,49.090477742000076],[18.07040704700006,49.03904609300008],[18.020339430000035,49.022240346000046],[17.92601434900007,49.018940454000074],[17.880987934000075,48.92736701000007],[17.78677585300005,48.92404728200006],[17.70568939800006,48.86305827100006],[17.64693,48.85426599900006],[17.587696941000047,48.82704590900005],[17.557652456000028,48.82849009800003],[17.52561391000006,48.814844392000055],[17.453986585000052,48.844529442000066],[17.39672550000006,48.81334999900008],[17.36134621700006,48.81611363900004],[17.319535313000074,48.84334986700003],[17.274439705000077,48.85935415200004],[17.19572811000006,48.87503817700008],[17.15202382800004,48.84488437200008],[17.11205522100005,48.830188528000065],[17.087529501000063,48.787683953000055],[17.046826640000063,48.76471667000004],[17.002136026000073,48.70919456200005],[16.970831861000022,48.67030332500008],[16.95900051700005,48.62957346600007],[16.940278,48.617245499000035],[16.923184623000054,48.62362042400008],[16.915933369000072,48.69636942100004],[16.905317543000024,48.70919456200005],[16.900396115000035,48.715140215000076],[16.878827769000054,48.71946828500006],[16.79969730600004,48.70966563700006],[16.722505607000073,48.736805050000044],[16.683896576000052,48.73036275000004],[16.67577437600005,48.76656198900008],[16.662476259000073,48.779947667000044],[16.596437395000066,48.78320180700007],[16.54186826700004,48.81151653900008],[16.518615514000032,48.80112556300003],[16.459380751000026,48.804777483000066],[16.41120643200003,48.74803736500007],[16.368197526000074,48.72904003900004],[16.34519497900004,48.742084024000064],[16.321379773000046,48.73339524200003],[16.09669238400005,48.746697468000036],[15.994506295000065,48.78010375500003],[15.955013521000069,48.80367301900003],[15.954397356000072,48.82125413700004],[15.931814895000059,48.822633937000035],[15.923122570000032,48.83572782700003],[15.901990419000072,48.83855512100007],[15.876615706000052,48.85547162300003],[15.854337617000056,48.85662524600008],[15.840326399000048,48.873973043000035],[15.783363138000027,48.87351287100006],[15.753633500000035,48.85217849900005],[15.689115375000029,48.857481378000045],[15.613569864000056,48.89609572000006],[15.542449500000032,48.90769699900005],[15.512645684000063,48.91607295700004],[15.49813290700007,48.936237627000025],[15.472615003000044,48.947901872000045],[15.425639683000043,48.95298024700003],[15.363143441000034,48.98157254900008],[15.312165968000045,48.97764039900005],[15.282672479000041,48.992332169000065],[15.264083248000077,48.95656391800003],[15.22264203900005,48.95901207800006],[15.163729013000022,48.943678515000045],[15.16631447900005,48.96424605800007],[15.149862090000056,48.99408035300007],[15.075451833000045,48.99829065600005],[15.060285896000039,49.012895283000034],[15.023326482000073,49.01846626400004],[14.997698099000047,49.01322621700007],[14.997647524000058,48.99570821000003],[14.977165894000052,48.96820884200008],[14.99067541900007,48.90476932000007],[14.973823037000045,48.86764590900003],[14.980700150000075,48.84497074400008],[14.97016852300004,48.83610908800006],[14.955722539000021,48.79332779400005],[14.976379813000051,48.77223105100006],[14.952597043000026,48.76034215800007],[14.87607143100007,48.77869183800004],[14.813334483000062,48.778585099000054],[14.804166666000071,48.73392399200003],[14.763469788000066,48.70919456200005],[14.72873069800005,48.68808537700005],[14.714979951000032,48.65363625600003],[14.717654840000023,48.60242971100007],[14.691014,48.58430199900005],[14.665379151000025,48.58438645700005],[14.65095141300003,48.60497845200007],[14.627312449000044,48.60689147100004],[14.609555570000055,48.62605603000003],[14.556217416000038,48.60798847800004],[14.503839241000037,48.62001665400004],[14.46442916500007,48.645310977000065],[14.447786385000029,48.64153286800007],[14.45235424200007,48.62583879500005],[14.432340839000062,48.59291952600006],[14.390626277000024,48.59124714700005],[14.387849820000042,48.57377521600006],[14.360027866000053,48.571896148000064],[14.336333146000072,48.55467129400006],[14.268524565000064,48.57988364500005],[14.140614768000034,48.596429982000075],[14.103412367000033,48.59124419900007],[14.05030103200005,48.60827187600006],[14.043862592000039,48.62565333600003],[14.014922880000029,48.637995498000066],[14.027696092000042,48.65113629500007],[14.053787147000037,48.65655268100005],[14.056096745000048,48.67300272800003],[14.031749004000062,48.680941629000074],[14.00293492700007,48.70678908600007],[13.994246673000077,48.70919456200005],[13.939656676000027,48.72430863900007],[13.880211939000048,48.76373341400006],[13.839507,48.77160499900003],[13.808299709000039,48.77926499900008],[13.811502314000052,48.79944894800008],[13.78862698000006,48.82909614600004],[13.763172384000029,48.83884763800006],[13.737738468000032,48.88200976500008],[13.675820907000059,48.881419848000064],[13.649941433000038,48.902328315000034],[13.643502358000035,48.91462149100005],[13.626835742000026,48.94644060400003],[13.604840444000047,48.94409950200003],[13.58520642600007,48.96675318800004],[13.567636438000022,48.968382062000046],[13.551578500000062,48.96778749900005],[13.512663669000062,48.96901458900004],[13.499536773000045,48.94247312700003],[13.416651500000057,48.98003549900005],[13.405420587000037,48.989790404000075],[13.39241411100005,49.05162368900005],[13.289084873000036,49.11764595300008],[13.234509469000045,49.11478155800006],[13.190837809000072,49.13018722100003],[13.17448974000007,49.142739627000026],[13.170908,49.17357949900003],[13.114672540000072,49.20227632400008],[13.110213073000068,49.21804755200003],[13.09094691100006,49.22823306600003],[13.08172427900007,49.24473547500003],[13.031862157000035,49.26926230300006],[13.025688141000046,49.30247478500007],[12.972522297000069,49.332971763000046],[12.89657717700004,49.34946500400008],[12.884571605000076,49.34854779500006],[12.885322418000044,49.33621795600004],[12.877967927000043,49.33358018300004],[12.785598140000047,49.34737426400005],[12.761749352000038,49.372609057000034],[12.752252879000025,49.39716393200007],[12.705686422000042,49.42356170200003],[12.659897643000022,49.434076779000065],[12.651486843000043,49.46202227800006],[12.633763500000043,49.47619499900003],[12.642051523000077,49.48792177400003],[12.640942027000051,49.524946216000046],[12.593778500000042,49.54219149900007],[12.574019758000077,49.563045989000045],[12.574561929000026,49.58452333300005],[12.559409494000022,49.61716653700006],[12.526444609000066,49.62462504200005],[12.522148643000037,49.68204445400005],[12.443360469000027,49.70572802300006],[12.409349459000055,49.73884580500004],[12.401524,49.75837299900007],[12.467449822000049,49.78587078100003],[12.476498217000028,49.83457545600004],[12.495877101000076,49.841453372000046],[12.550988500000074,49.905087999000045],[12.539878053000052,49.92293329200004],[12.476861244000077,49.93976487400005],[12.475091187000032,49.95214228000003],[12.496228055000074,49.96932673900005],[12.49075983800003,49.97883676500004],[12.460920917000067,49.99276154800003],[12.431791025000052,49.98791929400005],[12.429387933000044,49.99682113500006],[12.398183509000035,50.01280375700003],[12.367882260000044,50.01987804000004],[12.343517010000028,50.03677097100007],[12.325267419000056,50.03648574200008],[12.307593394000037,50.05534516200004],[12.260799,50.05815649900006],[12.269157267000026,50.077699866000046],[12.249098047000075,50.09367455100005],[12.202391830000067,50.11061992500004],[12.196923081000023,50.13922230600008],[12.211772260000032,50.167544156000076],[12.19851041100003,50.188975826000046],[12.160679,50.21984899900008],[12.100236351000035,50.250988703000075],[12.132600283000045,50.280288417000065],[12.121472811000046,50.30546267500006],[12.100900500000023,50.31802799900004],[12.133966075000046,50.318833107000046],[12.182108472000039,50.320005319000074],[12.197861784000054,50.30678967000006],[12.204137500000058,50.27398094500006],[12.26048234700005,50.26325371300004],[12.263070284000037,50.25451522700007],[12.244596022000053,50.24554765400006],[12.28679689300003,50.22360254000006],[12.279154130000052,50.19625132800007],[12.294423603000041,50.17782491000003],[12.320546269000033,50.173593029000074],[12.33365350500003,50.190270628000064],[12.327001954000025,50.20593805500005],[12.33221690800002,50.237176833000035],[12.353154520000032,50.241320286000075],[12.361323464000066,50.27393402700005],[12.396522384000036,50.29404334600008],[12.401197784000033,50.31944705900003],[12.430376022000075,50.32497760900003],[12.462306786000056,50.350619676000065],[12.486893208000026,50.351965696000036],[12.490982073000055,50.373773949000054],[12.513846242000056,50.39546938800004],[12.58377850000005,50.40707899900008],[12.67191642900002,50.414644130000056],[12.705098556000053,50.400272673000075],[12.739110078000067,50.43256448300008],[12.790354119000028,50.447571280000034],[12.807123494000052,50.440628090000075],[12.825585833000048,50.45585157000005],[12.948144500000069,50.40431149900007],[13.018267838000043,50.44735989600008],[13.022696708000069,50.48278218300004],[13.03616571200007,50.50868126700004],[13.08408957000006,50.50073188500005],[13.128743993000057,50.515387770000075],[13.18987154000007,50.504412528000046],[13.246774600000037,50.58866164300008],[13.274817549000034,50.59231548900004],[13.295360930000072,50.57716223400007],[13.319049504000077,50.58172321400008],[13.324410710000052,50.605444297000076],[13.372648854000033,50.62535557900003],[13.376014304000023,50.64819900300006],[13.394802003000052,50.64249143200004],[13.420963640000025,50.61457179000007],[13.459729583000069,50.60403765400008],[13.501846,50.633642999000074],[13.518424293000066,50.64152083600004],[13.520826474000046,50.65790694900005],[13.536759559000075,50.672798329000045],[13.53492865800007,50.70425310200005],[13.61143951200006,50.71228243000007],[13.643502358000035,50.72927335000003],[13.652174,50.73035999900003],[13.700995774000035,50.71822466000003],[13.72419713100004,50.73092184800004],[13.766157760000056,50.735307367000075],[13.850148098000034,50.72785225400003],[13.865102536000052,50.740449874000035],[13.897122289000038,50.74623860000003],[13.889996348000068,50.77063051300007],[13.904225025000073,50.791202687000066],[13.938343435000036,50.79100105300006],[13.986250133000055,50.817350357000066],[14.028799710000044,50.80651959100004],[14.073371393000059,50.81256493500007],[14.155853861000026,50.844856367000034],[14.221904381000058,50.86072534500005],[14.238284995000072,50.88690833100003],[14.270122297000057,50.89351677600007],[14.303960989000075,50.88501439300006],[14.386151118000043,50.90207013500003],[14.400085038000043,50.926121859000034],[14.394700163000039,50.936430475000066],[14.317045312000062,50.95311442500008],[14.307671897000034,50.96674118200008],[14.326378483000042,50.975713291000034],[14.323818264000067,50.98349963900006],[14.284051143000056,50.97872859600005],[14.261914249000029,50.98861221900006],[14.264932251000062,51.00782405800004],[14.282819722000056,51.020138030000055],[14.283589709000069,51.037451814000065],[14.302392729000076,51.05294808600007],[14.317873500000076,51.05469899900004],[14.336205163000045,51.04172701500005],[14.372328216000028,51.04160813200008],[14.389998803000026,51.02534154700004]]]}