{"type":"Topology","objects":{"data":{"geometries":[{"properties":{"id":"DK1","name":"DK1"},"type":"MultiPolygon","arcs":[[[0]],[[1]],[[2]],[[3]],[[4]],[[5],[6]],[[7]],[[8]],[[9]],[[10]],[[11]],[[12]],[[13]],[[14]],[[15]],[[16]],[[17]],[[18]],[[19]],[[20]],[[21]],[[22]],[[23]],[[24]],[[25]],[[26]],[[27]],[[28]],[[29]],[[30]],[[31]],[[32]],[[33]],[[34]],[[35]],[[36]],[[37]],[[38]],[[39]],[[40]],[[41]],[[42]],[[43]],[[44]],[[45]],[[46]],[[47]],[[48]],[[49]],[[50]],[[51]]],"id":"feature_0"},{"properties":{"id":"DK2","name":"DK2"},"type":"MultiPolygon","arcs":[[[52]],[[53]],[[54]],[[55]],[[56]],[[57]],[[58]],[[59]],[[60]],[[61]],[[62]],[[63]],[[64]],[[65]],[[66]],[[67]],[[68]],[[69]],[[70]],[[71]],[[72]],[[73]],[[74]],[[75]],[[76]],[[77]],[[78]],[[79]]],"id":"feature_1"}],"type":"GeometryCollection"}},"bbox":[8.076003272000037,54.56357929400008,15.199297644000069,57.73374204000004],"arcs":[[[9.571828528000026,55.12123741700003],[9.571828528000026,55.113087731000064],[9.553024665000066,55.11163585800006],[9.544449446000044,55.12333456400006],[9.549130275000039,55.13001366000003],[9.562475289000076,55.12919169000003],[9.571828528000026,55.12123741700003]],[[8.47744588200004,55.14506239800005],[8.478039540000054,55.17350583900003],[8.481226886000059,55.18569124100003],[8.490230545000031,55.19685290700005],[8.516661311000064,55.211261827000044],[8.543713904000072,55.20427800900006],[8.56690763100005,55.20097971300004],[8.591946104000044,55.19146710200005],[8.590640765000046,55.18300336000004],[8.57258110500004,55.16949748700006],[8.567046725000068,55.14957611300008],[8.555909499000052,55.148981115000026],[8.551687209000022,55.14101130200004],[8.559262810000064,55.12044884300008],[8.55305028600003,55.10201924300003],[8.569823085000053,55.085359950000054],[8.553099847000055,55.07684388700005],[8.54283244900006,55.075612970000066],[8.543437448000077,55.06937501900006],[8.521355538000023,55.06159997900005],[8.495188362000022,55.06544534500006],[8.479045890000066,55.077298143000064],[8.467876687000057,55.09322747300007],[8.464284815000042,55.10743567600008],[8.47744588200004,55.14506239800005]],[[9.75740655800007,55.273981682000056],[9.760929265000073,55.26619768100005],[9.772448336000025,55.26564380700006],[9.763513164000074,55.250704331000065],[9.741609807000032,55.24653617000007],[9.72338919200007,55.25800616500004],[9.72973791100003,55.26166381100006],[9.724632688000042,55.26993820600006],[9.746713764000049,55.27533339800004],[9.75740655800007,55.273981682000056]],[[8.561022223000066,55.295955692000064],[8.590533763000053,55.294275320000054],[8.56949647500005,55.26703267800008],[8.540694918000042,55.265479851000066],[8.532642717000044,55.27032563800003],[8.531017082000062,55.28065275800003],[8.545341120000046,55.29289544400007],[8.561022223000066,55.295955692000064]],[[9.702735233000055,55.35034058800005],[9.688554518000046,55.35713953800007],[9.69787094700007,55.364380588000074],[9.71407412000002,55.36392196300005],[9.723050964000038,55.357369101000074],[9.702735233000055,55.35034058800005]],[[9.719223535000026,55.52776318000008],[9.599751239000057,55.51756619900004],[9.58187491600006,55.50699150400004],[9.664178187000061,55.46476283000004],[9.65351137700003,55.44308754900004],[9.613871083000049,55.41669021000007],[9.603184383000041,55.37249156000007],[9.642780987000037,55.32818182300008],[9.693923854000047,55.232202089000054],[9.659265109000046,55.19273107300006],[9.584951629000045,55.18323430500004],[9.524280589000057,55.15720172700003],[9.507017963000067,55.12355315600007],[9.528300598000044,55.09487609800004],[9.529326793000052,55.073406340000076],[9.449664039000027,55.032700024000064],[9.49526467800007,55.02049051900008],[9.598626986000056,55.02953449800003],[9.749293413000032,54.968079258000046],[9.82490141300002,54.95238102900004],[9.821171078000077,54.97078484000008],[9.787938879000023,54.994551794000074],[9.698932809000041,55.01421822200007],[9.665054035000026,55.04374158600007],[9.671697651000045,55.05959948200007],[9.693943263000051,55.07012400800005],[9.779714701000046,55.07133184800006],[9.967881282000064,54.99586513000003],[10.03285397600007,54.93412072000007],[10.051928877000023,54.893624844000044],[10.00063510900003,54.871528357000045],[9.931915613000058,54.88725596200004],[9.971304501000077,54.86267412400008],[9.964235300000041,54.85458858700008],[9.878843227000061,54.873077426000066],[9.87845289300003,54.89832224600008],[9.744281465000029,54.90058626500007],[9.726882958000033,54.886802009000064],[9.742040890000055,54.85330271400005],[9.721264314000052,54.84511051000004],[9.650647667000044,54.86915693800006],[9.633243248000042,54.89346063900007],[9.635249188000046,54.915903882000066],[9.627383958000053,54.92014124900004],[9.554949174000058,54.88179998600003],[9.420151500000031,54.83195649900006],[9.407875115000024,54.84070881700006],[9.383699414000034,54.837675524000076],[9.340035159000024,54.80249033400003],[9.25455594300007,54.810862264000036],[9.239260762000072,54.82739132000006],[9.23671269600004,54.85009908400008],[9.179425051000067,54.86099088900005],[9.113097,54.873601499000074],[9.04988681900005,54.87323605200004],[8.944251714000075,54.90158729400008],[8.812118059000056,54.90398458000004],[8.774072467000053,54.89426379200006],[8.731498199000043,54.89374616900005],[8.682188677000056,54.909174473000064],[8.635926,54.91168299900005],[8.641648603000021,54.92807581800008],[8.657658625000067,54.97393770500008],[8.636765401000048,55.05272434800003],[8.678505307000023,55.13817216700005],[8.664854431000037,55.15139946200003],[8.679709253000055,55.16782580000006],[8.649460264000027,55.27432222700003],[8.665814806000071,55.34046741600008],[8.61722998700003,55.42806273400004],[8.546431829000028,55.45510142300003],[8.44770918200004,55.45809193300005],[8.303977678000024,55.55726137400006],[8.298406095000075,55.56906715500003],[8.313034381000023,55.58269186600006],[8.292947688000027,55.593109972000036],[8.26246614400003,55.589961893000066],[8.238490257000024,55.55991419900005],[8.263706739000042,55.53409541000008],[8.260290308000037,55.523043449000056],[8.302477234000037,55.49580917600008],[8.300665332000051,55.47834090400005],[8.215936265000039,55.51073924100007],[8.130396094000048,55.54344772500008],[8.077003825000077,55.55731108900005],[8.076003272000037,55.56471783100005],[8.095318863000045,55.59056082700005],[8.097133862000021,55.598052702000075],[8.123798,55.64059149900004],[8.130396094000048,55.65303841600007],[8.175465170000052,55.75451192100007],[8.170786,55.81537749900008],[8.138391874000035,55.945115058000056],[8.100414852000029,56.04297294700007],[8.128921971000068,56.229000822000046],[8.126941773000055,56.252977298000076],[8.116358608000041,56.38111951600007],[8.117309255000066,56.52478533000004],[8.131010442000047,56.57677675800005],[8.16645864800006,56.65335196900003],[8.211067206000052,56.70147255900008],[8.215936265000039,56.694018768000035],[8.223612185000036,56.682268100000044],[8.215936265000039,56.670454102000065],[8.194707721000043,56.637781277000045],[8.215936265000039,56.62908318500007],[8.24498649000003,56.605115374000036],[8.290534930000035,56.59309409600007],[8.301846993000026,56.56194668200004],[8.32935879300004,56.57442466600003],[8.381240759000036,56.57688068300007],[8.51372953300006,56.54583777800008],[8.562927524000031,56.56237512800004],[8.594740270000045,56.52568873100006],[8.596285765000061,56.49909993800003],[8.63010414300004,56.476234430000034],[8.665035099000022,56.46992294300003],[8.733408833000055,56.48741422100005],[8.740734854000038,56.531044862000044],[8.752963363000049,56.551362244000074],[8.704191331000061,56.58727004600007],[8.684693088000074,56.61718110800007],[8.73585238100003,56.63124905300003],[8.774072467000053,56.65916119500008],[8.815284604000055,56.68925843300008],[8.895496385000058,56.69992174100008],[8.887992302000043,56.70988303000007],[8.842669701000034,56.72034350600006],[8.874166002000038,56.76224932500003],[8.95010317200007,56.79421004200003],[9.021123661000047,56.78948244500003],[9.060783344000072,56.798702064000054],[9.095189509000022,56.789617160000034],[9.16316389900004,56.71426652000008],[9.106960895000043,56.66813309500003],[9.092842315000041,56.64424110200008],[9.056365990000074,56.62002330300004],[9.04941860100007,56.58955351700007],[9.06413993800004,56.56330432000004],[9.08881367500004,56.57174697700003],[9.105791228000044,56.601320067000074],[9.13699877700003,56.61000426700008],[9.128827793000028,56.62594533100008],[9.149282326000048,56.64425552800003],[9.173946371000056,56.62656859800006],[9.254468478000035,56.62665879700006],[9.299886377000064,56.615001704000065],[9.318351865000068,56.64338689200008],[9.319507292000026,56.67164927600004],[9.28249624800003,56.69216439500008],[9.197312792000048,56.67227387100007],[9.175116401000025,56.67811414500005],[9.221294767000074,56.72035437000005],[9.234521074000043,56.744535762000055],[9.226561063000077,56.75865344400006],[9.183938932000046,56.78508069800006],[9.179375898000046,56.810283404000074],[9.203672052000059,56.85453493700004],[9.176162591000036,56.884800392000045],[9.17348320700006,56.89914960900006],[9.193062209000061,56.92629653300003],[9.265609882000035,56.98554242000006],[9.127456915000039,57.03348846000006],[9.054738693000047,57.01451411200003],[9.008574922000037,57.01815673200008],[8.961030601000061,57.00897416400005],[8.904731338000033,56.98239775600007],[8.845559642000069,56.989569998000036],[8.828064488000052,56.97030259400003],[8.774072467000053,56.95095427800004],[8.67268602400003,56.94576697600007],[8.635703911000064,56.89839931900008],[8.62649428900005,56.86437677400005],[8.612151555000025,56.84653642600006],[8.576289049000025,56.82291715500003],[8.531149258000028,56.81234839700005],[8.480532924000045,56.78470637200007],[8.491707677000022,56.75394859200003],[8.48327043300003,56.723330229000055],[8.510253506000026,56.708675698000036],[8.512831095000024,56.69289760400005],[8.452861676000055,56.69407871200008],[8.405271500000026,56.67592599900007],[8.426268828000048,56.67286116300005],[8.468760774000032,56.683255544000076],[8.495676981000031,56.67164927600004],[8.50494249600007,56.66765398600006],[8.514701839000054,56.67164927600004],[8.545633512000052,56.68431211400008],[8.58210011500006,56.68795193300008],[8.586405318000061,56.68043668100006],[8.582193482000037,56.67164927600004],[8.57640101000004,56.655034998000076],[8.593041989000028,56.63429605500005],[8.591025688000059,56.61080774200008],[8.542790355000022,56.595741829000076],[8.531631205000053,56.58318174600004],[8.483458381000048,56.63183599300004],[8.404351435000024,56.67164927600004],[8.350786049000021,56.68892757600008],[8.29767494600003,56.75184402200006],[8.275405272000057,56.76591306000006],[8.257249915000045,56.76040167800005],[8.247502230000066,56.72183910500007],[8.235634158000039,56.719710719000034],[8.227783971000065,56.756548717000044],[8.245894185000054,56.81085790800006],[8.364876938000066,56.95660846000004],[8.587752373000058,57.114093310000044],[8.638774266000041,57.12178825500007],[8.770373712000037,57.10465988700008],[8.866200934000062,57.11947348900003],[8.988708675000055,57.154377674000045],[9.160503316000074,57.14119771400004],[9.411740795000071,57.17216076300008],[9.567001532000063,57.25077150200008],[9.677559619000021,57.34534535700004],[9.794673196000076,57.471875555000054],[9.94629736500002,57.58070315700007],[10.103444828000022,57.591657643000076],[10.240243116000045,57.61203329800003],[10.330918051000026,57.640951947000076],[10.53156563400006,57.72905441200004],[10.583844071000044,57.73374204000004],[10.45969572000007,57.63041507100007],[10.43609464900004,57.58923619600006],[10.436534742000049,57.56803582200007],[10.450058549000062,57.54098606200006],[10.53703857100004,57.44931504600004],[10.52357237900003,57.37427278400003],[10.538158834000058,57.25737542400003],[10.432037212000068,57.15172288400004],[10.35250579600006,57.023652635000076],[10.319792160000077,57.00716901000004],[10.219894172000068,56.998295401000064],[10.033814075000066,57.069891648000066],[10.178222429000073,56.996935130000054],[10.283043422000048,56.96720246800004],[10.271376884000063,56.86000492800008],[10.284113339000044,56.79667391300006],[10.312466331000053,56.72751111900004],[10.188689088000046,56.70653773400005],[10.194362,56.68466349900007],[10.32041825500005,56.69837179800004],[10.342104340000049,56.69126053800005],[10.352039381000054,56.67776630900005],[10.339732716000071,56.63070286800007],[10.241229454000063,56.56655815100004],[10.234750624000071,56.53212320100005],[10.320981075000077,56.594336842000075],[10.387610404000043,56.54806758900003],[10.465724317000024,56.52181626700008],[10.546222613000054,56.51499616700005],[10.797332081000036,56.52936237400007],[10.818215941000062,56.53056630700007],[10.85143864400004,56.51781622000004],[10.948285611000074,56.44198840400003],[10.929482269000061,56.41366022700004],[10.904181636000033,56.34126045200003],[10.80639626900006,56.25687964900004],[10.797332081000036,56.25173262700008],[10.751969080000038,56.22452017100005],[10.731271175000074,56.173589055000036],[10.70636791100003,56.14990566300003],[10.682009579000066,56.151434377000044],[10.652127804000031,56.17305198100007],[10.662835494000035,56.201742901000046],[10.657969106000053,56.212949750000064],[10.601211293000063,56.21701112400007],[10.54740308700002,56.173370695000074],[10.546984571000053,56.11418094900006],[10.525790156000028,56.10383712400005],[10.496899039000027,56.129160279000075],[10.510398899000052,56.15422126800007],[10.505361785000048,56.16839100100003],[10.454820978000043,56.17703990000007],[10.400228180000056,56.16900448400003],[10.366273955000054,56.18883492300006],[10.411296531000062,56.211820009000064],[10.460966529000075,56.21014386000007],[10.470103060000042,56.23799819700008],[10.491820501000063,56.263615300000026],[10.433213368000054,56.28972285000003],[10.386006852000037,56.28230251600007],[10.327187411000068,56.23283890700003],[10.24904676400007,56.18522765500006],[10.235422290000031,56.16491904900005],[10.244380516000035,56.15008320100003],[10.222884240000042,56.12911090600005],[10.26964418700004,56.02565560000005],[10.259961778000047,55.94746655600005],[10.250609121000025,55.92084134500004],[10.208119957000065,55.88555705200008],[10.188563266000074,55.84882413400004],[10.062586578000037,55.88126299500004],[10.004371309000021,55.87671708200003],[10.003429634000042,55.86593923700008],[9.983341928000073,55.87346462600004],[9.889720126000043,55.85411292200007],[9.90118891000003,55.84299146600006],[10.011489377000032,55.828493939000055],[10.048436773000049,55.81270282600008],[10.048226766000028,55.79923272600007],[10.027134640000043,55.77000021500004],[10.049120965000043,55.74686871600005],[10.015062675000024,55.727437390000034],[10.012443121000047,55.70164142200008],[9.816654510000035,55.67235904300003],[9.747557882000024,55.683279664000054],[9.672057,55.712056999000026],[9.649220852000042,55.69544864300008],[9.809191829000042,55.60856496000008],[9.719223535000026,55.52776318000008]],[[8.176895382000055,55.82598146400005],[8.183599192000031,55.82019827800008],[8.195807500000058,55.83231999900005],[8.177166297000042,55.832662208000045],[8.176895382000055,55.82598146400005]],[[8.336643877000029,55.45783638300003],[8.39757528900003,55.46621294100004],[8.41546287600005,55.433128174000046],[8.452421400000048,55.427259380000066],[8.460938225000064,55.410798655000065],[8.454643244000067,55.38958034900003],[8.468285257000048,55.36925460100008],[8.505268470000033,55.35135358800005],[8.504592482000021,55.34626698400007],[8.465342830000054,55.340351749000035],[8.428763331000027,55.353344751000066],[8.375830652000047,55.41445124100005],[8.338366901000029,55.44173016700006],[8.336643877000029,55.45783638300003]],[[8.325255968000022,55.50328807600005],[8.314672595000047,55.506380351000075],[8.300987454000051,55.517310990000055],[8.312872133000042,55.52199091800003],[8.328306646000044,55.50855376800007],[8.325255968000022,55.50328807600005]],[[8.637360070000057,56.57852292300004],[8.65027791500006,56.56741911700004],[8.633097132000046,56.55204800300004],[8.630615028000022,56.54372956900005],[8.636198927000066,56.52409710000006],[8.628804529000035,56.521458444000075],[8.620411489000048,56.53502438800007],[8.620188014000064,56.545084562000056],[8.61263249600006,56.55381008000006],[8.630581735000021,56.57413170600006],[8.637360070000057,56.57852292300004]],[[8.614569197000037,56.66245375400007],[8.640772123000033,56.659658421000074],[8.630384750000076,56.64686116200005],[8.63585882700005,56.63968167300004],[8.631754088000037,56.62588309500006],[8.599237196000047,56.638668979000045],[8.598396421000075,56.649056674000065],[8.588625413000045,56.65372967700006],[8.592618253000069,56.66137824200007],[8.614569197000037,56.66245375400007]],[[8.54991413700003,56.70106489700004],[8.538887007000028,56.692289276000054],[8.525947553000037,56.70045497400008],[8.546714369000028,56.70764026400008],[8.54991413700003,56.70106489700004]],[[8.65340597900007,56.81472086200006],[8.628394121000042,56.82614368700007],[8.643094063000035,56.84212499700004],[8.651850377000073,56.88475569500008],[8.807691651000027,56.90424146000004],[8.858615009000061,56.94997728700008],[8.906154163000053,56.94987013600007],[8.917003665000038,56.91937870100003],[8.897018868000032,56.88430295400008],[8.852409133000037,56.883878424000045],[8.83416767500006,56.867095936000055],[8.845879741000033,56.83104728600006],[8.873080835000053,56.79838201200005],[8.843014379000067,56.77106671700005],[8.831310874000053,56.744359332000045],[8.774089119000053,56.70015504500003],[8.650777652000045,56.67264841400004],[8.594803065000065,56.72327378700004],[8.569203580000021,56.70728812100003],[8.557062536000046,56.730987173000074],[8.51896451500005,56.733637],[8.516457341000034,56.73641458600008],[8.547567343000026,56.75982832700004],[8.555602718000046,56.78712328600005],[8.620802127000047,56.794217470000035],[8.655003212000054,56.80661522100007],[8.65340597900007,56.81472086200006]],[[8.964011490000075,56.82772646800004],[8.950958478000075,56.83419939100003],[8.958546842000032,56.83805487200004],[8.977245178000032,56.839621332000036],[9.02648669100006,56.84692201800004],[9.062472833000072,56.84400958900005],[9.059699274000025,56.83528278300008],[9.07325062700005,56.82384546600008],[9.05859521900004,56.81781333600003],[9.033388720000062,56.81989530300007],[9.023157058000038,56.80405150100006],[9.008613162000074,56.796816611000054],[8.977245178000032,56.812848975000065],[8.964011490000075,56.82772646800004]],[[9.088404109000066,56.906179128000076],[9.103107588000057,56.88916382900004],[9.096809669000038,56.87978122200008],[9.078480924000075,56.88489524900007],[9.067151330000058,56.89358313300005],[9.088404109000066,56.906179128000076]],[[8.929632730000037,56.98062171500004],[8.926549677000025,56.96184259200004],[8.915102600000068,56.96291091300003],[8.91907298700005,56.97772121700007],[8.929632730000037,56.98062171500004]],[[10.44644068100007,54.86498551700004],[10.473600801000032,54.88430359300003],[10.515463628000077,54.86098782100004],[10.52017311700007,54.85065602100008],[10.454737445000035,54.83736028200008],[10.41737589500002,54.81854224800003],[10.282922479000035,54.89257567700008],[10.24763093100006,54.920247277000044],[10.23173227500007,54.94998222700008],[10.235144925000043,54.953013973000054],[10.282881821000046,54.93914251400008],[10.37355731200006,54.88674292600007],[10.40192100300004,54.89515368600007],[10.405177422000065,54.91049222700008],[10.416856352000025,54.902063826000074],[10.409444379000035,54.89250459200008],[10.44644068100007,54.86498551700004]],[[10.427584093000064,54.981547427000066],[10.441637884000045,54.97102102700006],[10.423356143000035,54.96187576500006],[10.399052090000055,54.975723464000055],[10.405905575000077,54.97906384400005],[10.418190333000041,54.975218830000074],[10.427584093000064,54.981547427000066]],[[10.366436296000074,54.968903742000066],[10.357710776000033,54.97728426400005],[10.380748297000025,54.98186319200005],[10.383664859000021,54.97541268600003],[10.366436296000074,54.968903742000066]],[[10.451830948000065,55.00433661000005],[10.463769250000041,55.01565890100005],[10.478303678000032,55.005001030000074],[10.467476805000047,54.99818549200006],[10.451830948000065,55.00433661000005]],[[10.320511232000058,55.01036633900003],[10.338399911000067,55.01830958900007],[10.341625257000032,55.00364581100007],[10.330550467000023,55.00360920600008],[10.320511232000058,55.01036633900003]],[[10.267964627000026,55.03071298200007],[10.275802350000049,55.02141430000006],[10.269169299000055,55.01721606900003],[10.25606766200002,55.01818388100003],[10.235029452000049,55.03208880400007],[10.237543219000031,55.036965559000066],[10.251839339000071,55.04009821400007],[10.267964627000026,55.03071298200007]],[[10.148124710000047,55.05081604700007],[10.175997615000028,55.048471660000075],[10.180989907000026,55.04258304800004],[10.170287888000075,55.03568138900005],[10.146088079000037,55.03128396200003],[10.125266084000032,55.04371295700008],[10.123655111000062,55.05373609500003],[10.139575681000053,55.060866333000035],[10.138090693000038,55.05487791300004],[10.148124710000047,55.05081604700007]],[[10.239901269000029,55.06666647700007],[10.247008515000061,55.07115897500006],[10.264123358000063,55.05941193400008],[10.25999224900005,55.05227836900008],[10.239901269000029,55.06666647700007]],[[10.026949753000054,55.12074281000008],[10.005905809000069,55.12317529900008],[9.981633869000063,55.13393462600004],[9.98761653300005,55.17375709500004],[10.03877506300006,55.136130224000055],[10.026949753000054,55.12074281000008]],[[9.878800028000057,55.23858755300006],[9.86748865800007,55.25092540500003],[9.87258186400004,55.25646934700006],[9.88871449800007,55.24828484100004],[9.878800028000057,55.23858755300006]],[[10.450584560000038,55.43972809300004],[10.47655112700005,55.44427123000003],[10.50159655400006,55.46788752500004],[10.61439973900002,55.488717859000076],[10.611751050000066,55.50330132500005],[10.579270613000062,55.52106568100004],[10.620397707000052,55.52552696100008],[10.60645233300005,55.57174975700008],[10.626132429000052,55.57032518700004],[10.620672657000057,55.59990684600007],[10.626920674000075,55.60663038800004],[10.695652841000026,55.54527062600005],[10.738995900000077,55.48931293900006],[10.677348401000074,55.46092788800007],[10.673493877000055,55.44810212600004],[10.762667376000024,55.385741178000046],[10.797332081000036,55.342330282000034],[10.841808191000041,55.29768527300007],[10.82971847500005,55.29206891800004],[10.797332081000036,55.30206091400004],[10.784933211000066,55.296591154000055],[10.797332081000036,55.261814754000056],[10.81154396100004,55.22195321700008],[10.806193643000029,55.18479515200005],[10.797332081000036,55.16437506400007],[10.768470130000026,55.10069825900007],[10.715611300000035,55.057170674000076],[10.705314480000027,55.034642793000046],[10.676474170000063,55.03277087300006],[10.647776595000039,55.04475026000006],[10.652781462000064,55.02493989200008],[10.631593146000057,54.98912099300003],[10.652253776000066,54.98245315500003],[10.681232377000072,54.99201054800005],[10.682700594000039,54.98002319200003],[10.614812613000026,54.952371637000056],[10.559906136000052,54.94862748000003],[10.531246827000075,54.97489993100004],[10.521236840000029,54.999204242000076],[10.52453833100003,55.008082426000044],[10.596839278000061,55.05014942500003],[10.50759187400007,55.03036680400004],[10.410566853000034,55.04409325000006],[10.376092853000046,55.05818666400006],[10.32831598100006,55.05569434000006],[10.230583557000045,55.09510284700008],[10.206988284000033,55.07012129900005],[10.133900760000074,55.087006933000055],[10.081750985000042,55.08378379000004],[10.091311375000032,55.105023653000046],[10.156051233000028,55.127969009000026],[10.120718021000073,55.17521891700005],[10.105176070000027,55.18474936900003],[10.028490461000047,55.18341328500003],[9.903519365000022,55.237496520000036],[9.887850656000069,55.262676326000076],[9.888848600000074,55.30704076000006],[9.874883848000024,55.34349528400003],[9.797092152000062,55.36622568100006],[9.83119828100007,55.38727099300007],[9.815049346000023,55.41995522900004],[9.752749653000023,55.43650366400004],[9.73180145200007,55.459502576000034],[9.792242052000063,55.440184515000055],[9.801111379000076,55.44768355300005],[9.723488538000026,55.490192652000076],[9.690577552000036,55.48220694200006],[9.683416525000041,55.50085429000006],[9.690394810000043,55.51128724600005],[9.743268671000067,55.51127732700007],[9.770829461000062,55.54190659100004],[9.825073145000033,55.55181454800004],[9.846083322000027,55.544888306000075],[9.866632780000032,55.51752423900007],[9.935759785000073,55.51364197400005],[10.038838761000022,55.555288579000035],[10.146874829000069,55.573093494000034],[10.22431199500005,55.60145627300005],[10.268624714000055,55.60461290300003],[10.299758119000046,55.58675023900008],[10.299306762000072,55.613145649000046],[10.311060973000053,55.61913747400007],[10.412384214000042,55.589140418000056],[10.487604420000025,55.54964355300007],[10.481207250000068,55.52610971300004],[10.493005948000075,55.50124950600008],[10.445060355000066,55.47204865800006],[10.431667297000047,55.442747104000034],[10.450584560000038,55.43972809300004]],[[9.806784342000071,55.32325382000005],[9.819980730000054,55.32643188900005],[9.830162763000033,55.30927422000008],[9.824948307000057,55.29949603100005],[9.798820652000074,55.294841371000075],[9.789196385000025,55.31541320800005],[9.794987913000057,55.32586193100008],[9.806784342000071,55.32325382000005]],[[10.181699559000037,55.60092567700008],[10.173658363000072,55.60952813200004],[10.18251489000005,55.617196696000065],[10.195924725000054,55.60849754900005],[10.181699559000037,55.60092567700008]],[[10.190956981000056,55.63718036300003],[10.182077892000052,55.62836582400007],[10.168498455000076,55.635694784000066],[10.162024805000044,55.64480311800003],[10.169051763000027,55.64667059400006],[10.189752695000038,55.642851645000064],[10.190956981000056,55.63718036300003]],[[10.246626904000038,55.760621650000076],[10.273107268000047,55.75890555900003],[10.297200428000053,55.763033492000034],[10.298160765000034,55.77122564500007],[10.306304175000037,55.77773550000006],[10.312350418000051,55.79050073700006],[10.323950742000022,55.78241314400003],[10.329910458000029,55.76491491400003],[10.32072572800007,55.74422102800003],[10.307758814000067,55.74071590600005],[10.289911578000044,55.74643908200005],[10.240379992000044,55.74759445500007],[10.233687848000045,55.75355366700006],[10.246626904000038,55.760621650000076]],[[10.096432041000071,55.830315357000075],[10.103545778000068,55.824889477000056],[10.084389825000073,55.81696415500005],[10.069062993000045,55.81784095100005],[10.057055456000057,55.830469598000036],[10.077402380000024,55.83485667500008],[10.096432041000071,55.830315357000075]],[[10.103214069000046,55.860473332000026],[10.077767208000068,55.84918965900005],[10.037436505000073,55.84436374400008],[10.036649097000065,55.849051846000066],[10.046656123000048,55.86121601800005],[10.059874346000072,55.86905808200004],[10.102290983000046,55.86566789400007],[10.103214069000046,55.860473332000026]],[[10.45400259400003,55.94805392200004],[10.445123625000065,55.945115058000056],[10.434150989000045,55.945115058000056],[10.412438373000043,55.95177047900006],[10.405265087000032,55.95804051700003],[10.412479821000034,55.961565058000076],[10.453837735000036,55.954086509000035],[10.45400259400003,55.94805392200004]],[[10.566159545000062,54.900244513000075],[10.573110747000044,54.906718356000056],[10.590426747000038,54.89918698900004],[10.57842206500004,54.89152280500008],[10.566159545000062,54.900244513000075]],[[10.625124737000021,54.89898601800007],[10.616720718000067,54.89203852500003],[10.605570937000039,54.89152432900005],[10.591322199000047,54.908304705000035],[10.591591607000055,54.91444984200007],[10.611188397000035,54.91873435000008],[10.621665280000059,54.915953322000064],[10.625124737000021,54.89898601800007]],[[10.469232011000031,54.91622899200007],[10.475325582000039,54.92614817300006],[10.487255104000042,54.92797265300004],[10.485913959000072,54.91289904100006],[10.469232011000031,54.91622899200007]],[[10.492080134000048,54.93493301800004],[10.49992381800007,54.94182789400003],[10.512870872000065,54.927336395000054],[10.497314886000026,54.92531488700007],[10.492080134000048,54.93493301800004]],[[10.647971176000055,54.83616490000003],[10.675341115000037,54.877938793000055],[10.714695989000063,54.879882922000036],[10.705698182000049,54.89896025100006],[10.680901519000031,54.90610756800004],[10.695193783000036,54.92807581800008],[10.733233341000073,54.959942194000064],[10.797332081000036,54.99186911400005],[10.812700125000049,54.99952377800008],[10.845074237000063,55.036300923000056],[10.878127205000055,55.10267949900003],[10.896782636000069,55.123375519000035],[10.90666972300005,55.140260553000076],[10.940265504000024,55.16151615000007],[10.954279537000048,55.15040637300007],[10.947067778000076,55.123375519000035],[10.892637625000077,54.99562429900004],[10.837007275000076,54.94119880400007],[10.830080830000043,54.92807581800008],[10.797332081000036,54.86617773900008],[10.733489354000028,54.74550924700003],[10.69582794400003,54.725147063000065],[10.67220902300005,54.74069541600005],[10.656269672000064,54.79526106700007],[10.617177777000052,54.83057173100008],[10.647971176000055,54.83616490000003]],[[10.677427070000022,54.957426070000054],[10.681361995000032,54.96172069000005],[10.703549924000072,54.95604722600007],[10.704285999000035,54.946609581000075],[10.677427070000022,54.957426070000054]],[[10.481661225000039,54.95673251200003],[10.46952404700005,54.96487642500006],[10.47352632600007,54.96863991200007],[10.491410506000022,54.96733740500008],[10.489560298000072,54.95686204000003],[10.481661225000039,54.95673251200003]],[[10.454241178000075,55.466072421000035],[10.455184072000065,55.47362476700005],[10.472705016000077,55.47988239800003],[10.476089325000032,55.46580008900003],[10.454241178000075,55.466072421000035]],[[10.776572474000034,55.51634015800005],[10.790194943000074,55.52045066900007],[10.796358344000055,55.50922752500003],[10.776957563000053,55.506855915000074],[10.776572474000034,55.51634015800005]],[[10.558134705000043,55.51305594300004],[10.535846529000025,55.523681199000066],[10.531553538000026,55.53001901500005],[10.543294329000048,55.52960015800005],[10.562980029000073,55.51602111500006],[10.558134705000043,55.51305594300004]],[[10.582633592000036,55.611826345000054],[10.589877084000022,55.62721744900006],[10.599549958000068,55.61450966000007],[10.595624602000044,55.60666254700004],[10.582633592000036,55.611826345000054]],[[10.536169992000055,55.85234195100003],[10.57037914600005,55.865527850000035],[10.583450754000069,55.87056629300008],[10.599219161000065,55.90511944200006],[10.580691406000028,55.92878912300006],[10.528576914000041,55.945115058000056],[10.52239065200007,55.97743578300003],[10.55900813900007,55.99948078400007],[10.583523434000028,55.945115058000056],[10.637968814000033,55.91946586600005],[10.618646311000077,55.90276794400006],[10.634491145000027,55.880269602000055],[10.675393289000056,55.87858695500006],[10.664641785000072,55.865527850000035],[10.65378589200003,55.85234195100003],[10.645318362000069,55.84205703200007],[10.641469726000025,55.79650643200006],[10.616578606000076,55.766445360000034],[10.55275279600005,55.76984812100005],[10.531250045000036,55.789526798000054],[10.53081054300003,55.850276155000074],[10.536169992000055,55.85234195100003]],[[10.632298547000062,55.893613851000055],[10.644358444000034,55.90052628700005],[10.653604503000054,55.888151349000054],[10.637466835000055,55.88524928100003],[10.632298547000062,55.893613851000055]],[[10.758986726000046,55.93755126600007],[10.748873055000047,55.94514045000005],[10.755518331000076,55.95111620900008],[10.767197573000033,55.94997325800006],[10.76844718600006,55.939952266000034],[10.758986726000046,55.93755126600007]],[[10.797332081000036,56.13502499100008],[10.804610180000054,56.14083259600005],[10.815996600000062,56.13467468400006],[10.797332081000036,56.12702995300003],[10.797332081000036,56.13502499100008]],[[11.511326668000038,56.71570920800008],[11.526419733000068,56.72693592300004],[11.550910413000054,56.72468807000007],[11.585945365000043,56.72636307300007],[11.644009539000024,56.73581795400003],[11.645570685000052,56.73069930300005],[11.616362004000052,56.717280895000044],[11.580739494000056,56.69077507800006],[11.545675816000028,56.68668450700005],[11.531403497000042,56.69327651600008],[11.525365582000063,56.703193585000065],[11.511326668000038,56.71570920800008]],[[10.989075673000059,57.20615594800006],[10.992200187000037,57.209537606000026],[11.031094504000066,57.214633915000036],[11.039371792000054,57.210810938000066],[11.02793435700005,57.20274294700005],[11.001298761000044,57.20158026100006],[10.989075673000059,57.20615594800006]],[[11.190636531000052,57.32315044600006],[11.197918489000074,57.31460288900007],[11.193657579000046,57.29920799100006],[11.180780341000059,57.30399533700006],[11.083307131000026,57.28878317400006],[11.078337979000025,57.282802659000026],[11.091689579000047,57.27271045200007],[11.083310194000035,57.25503798200003],[11.05118555000007,57.23327094400008],[11.001386345000071,57.21851505700005],[10.986419266000041,57.218138741000075],[10.876256493000028,57.260348443000055],[10.929756803000032,57.29714168900006],[10.986419266000041,57.304389411000045],[11.005001880000066,57.306362481000065],[11.03398757900004,57.31859166000004],[11.149796905000073,57.326698570000076],[11.190636531000052,57.32315044600006]],[[11.632214677000036,54.86232664800008],[11.646707237000044,54.89044245800005],[11.669986522000045,54.89299210900003],[11.733757135000076,54.86994925100004],[11.79372261900005,54.80694744600004],[11.807403708000038,54.801981597000065],[11.798644687000035,54.83819869100006],[11.757861755000022,54.86903192700004],[11.746562999000048,54.913167903000044],[11.723391522000043,54.93491956500003],[11.754439714000057,54.95661710500008],[11.807328749000021,54.94507062800005],[11.840216912000074,54.957225073000075],[11.90586690400005,54.92230955100007],[11.933630291000043,54.93530315600003],[11.963509181000063,54.93602042300006],[12.00668962800006,54.89807249800003],[12.117718811000032,54.88222511500004],[12.156268359000023,54.83364499600003],[12.045724646000053,54.758870338000065],[11.974109629000054,54.68595632500006],[11.96495143200002,54.65557625800005],[11.967524701000059,54.57128387600005],[11.962184052000055,54.56357929400008],[11.939985255000067,54.57128387600005],[11.924618720000069,54.576617172000056],[11.911704142000076,54.606908771000064],[11.873404699000048,54.64888500600006],[11.880321757000047,54.685989507000045],[11.903800641000032,54.71398827200005],[11.877565071000049,54.72793543300003],[11.876322476000041,54.75019055200005],[11.860912272000064,54.76486259500007],[11.855542265000054,54.73677658200006],[11.845591057000036,54.73433293000005],[11.821921365000037,54.728520520000075],[11.814480459000038,54.71830929100008],[11.845591057000036,54.69352406100006],[11.852309733000027,54.68817141800008],[11.845591057000036,54.680075292000026],[11.822370860000035,54.65287789300004],[11.804513273000055,54.64646199300006],[11.683876189000046,54.66264750500005],[11.595925352000052,54.66187101000003],[11.550954829000034,54.64658834800008],[11.455645601000072,54.61419871600003],[11.352982156000053,54.651596805000054],[11.255847015000029,54.70210163100006],[11.054519991000063,54.747944446000076],[10.99140625800004,54.778176245000054],[10.977582085000051,54.793520165000075],[11.017449062000026,54.81252816400007],[11.066014740000071,54.805563859000074],[11.099207621000062,54.82632393000006],[11.054795986000045,54.85017494200008],[11.052622431000032,54.86528103400008],[11.026085136000063,54.88327188000005],[11.036732199000028,54.915811922000046],[11.081770929000072,54.94119683400004],[11.177090301000021,54.95834447800007],[11.28391782500006,54.947245931000054],[11.351345360000039,54.91492763600007],[11.386793598000054,54.88520705800005],[11.509761845000071,54.83225310800003],[11.550954829000034,54.83068405700004],[11.567802549000021,54.83165880000007],[11.58235073000003,54.85035035800007],[11.632214677000036,54.86232664800008]],[[10.969536436000055,54.82545339700005],[10.954412123000054,54.822611634000054],[10.952653525000073,54.83141132800006],[10.959362595000073,54.837591244000066],[10.967124598000055,54.83626712800003],[10.969536436000055,54.82545339700005]],[[11.025747008000053,54.842339121000066],[11.018265690000021,54.82959108300008],[11.01247084800002,54.840245749000076],[11.01438266100007,54.85154132400004],[11.022145606000038,54.85085117500006],[11.025747008000053,54.842339121000066]],[[11.477732116000027,54.91500896000008],[11.491551866000066,54.91396667500004],[11.493324105000056,54.90218259000005],[11.508275809000054,54.89387807800006],[11.506731846000037,54.88878187500006],[11.481379957000058,54.88528632900005],[11.475974003000033,54.896380229000044],[11.480804589000059,54.90149451500008],[11.47245582100004,54.91040065000004],[11.477732116000027,54.91500896000008]],[[11.43543242000004,54.944298477000075],[11.409092717000021,54.92807581800008],[11.399981426000068,54.92246416200004],[11.38840258700003,54.92807581800008],[11.371590178000076,54.93622391100007],[11.363200251000023,54.94864507300008],[11.379945108000072,54.95533969000007],[11.405591208000033,54.94817420500004],[11.410169041000074,54.951203443000054],[11.409949158000074,54.96822687000008],[11.425889889000075,54.96325759600006],[11.454120217000025,54.96352273800005],[11.470045820000053,54.952210603000026],[11.469485362000057,54.94340076200007],[11.43543242000004,54.944298477000075]],[[11.366793568000048,54.96439473100003],[11.366534244000036,54.954987034000055],[11.353927423000073,54.95659294500007],[11.348077123000053,54.96681477100003],[11.357497317000025,54.96917438100007],[11.366793568000048,54.96439473100003]],[[11.310106689000065,54.95926997400005],[11.298297005000052,54.97133992000005],[11.311497062000058,54.97405913300008],[11.322420615000055,54.96675932900007],[11.310106689000065,54.95926997400005]],[[11.56792787300003,54.972550486000046],[11.550954829000034,54.960797865000075],[11.534357094000029,54.951029119000054],[11.500374184000066,54.98134844900005],[11.515408537000042,54.99060677600005],[11.550954829000034,54.98753905900003],[11.56792787300003,54.972550486000046]],[[11.373017424000068,55.03345046600003],[11.346558577000053,55.022761564000064],[11.34194156600006,55.025891314000035],[11.344903037000051,55.03120597700007],[11.36931336300006,55.040316139000026],[11.373017424000068,55.03345046600003]],[[11.695644425000069,55.146860564000065],[11.679987507000021,55.158603636000066],[11.686111762000053,55.16309496300005],[11.704499425000051,55.15495307100008],[11.695644425000069,55.146860564000065]],[[11.17647080200004,55.174865734000036],[11.178255948000071,55.16704796800008],[11.16152416400007,55.15728205100004],[11.15038074000006,55.14017486500006],[11.141160510000077,55.15436776100006],[11.13314719500005,55.16044706400004],[11.156032139000047,55.17125729500003],[11.17647080200004,55.174865734000036]],[[11.169967620000023,55.247205016000066],[11.173487237000074,55.25064968300006],[11.189083149000055,55.24122116900003],[11.177703111000028,55.23154500900006],[11.194283788000064,55.22121790400007],[11.205782131000035,55.198389846000055],[11.194093860000066,55.19144534700007],[11.174398297000039,55.19936057400008],[11.171030463000022,55.232020258000034],[11.17567418300007,55.24107227600007],[11.169967620000023,55.247205016000066]],[[10.985557773000039,55.33103198300006],[10.966225343000076,55.334658414000046],[10.972409679000066,55.341112329000055],[10.991418574000022,55.34296229300003],[10.985557773000039,55.33103198300006]],[[11.295665474000032,55.79051176400003],[11.290567434000025,55.785011997000026],[11.303392061000068,55.776917841000056],[11.303634553000052,55.765519605000065],[11.292261003000021,55.770725764000076],[11.279057082000065,55.789270900000076],[11.283413357000029,55.79623278500003],[11.295665474000032,55.79051176400003]],[[11.11483303600005,55.91041252500003],[11.187689160000048,55.87309420000008],[11.192886636000026,55.865527850000035],[11.187082675000056,55.865527850000035],[11.150270946000035,55.87289120400004],[11.088265995000029,55.90409787200008],[11.082014764000064,55.91400735800005],[11.11483303600005,55.91041252500003]],[[12.086480901000073,54.92807581800008],[12.072126812000022,54.908809516000076],[12.010168755000052,54.92014695300003],[11.999280286000044,54.92807581800008],[11.993283531000031,54.935848873000054],[11.998744689000034,54.94088793900005],[12.010551338000027,54.93427858600006],[12.02161174400004,54.93366181300007],[12.032833577000076,54.938612498000055],[12.069385306000072,54.93866080500004],[12.086480901000073,54.92807581800008]],[[11.996645210000054,54.94136419300003],[11.978495009000028,54.95250918200003],[11.992100791000041,54.95872581300006],[11.998597748000066,54.95561640800008],[11.996645210000054,54.94136419300003]],[[12.075276194000025,54.947952540000074],[12.069456546000026,54.95124833600005],[12.095930923000026,54.96331792500007],[12.099156229000073,54.95576112400005],[12.075276194000025,54.947952540000074]],[[12.358813381000061,54.96416147700006],[12.286038674000054,54.93923599000004],[12.270035354000072,54.92807581800008],[12.204346910000027,54.882266927000046],[12.165372944000069,54.882088011000064],[12.147456428000055,54.88200576200006],[12.116484626000044,54.90357039200006],[12.114983272000075,54.92396982100007],[12.119881948000057,54.92807581800008],[12.135118681000051,54.94084702100008],[12.125845731000027,54.95749439700006],[12.165372944000069,54.97018015800006],[12.173948335000034,54.97293232200008],[12.172223467000038,54.98564855300003],[12.211507389000076,54.969749327000045],[12.275041189000035,54.984606668000026],[12.281548817000044,55.017151590000026],[12.260609635000037,55.034702132000064],[12.23724253100005,55.04031221000008],[12.244443107000052,55.052723823000065],[12.263923138000052,55.05783004700004],[12.304364182000029,55.03187183400007],[12.358813381000061,55.02663628800008],[12.458987924000041,55.02316519100003],[12.513191272000029,55.010784829000045],[12.541051440000047,54.98960469200006],[12.552761179000072,54.964491320000036],[12.540081117000057,54.94741717200003],[12.514132175000043,54.943927977000044],[12.419316196000068,54.96193430800008],[12.358813381000061,54.96416147700006]],[[12.236375938000037,55.06062085100007],[12.221343201000025,55.03425724900006],[12.188047449000067,55.04008434800005],[12.184496074000037,55.04454010500007],[12.20929518500003,55.05724935200004],[12.236375938000037,55.06062085100007]],[[15.15267917400007,55.12617807700008],[15.15363416100007,55.089058281000064],[15.118574210000077,55.041422331000035],[15.115490611000041,55.01349490400003],[15.085367421000058,54.99204154500006],[14.973729098000035,55.002670281000064],[14.873501974000021,55.03464560700007],[14.767460762000042,55.05604165500006],[14.68981033800003,55.09924314300008],[14.707165984000028,55.13405828100008],[14.702262016000077,55.18859981000003],[14.710846868000033,55.217602499000066],[14.766771775000052,55.29476070800007],[14.803807969000047,55.27794552100005],[14.828869223000027,55.25330727000005],[14.889427410000053,55.22812601100003],[14.94373222300004,55.21130537000005],[14.973729098000035,55.212341010000046],[15.022938317000069,55.17781989800005],[15.145187467000028,55.13655761700005],[15.15267917400007,55.12617807700008]],[[15.199297644000069,55.319186169000034],[15.192363432000036,55.31218428500006],[15.180637047000062,55.32023834000006],[15.184583351000072,55.32758165100006],[15.194407283000032,55.32768508300006],[15.199297644000069,55.319186169000034]],[[11.768595578000031,55.951433730000076],[11.745336681000026,55.91607507300006],[11.693658575000029,55.90804872100006],[11.680163647000029,55.89585862900003],[11.70995828100007,55.851107985000056],[11.713230977000023,55.82313547500007],[11.663674511000067,55.80761792900006],[11.638047717000063,55.78637522500003],[11.658750702000077,55.77738232300004],[11.740377591000026,55.773157069000035],[11.744674,55.75120519400008],[11.710528694000061,55.72653625500004],[11.783199085000035,55.706637398000055],[11.793885332000059,55.68651431300003],[11.779395,55.659028499000044],[11.805278929000053,55.66458098100003],[11.831440274000045,55.68796964900008],[11.842654066000023,55.706637398000055],[11.845591057000036,55.71152664600004],[11.855109063000043,55.72737139800006],[11.875297500000045,55.737655999000026],[11.856776548000028,55.74688717100008],[11.86770953000007,55.79478170900006],[11.88828453900004,55.81379820500007],[11.939918762000048,55.82460584700004],[11.953845009000077,55.85234195100003],[11.943933388000062,55.865527850000035],[11.924440771000036,55.89145980200004],[11.904031133000046,55.91861171000005],[11.906540049000057,55.93213462600005],[11.91820308900003,55.93474219800004],[11.959011046000057,55.929376570000045],[12.019306490000076,55.905166603000055],[12.012772677000044,55.89145980200004],[12.00041132900003,55.865527850000035],[12.031005269000048,55.842383710000036],[12.060039785000072,55.77619083900004],[12.060000027000058,55.74082133100006],[12.054337865000036,55.73225827400006],[12.021737409000025,55.72379576900005],[11.993281084000046,55.734202088000075],[11.980778500000042,55.73012299900006],[11.969824438000046,55.706637398000055],[11.954619730000047,55.674038376000055],[11.981966545000034,55.679116211000064],[12.002572151000038,55.69797741200006],[12.018374523000034,55.69059710400006],[12.016511755000067,55.67262285900006],[12.075582785000051,55.65731972300006],[12.082196732000057,55.68442777100006],[12.100583421000067,55.706637398000055],[12.104035888000055,55.71080769800005],[12.089595,55.78084749900006],[12.077876311000068,55.78638472000006],[12.062653628000021,55.82479893100003],[12.044723667000028,55.842529255000045],[12.050752088000024,55.85234195100003],[12.058852831000024,55.865527850000035],[12.06459052200006,55.87486731400003],[12.054791161000026,55.89145980200004],[12.016363266000042,55.95652673300003],[12.002653800000076,55.96574016300008],[11.978525238000032,55.96603958500003],[11.885743113000046,55.94219658900005],[11.854664784000022,55.94704644400008],[11.84568540400005,55.96688910100005],[11.859734532000061,55.97858790400005],[12.001837774000023,56.028509960000065],[12.165372944000069,56.09761449400003],[12.207069217000026,56.115233954000075],[12.288404797000055,56.12934483200007],[12.307023471000036,56.12829342100008],[12.359589958000072,56.115233954000075],[12.388934971000026,56.10241765000006],[12.533868488000053,56.08233972600004],[12.616507926000054,56.040232263000064],[12.600403509000046,56.01455578200006],[12.558202985000037,55.98590595600007],[12.521368449000022,55.922903837000035],[12.542387040000051,55.89145980200004],[12.559721110000055,55.865527850000035],[12.568535151000049,55.85234195100003],[12.57258396900005,55.84628487700007],[12.582753500000024,55.80796799900003],[12.599029710000025,55.76148299700003],[12.584125500000027,55.722001499000044],[12.605837020000024,55.71768546900006],[12.603721993000022,55.706637398000055],[12.601143119000028,55.69316637400004],[12.628085570000053,55.69004010000003],[12.640736531000073,55.67603856300008],[12.64940097400006,55.64428505300003],[12.677947815000039,55.62607147700004],[12.672963756000058,55.58840003000006],[12.598873758000025,55.55838808100003],[12.570700697000063,55.55936592100005],[12.51650914000004,55.589644331000045],[12.511296096000024,55.60704524200003],[12.52699339700007,55.63153993700007],[12.504789500000072,55.63734049900006],[12.487696090000043,55.60132435700007],[12.394402060000061,55.61300693800007],[12.363471,55.59380699900004],[12.30560491500006,55.576190334000046],[12.236103004000029,55.536104230000035],[12.198839118000024,55.48654023900008],[12.202053496000076,55.444150989000036],[12.219570500000032,55.425061999000036],[12.347743939000054,55.39737830400003],[12.404326167000022,55.37028996300006],[12.444585935000077,55.33284762200003],[12.445682676000047,55.29526704700004],[12.416957559000025,55.26631832400005],[12.372288344000026,55.24797287400003],[12.26162776800004,55.23732517900004],[12.171746359000053,55.21221616200006],[12.126116872000068,55.183846008000046],[12.09606744100006,55.15272282800004],[12.069191742000044,55.164861949000056],[12.036260218000052,55.15499865000004],[12.034078453000063,55.14371073900003],[12.04854632300004,55.13238677000004],[12.125151257000027,55.126742285000034],[12.162742901000058,55.10915623000005],[12.157725673000073,55.089222720000066],[12.133241841000029,55.06252220500005],[12.14384480900003,54.99741004200007],[12.044304964000048,54.96969616500007],[11.939344093000045,54.99315996300004],[11.885711468000068,54.996093545000065],[11.79622753800004,55.03971474700006],[11.794283191000034,55.065929382000036],[11.753677141000026,55.09077451600007],[11.73718304700003,55.11271465200008],[11.776128288000052,55.143385110000054],[11.720529429000067,55.167827197000065],[11.69819067700007,55.19546852000008],[11.647074279000037,55.173478284000055],[11.467457399000068,55.20818834700003],[11.389822941000034,55.195673886000066],[11.294787848000055,55.20073848900006],[11.263116277000051,55.21173751100008],[11.221022335000043,55.28381345500003],[11.119243475000076,55.35194564200003],[11.124699537000026,55.36292079600008],[11.169008569000027,55.38163496100003],[11.196718522000026,55.40671669900007],[11.193683863000047,55.44697215700006],[11.168165604000023,55.48982214900008],[11.118465547000028,55.52441589000006],[11.13864617400003,55.55195037900006],[11.134833283000034,55.589695249000044],[11.097167687000024,55.62223695900008],[11.020033481000041,55.653060749000076],[11.049341308000066,55.66748273300004],[11.05366310900007,55.680560479000064],[11.005959292000057,55.706637398000055],[10.94792609700005,55.73925048700005],[11.061010854000074,55.73672981900006],[11.153614444000027,55.74821179200006],[11.206509015000051,55.73904219600007],[11.276314658000047,55.74069227700005],[11.358030588000076,55.77199700600005],[11.395908013000053,55.831274230000076],[11.480964798000059,55.85184214600008],[11.51240261700002,55.87400026800003],[11.517080350000072,55.91016704000003],[11.498947776000023,55.93332742000007],[11.453126695000037,55.94826987000005],[11.351892820000046,55.96317536600003],[11.328545511000073,55.97128602500004],[11.329261311000039,55.97823568300004],[11.494435014000032,55.956053962000055],[11.58415668400005,55.957086882000056],[11.640066260000026,55.94476842700004],[11.764143820000072,55.96302258700007],[11.768595578000031,55.951433730000076]],[[12.763970920000077,55.59016987000007],[12.754196850000028,55.588407962000076],[12.747614746000067,55.59695616400006],[12.751183553000033,55.60354108400003],[12.76522275900004,55.59950151800007],[12.763970920000077,55.59016987000007]],[[12.735368519000076,55.63480567900007],[12.745578562000048,55.66544513400004],[12.768240495000043,55.67123616400005],[12.77664466300007,55.66619913800008],[12.783594838000056,55.639168604000076],[12.783277871000053,55.62273707500003],[12.78949386100004,55.611228605000065],[12.780917129000045,55.606632872000034],[12.763710941000056,55.60713317500006],[12.759210249000034,55.61619045100008],[12.746967788000063,55.61975485600004],[12.735368519000076,55.63480567900007]],[[12.077358730000071,55.726370641000074],[12.068214143000034,55.73320303700007],[12.078411764000066,55.744338053000035],[12.089871423000034,55.72927998000006],[12.077358730000071,55.726370641000074]],[[11.778218473000038,55.77981627300005],[11.793469734000041,55.789380117000064],[11.816868947000046,55.78628062700005],[11.828576259000045,55.80501339600005],[11.845591057000036,55.787678896000045],[11.845591057000036,55.77816355900006],[11.831440022000038,55.75721273100004],[11.81376388600006,55.751774768000075],[11.792836689000069,55.75992136900004],[11.778218473000038,55.77981627300005]],[[11.718351751000057,56.198801873000036],[11.720008456000073,56.190940211000054],[11.702203134000058,56.19193702300004],[11.695093479000036,56.197594105000064],[11.69934571500005,56.20145439200007],[11.718351751000057,56.198801873000036]]]}