{"type":"Topology","objects":{"data":{"geometries":[{"properties":{"id":"DE","name":"Deutschland"},"type":"MultiPolygon","arcs":[[[0],[1]],[[2]],[[3]],[[4]],[[5]],[[6]],[[7]],[[8]],[[9]],[[10]],[[11]],[[12]],[[13]],[[14]],[[15]],[[16]],[[17]],[[18]],[[19]],[[20]],[[21]],[[22]],[[23]],[[24]],[[25]],[[26]],[[27]],[[28]],[[29]],[[30]],[[31]],[[32]],[[33]],[[34]],[[35]],[[36]],[[37]],[[38]],[[39]]],"id":"feature_0"}],"type":"GeometryCollection"}},"bbox":[5.871420015000069,47.270113999000046,15.033019112000034,55.05356472200003],"arcs":[[[8.682188677000056,54.909174473000064],[8.731498199000043,54.89374616900005],[8.774072467000053,54.89426379200006],[8.812118059000056,54.90398458000004],[8.944251714000075,54.90158729400008],[9.04988681900005,54.87323605200004],[9.113097,54.873601499000074],[9.179425051000067,54.86099088900005],[9.23671269600004,54.85009908400008],[9.239260762000072,54.82739132000006],[9.25455594300007,54.810862264000036],[9.340035159000024,54.80249033400003],[9.383699414000034,54.837675524000076],[9.407875115000024,54.84070881700006],[9.420151500000031,54.83195649900006],[9.422934,54.82322299900005],[9.434494477000044,54.81001478700006],[9.430795869000065,54.800519621000035],[9.434494434000044,54.796157796000045],[9.440763954000033,54.803031333000035],[9.45329790900007,54.80934220000006],[9.458218760000022,54.814409382000065],[9.46398737900006,54.82034954300008],[9.491949500000032,54.82263549900006],[9.59264139000004,54.86996712100006],[9.593873967000036,54.84732153400006],[9.607735656000045,54.83251608200004],[9.793285303000062,54.79108678500006],[9.843687526000053,54.75876853600005],[9.86806014900003,54.75460696600004],[9.890897260000031,54.76407196500003],[9.901443665000045,54.77185183600005],[9.906247988000075,54.79267531700003],[9.915746356000056,54.79375159300008],[9.959493928000029,54.77418467600006],[9.990589638000074,54.720191991000036],[10.023141014000032,54.69398873400007],[10.001925736000032,54.686825260000035],[9.982403856000076,54.694570413000065],[9.970503222000048,54.678987825000036],[10.02649094900005,54.65681799200007],[10.03117,54.63657499900006],[10.026819858000067,54.57128387600005],[10.025820597000063,54.55628600500006],[9.997943724000038,54.52267980900007],[9.957328320000045,54.50041929300005],[9.844461469000066,54.47322180300006],[9.847590410000066,54.46043239100004],[9.875501634000045,54.44965562500005],[10.12573679600007,54.484208110000054],[10.193283118000068,54.45590430300007],[10.168517,54.432844999000054],[10.188660579000043,54.39939681900006],[10.147236514000042,54.36354502000006],[10.15196867900005,54.32607497400005],[10.165097869000022,54.33020759300007],[10.174162,54.34574549900003],[10.227244148000068,54.41168156500004],[10.330753448000053,54.43504758700004],[10.392621464000058,54.42431202000006],[10.483255237000037,54.39027037400007],[10.596843038000031,54.363923501000045],[10.635119977000045,54.34873518400008],[10.690980799000044,54.30939755900005],[10.71375050000006,54.30507249900006],[10.797332081000036,54.31593328100007],[10.934798754000042,54.38187978800005],[10.973866090000058,54.381859700000064],[10.986419266000041,54.374018610000064],[10.991336492000073,54.37094716300004],[11.066201093000075,54.37524454700008],[11.102247747000035,54.394788790000064],[11.128021227000033,54.38493763500003],[11.116847320000034,54.37010186800006],[11.06137711100007,54.35223771100004],[11.071984740000062,54.34104253500004],[11.090811398000028,54.20074331400008],[10.991336492000073,54.15516996100007],[10.986419266000041,54.152327187000026],[10.877076816000056,54.08911351900008],[10.805317843000068,54.096692001000065],[10.797332081000036,54.08516937100006],[10.791564128000061,54.07684681100005],[10.756463371000052,54.05324125100003],[10.754949832000023,54.03407158700003],[10.762189711000076,54.02551878400004],[10.782458538000071,54.00157428300008],[10.797332081000036,53.999110029000065],[10.840886,53.99189399900007],[10.872524081000051,53.98866471100007],[10.885873063000076,53.96079578900003],[10.903661500000055,53.956821999000056],[11.06856096000007,54.00780332000005],[11.165314711000065,54.011374226000044],[11.239830429000051,53.98209200300005],[11.250716604000047,53.95349066500006],[11.267774564000035,53.93896766700004],[11.346142278000059,53.94826251900008],[11.443397072000039,53.91072438900005],[11.470061448000024,53.92922199600008],[11.471038491000058,53.95381357600007],[11.441564208000045,53.97510672300007],[11.39981476500003,53.97207873500008],[11.39229161000003,53.99541291200006],[11.437247180000043,54.01595088600004],[11.472529472000076,54.02095676400006],[11.48437216000002,54.015596541000036],[11.494041522000032,53.99570743700008],[11.52841676600002,54.02484259100004],[11.56177850000006,54.028088499000035],[11.58201088100003,54.04208065200004],[11.586619044000031,54.06268096600007],[11.620943225000076,54.07722703400003],[11.623517227000036,54.08782647400005],[11.611721285000044,54.10780257500005],[11.65021365900003,54.13341931100007],[11.689947203000031,54.15320194600008],[11.845591057000036,54.14562750500005],[11.998484500000075,54.17496999900004],[12.083616294000024,54.17613314000005],[12.090886880000028,54.12239488600005],[12.100497295000025,54.11520335300003],[12.104651854000053,54.14749789500007],[12.132438039000021,54.164574850000065],[12.116639245000044,54.18233688000004],[12.201068,54.244695499000045],[12.28553050000005,54.27495199900005],[12.342477616000053,54.30515868300006],[12.514608400000043,54.47782745100005],[12.565202845000044,54.45547878200006],[12.661488969000061,54.444086199000026],[12.923059416000058,54.43653179200004],[12.91475031400006,54.42483242000003],[12.880117839000036,54.416715374000034],[12.69477693600004,54.41141719700005],[12.700720046000072,54.39588940200008],[12.727045012000076,54.37786592600003],[12.783074723000027,54.38243803900008],[12.81903249100003,54.351236795000034],[12.858660045000022,54.35943070900004],[12.911342629000046,54.40487360000003],[12.97980896200005,54.42556352000008],[12.990708655000049,54.44224554700003],[13.006829506000031,54.44462762900008],[13.025107775000038,54.43310248100005],[13.034026918000052,54.39437397800003],[13.083792673000062,54.368856761000075],[13.083270912000046,54.33590878600006],[13.113617532000035,54.306425337000064],[13.116923968000037,54.28024188200004],[13.172978168000043,54.27019241800008],[13.224633683000036,54.24204624500004],[13.281027696000024,54.23291342200008],[13.319396,54.19350599900008],[13.345539793000057,54.17008892700005],[13.401074907000066,54.168733116000055],[13.40398883000006,54.148173033000035],[13.460138867000069,54.09724655800005],[13.479616901000043,54.089766197000074],[13.487959885000066,54.09220604600006],[13.488579322000021,54.11380845800005],[13.50050041000003,54.12234558600005],[13.587476474000027,54.13502767400007],[13.692311724000035,54.16639481900006],[13.704911149000054,54.163276781000036],[13.715615660000026,54.14623599500004],[13.759546197000077,54.13115710900007],[13.759313871000074,54.16085943500008],[13.804647388000035,54.17059071500006],[13.839318611000067,54.12880272900003],[13.875168643000052,54.10200648800003],[14.012228159000074,54.053674122000075],[14.226302,53.928652999000064],[14.203686873000038,53.91330514600003],[14.213077500000054,53.866479499000036],[14.056885942000065,53.87163320600007],[13.943290555000033,53.84563548300008],[13.852540840000074,53.85055980100003],[13.850975216000052,53.868531105000045],[13.896333710000022,53.88288262200007],[13.923865435000039,53.90411114900007],[13.924695758000041,53.93366246800008],[13.908039049000024,53.966248464000046],[13.912852957000041,53.97970878800004],[13.950071059000038,53.98253230700004],[13.969287093000048,53.95529368800004],[14.022039248000056,53.95298204900007],[14.036670143000038,53.99743164800003],[13.98624645700005,54.045518059000074],[13.953472654000052,54.058633833000044],[13.924054621000039,54.05618359200008],[13.908853985000064,54.028208807000055],[13.874184269000068,54.01091523300005],[13.86476119100007,54.01381558700007],[13.864761011000041,54.032634071000075],[13.855629328000077,54.04030514500005],[13.778574436000042,54.02090057200007],[13.898943212000063,53.92476938500005],[13.88870051300006,53.906718229000035],[13.82360656700007,53.86621699900007],[13.820958848000032,53.85414123100003],[13.829967305000025,53.84421480700007],[13.96700723400005,53.77709715300006],[14.074570448000031,53.74835970300006],[14.171071184000027,53.73963446600004],[14.240846007000073,53.751784488000055],[14.25527469900004,53.73495660400005],[14.245868424000037,53.71169276100005],[14.267542,53.69780649900008],[14.281061684000065,53.68213742100005],[14.275011894000045,53.666814557000066],[14.286352325000053,53.63535931000007],[14.315229686000066,53.61347219700008],[14.312402485000064,53.59246782200006],[14.306276138000044,53.54695281000005],[14.325984238000046,53.50757026200006],[14.350089276000062,53.49254174100008],[14.355603667000025,53.47221022400004],[14.369736487000068,53.45162863400003],[14.372639948000028,53.415098913000065],[14.392185969000025,53.37936413600005],[14.392891164000048,53.35483609600004],[14.412157,53.32963599900006],[14.40986521900004,53.30909728200004],[14.42024835500007,53.28236320500008],[14.443638469000064,53.272871363000036],[14.447765549000053,53.26196109500006],[14.42011003600004,53.23058831800006],[14.402700339000035,53.210838530000046],[14.375496927000029,53.19507190400003],[14.368612015000053,53.16823054400004],[14.384706166000058,53.13737418000005],[14.359998432000054,53.072427160000075],[14.341983155000037,53.050466046000054],[14.286577679000061,53.01779323900007],[14.191775194000058,52.98036518400005],[14.143658,52.96136849900006],[14.14185965200005,52.93907512000004],[14.156692,52.895590999000035],[14.156902842000022,52.87619475000008],[14.125820762000046,52.845334738000076],[14.13004810600006,52.83154519800007],[14.155697043000032,52.82709848400003],[14.21348190200007,52.81708042000008],[14.278203818000065,52.77553461100007],[14.346191210000029,52.752823455000055],[14.436438,52.67990049900004],[14.453348884000036,52.67680050000007],[14.457668320000039,52.67345062900006],[14.461730663000026,52.664422728000034],[14.46824874300006,52.65974427700007],[14.498477,52.64735049900003],[14.514601706000064,52.63993955900003],[14.565063,52.62449699900003],[14.597071750000055,52.60885572400008],[14.63509053200005,52.57403665600003],[14.606432135000034,52.53195415700003],[14.613310013000046,52.51265712000003],[14.632686050000075,52.49434533500005],[14.601799063000044,52.45882633200006],[14.550029046000077,52.430076591000045],[14.534362,52.39500799900003],[14.54957702400003,52.375763420000055],[14.563389376000032,52.33033276700007],[14.581372934000058,52.31100521600007],[14.57877731700006,52.288834258000065],[14.600891500000046,52.27205199900004],[14.685540142000036,52.25621586600005],[14.708899704000032,52.23819704400006],[14.708967347000055,52.21834969900004],[14.691844790000061,52.19507060500007],[14.700711072000047,52.16937509200005],[14.681904417000055,52.14122011100005],[14.684010555000043,52.11617074900005],[14.755227,52.070024999000054],[14.742852913000036,52.02838933000004],[14.716716,52.00118799900008],[14.707159906000072,51.972240999000064],[14.71891550600003,51.946078526000065],[14.690667104000056,51.902322920000074],[14.612763040000061,51.85483020100003],[14.591164186000071,51.82535867400003],[14.605104873000073,51.806733991000044],[14.645461528000055,51.79238435500008],[14.666943917000026,51.728913816000045],[14.733979420000026,51.68722719400006],[14.753243348000069,51.66567190300003],[14.763236902000074,51.60952609900005],[14.729862,51.581776999000056],[14.715228336000052,51.561558622000064],[14.738778265000064,51.526439045000075],[14.794642414000066,51.51672005900008],[14.85226653500007,51.49124272600005],[14.91513326200004,51.48222441200005],[14.949105724000049,51.46816482600008],[14.97125598100007,51.44165468300008],[14.96242382500003,51.393863202000034],[14.979060005000065,51.37369689700006],[14.974183,51.363949999000056],[14.985031401000072,51.33224977200007],[15.032059584000024,51.29044341300005],[15.033019112000034,51.24430156900007],[15.011245909000024,51.207803744000046],[14.996383636000076,51.160649102000036],[14.995424102000072,51.12531691600003],[14.981189156000028,51.11183144600005],[14.980520098000056,51.084495135000054],[14.96372060400006,51.053509243000065],[14.919336693000048,50.99259239500003],[14.916824963000067,50.97723825400004],[14.901546178000046,50.965938539000035],[14.892144563000045,50.93946219000003],[14.824218,50.88804780700008],[14.823362,50.870550499000046],[14.807634139000072,50.844856367000034],[14.798895438000045,50.82542322200004],[14.771619890000068,50.82061752700008],[14.72489461400005,50.82453843700006],[14.71043166800007,50.83799020300006],[14.674963601000059,50.844856367000034],[14.65991450000007,50.85011099900004],[14.648274804000039,50.84901553000003],[14.631447639000044,50.855640538000046],[14.625826429000028,50.85660231700007],[14.6188,50.85780449900005],[14.650736906000077,50.90773139300006],[14.649644516000023,50.926947246000054],[14.584431078000023,50.915904889000046],[14.566268045000072,50.91984671400007],[14.564842491000036,50.92805666600003],[14.59461114100003,50.96256069200007],[14.59616122500006,50.98549892200003],[14.565978724000047,51.00725545100005],[14.540990046000047,51.00631290300004],[14.503997342000048,51.02224789600007],[14.504426855000077,51.040930642000035],[14.491221,51.04353049900004],[14.488005975000021,51.025321930000075],[14.457034134000025,51.03478998200006],[14.412177105000069,51.019602418000034],[14.389998803000026,51.02534154700004],[14.372328216000028,51.04160813200008],[14.336205163000045,51.04172701500005],[14.317873500000076,51.05469899900004],[14.302392729000076,51.05294808600007],[14.283589709000069,51.037451814000065],[14.282819722000056,51.020138030000055],[14.264932251000062,51.00782405800004],[14.261914249000029,50.98861221900006],[14.284051143000056,50.97872859600005],[14.323818264000067,50.98349963900006],[14.326378483000042,50.975713291000034],[14.307671897000034,50.96674118200008],[14.317045312000062,50.95311442500008],[14.394700163000039,50.936430475000066],[14.400085038000043,50.926121859000034],[14.386151118000043,50.90207013500003],[14.303960989000075,50.88501439300006],[14.270122297000057,50.89351677600007],[14.238284995000072,50.88690833100003],[14.221904381000058,50.86072534500005],[14.155853861000026,50.844856367000034],[14.073371393000059,50.81256493500007],[14.028799710000044,50.80651959100004],[13.986250133000055,50.817350357000066],[13.938343435000036,50.79100105300006],[13.904225025000073,50.791202687000066],[13.889996348000068,50.77063051300007],[13.897122289000038,50.74623860000003],[13.865102536000052,50.740449874000035],[13.850148098000034,50.72785225400003],[13.766157760000056,50.735307367000075],[13.72419713100004,50.73092184800004],[13.700995774000035,50.71822466000003],[13.652174,50.73035999900003],[13.643502358000035,50.72927335000003],[13.61143951200006,50.71228243000007],[13.53492865800007,50.70425310200005],[13.536759559000075,50.672798329000045],[13.520826474000046,50.65790694900005],[13.518424293000066,50.64152083600004],[13.501846,50.633642999000074],[13.459729583000069,50.60403765400008],[13.420963640000025,50.61457179000007],[13.394802003000052,50.64249143200004],[13.376014304000023,50.64819900300006],[13.372648854000033,50.62535557900003],[13.324410710000052,50.605444297000076],[13.319049504000077,50.58172321400008],[13.295360930000072,50.57716223400007],[13.274817549000034,50.59231548900004],[13.246774600000037,50.58866164300008],[13.18987154000007,50.504412528000046],[13.128743993000057,50.515387770000075],[13.08408957000006,50.50073188500005],[13.03616571200007,50.50868126700004],[13.022696708000069,50.48278218300004],[13.018267838000043,50.44735989600008],[12.948144500000069,50.40431149900007],[12.825585833000048,50.45585157000005],[12.807123494000052,50.440628090000075],[12.790354119000028,50.447571280000034],[12.739110078000067,50.43256448300008],[12.705098556000053,50.400272673000075],[12.67191642900002,50.414644130000056],[12.58377850000005,50.40707899900008],[12.513846242000056,50.39546938800004],[12.490982073000055,50.373773949000054],[12.486893208000026,50.351965696000036],[12.462306786000056,50.350619676000065],[12.430376022000075,50.32497760900003],[12.401197784000033,50.31944705900003],[12.396522384000036,50.29404334600008],[12.361323464000066,50.27393402700005],[12.353154520000032,50.241320286000075],[12.33221690800002,50.237176833000035],[12.327001954000025,50.20593805500005],[12.33365350500003,50.190270628000064],[12.320546269000033,50.173593029000074],[12.294423603000041,50.17782491000003],[12.279154130000052,50.19625132800007],[12.28679689300003,50.22360254000006],[12.244596022000053,50.24554765400006],[12.263070284000037,50.25451522700007],[12.26048234700005,50.26325371300004],[12.204137500000058,50.27398094500006],[12.197861784000054,50.30678967000006],[12.182108472000039,50.320005319000074],[12.133966075000046,50.318833107000046],[12.100900500000023,50.31802799900004],[12.121472811000046,50.30546267500006],[12.132600283000045,50.280288417000065],[12.100236351000035,50.250988703000075],[12.160679,50.21984899900008],[12.19851041100003,50.188975826000046],[12.211772260000032,50.167544156000076],[12.196923081000023,50.13922230600008],[12.202391830000067,50.11061992500004],[12.249098047000075,50.09367455100005],[12.269157267000026,50.077699866000046],[12.260799,50.05815649900006],[12.307593394000037,50.05534516200004],[12.325267419000056,50.03648574200008],[12.343517010000028,50.03677097100007],[12.367882260000044,50.01987804000004],[12.398183509000035,50.01280375700003],[12.429387933000044,49.99682113500006],[12.431791025000052,49.98791929400005],[12.460920917000067,49.99276154800003],[12.49075983800003,49.97883676500004],[12.496228055000074,49.96932673900005],[12.475091187000032,49.95214228000003],[12.476861244000077,49.93976487400005],[12.539878053000052,49.92293329200004],[12.550988500000074,49.905087999000045],[12.495877101000076,49.841453372000046],[12.476498217000028,49.83457545600004],[12.467449822000049,49.78587078100003],[12.401524,49.75837299900007],[12.409349459000055,49.73884580500004],[12.443360469000027,49.70572802300006],[12.522148643000037,49.68204445400005],[12.526444609000066,49.62462504200005],[12.559409494000022,49.61716653700006],[12.574561929000026,49.58452333300005],[12.574019758000077,49.563045989000045],[12.593778500000042,49.54219149900007],[12.640942027000051,49.524946216000046],[12.642051523000077,49.48792177400003],[12.633763500000043,49.47619499900003],[12.651486843000043,49.46202227800006],[12.659897643000022,49.434076779000065],[12.705686422000042,49.42356170200003],[12.752252879000025,49.39716393200007],[12.761749352000038,49.372609057000034],[12.785598140000047,49.34737426400005],[12.877967927000043,49.33358018300004],[12.885322418000044,49.33621795600004],[12.884571605000076,49.34854779500006],[12.89657717700004,49.34946500400008],[12.972522297000069,49.332971763000046],[13.025688141000046,49.30247478500007],[13.031862157000035,49.26926230300006],[13.08172427900007,49.24473547500003],[13.09094691100006,49.22823306600003],[13.110213073000068,49.21804755200003],[13.114672540000072,49.20227632400008],[13.170908,49.17357949900003],[13.17448974000007,49.142739627000026],[13.190837809000072,49.13018722100003],[13.234509469000045,49.11478155800006],[13.289084873000036,49.11764595300008],[13.39241411100005,49.05162368900005],[13.405420587000037,48.989790404000075],[13.416651500000057,48.98003549900005],[13.499536773000045,48.94247312700003],[13.512663669000062,48.96901458900004],[13.551578500000062,48.96778749900005],[13.567636438000022,48.968382062000046],[13.58520642600007,48.96675318800004],[13.604840444000047,48.94409950200003],[13.626835742000026,48.94644060400003],[13.643502358000035,48.91462149100005],[13.649941433000038,48.902328315000034],[13.675820907000059,48.881419848000064],[13.737738468000032,48.88200976500008],[13.763172384000029,48.83884763800006],[13.78862698000006,48.82909614600004],[13.811502314000052,48.79944894800008],[13.808299709000039,48.77926499900008],[13.839507,48.77160499900003],[13.838004825000041,48.76473319300004],[13.828639500000065,48.75906199900004],[13.821720190000065,48.754453253000065],[13.818309465000027,48.73238001800007],[13.80987579200007,48.72791527700008],[13.796107,48.71360049900005],[13.806629047000058,48.70919456200005],[13.834560920000058,48.69749854100007],[13.815896427000041,48.68490250600007],[13.824209702000076,48.621198063000065],[13.80545488000007,48.59997717600004],[13.801406129000043,48.576631905000056],[13.773287340000024,48.557498750000036],[13.754467980000072,48.56104324800003],[13.745148675000053,48.53188652400007],[13.727090500000031,48.51301949900005],[13.643502358000035,48.54905664000006],[13.601714709000078,48.56707244200004],[13.567636438000022,48.56224438500004],[13.513369500000067,48.590977999000074],[13.493793180000068,48.56718839400003],[13.468697193000025,48.55572089200007],[13.445265297000049,48.56029409900003],[13.438430500000038,48.54889499900003],[13.454755187000046,48.50947425600003],[13.430044818000056,48.46063624200008],[13.437478832000068,48.43241816500006],[13.410249744000055,48.37559659500005],[13.319243610000058,48.319200608000074],[13.260885539000071,48.29598936000008],[13.177043,48.29438999900003],[13.164293334000035,48.29013023200008],[13.02339370900006,48.25761790100006],[12.94468450000005,48.20669249900004],[12.875866429000041,48.20174971300003],[12.860504369000068,48.18611143700008],[12.854415500000073,48.179358499000045],[12.84806,48.16786199900008],[12.836333935000027,48.164628581000045],[12.834137464000037,48.15841052800005],[12.827681157000029,48.153348046000076],[12.81158279400006,48.15132926700005],[12.799899058000051,48.14664204400003],[12.793154500000071,48.132448999000076],[12.784727729000053,48.12352994400004],[12.768749,48.12847738700003],[12.759206,48.12706099900004],[12.758437359000027,48.11874916900007],[12.751555,48.112810499000034],[12.760921632000077,48.075089536000064],[12.841666905000068,48.02192130000003],[12.860181500000067,47.99663999900008],[12.869735580000054,47.968937813000025],[12.875785500000063,47.962608999000054],[12.912531516000058,47.955400834000045],[12.936762522000038,47.94026903100007],[13.001256709000074,47.85019878600008],[12.972455928000045,47.812033375000055],[12.965298493000034,47.80254868600008],[12.940249079000068,47.783169686000065],[12.93909310500004,47.75971703000005],[12.909218449000036,47.72318567600007],[12.929542187000038,47.71123072200004],[12.973286277000057,47.70776427800007],[13.021464516000037,47.72063195700008],[13.077799869000046,47.68512150400005],[13.095359490000021,47.63282318500006],[13.066404286000022,47.60385775300006],[13.065446691000034,47.587403521000056],[13.044635130000074,47.57874725400006],[13.051769427000067,47.556818674000056],[13.034350482000036,47.53388215200005],[13.046055500000023,47.52050249900003],[13.044206244000065,47.49340645500007],[13.006959335000033,47.46754254600006],[12.983724536000068,47.48154357300007],[12.963994053000022,47.47695771800005],[12.910370656000055,47.49671478300007],[12.845184196000048,47.544152980000035],[12.815999653000063,47.54676440500003],[12.792065356000023,47.56125045700003],[12.78229662900003,47.57979321900007],[12.812688681000054,47.61685259800004],[12.764179213000034,47.64937004600006],[12.777055689000065,47.66557831600005],[12.695795500000031,47.68222299900003],[12.606527190000065,47.672280115000035],[12.575026500000035,47.63231599900007],[12.53928288000003,47.63528291100005],[12.502197526000032,47.626341068000045],[12.464928723000071,47.65152610200005],[12.442445591000023,47.67555714700006],[12.43680633100007,47.69378421400006],[12.36873766900004,47.68531378700004],[12.338045500000021,47.69708749900008],[12.257755271000065,47.68312527900008],[12.245954297000026,47.697973164000075],[12.259098881000057,47.730652848000034],[12.248247998000068,47.73685879400006],[12.21964799400007,47.71633618900006],[12.168274089000022,47.69728038200003],[12.198323014000039,47.63889999600008],[12.19827869200003,47.60917385300007],[12.133966075000046,47.606999048000034],[12.060662,47.61874349900006],[12.023307032000048,47.613590705000036],[12.003296990000024,47.62306581100006],[11.91097042000007,47.61248267000008],[11.85738513900003,47.60080024000007],[11.83874858400003,47.582778879000045],[11.774782196000046,47.58996337900004],[11.740871157000072,47.588238739000076],[11.669326029000047,47.58460011500006],[11.632883,47.59244599900006],[11.630492096000069,47.58354551000008],[11.60529282400006,47.576472455000044],[11.589064368000038,47.55399235800007],[11.58582066100007,47.52666910000005],[11.572632069000065,47.516033855000046],[11.50460762800003,47.50627188400006],[11.437512390000052,47.51408485500008],[11.410219,47.49532399900005],[11.40558343400005,47.48967035600003],[11.389605431000064,47.48073513400004],[11.384371293000072,47.472490281000034],[11.391477885000029,47.46715427500004],[11.40827415700005,47.466330937000066],[11.42142750000005,47.444851999000036],[11.339228355000046,47.44730617500005],[11.29458199800007,47.42604962400003],[11.286676096000065,47.40724346500008],[11.266362353000034,47.39802124500005],[11.226878448000036,47.39812794100004],[11.249016078000068,47.42930869600008],[11.209055275000026,47.43217062700006],[11.156913773000042,47.41901234100004],[11.135301870000035,47.41355842100006],[11.106176923000021,47.396096096000065],[11.016500500000063,47.39636799900006],[11.005510167000068,47.39434477000003],[10.991202500000043,47.396130999000036],[10.97150302600005,47.40524665700008],[10.980343159000029,47.43144019400006],[10.93360318300006,47.46946706800003],[10.930964625000058,47.48123348100006],[10.872265414000026,47.48537117600006],[10.875563132000025,47.500950749000026],[10.913759716000072,47.515449885000066],[10.886199,47.53684799900003],[10.865929530000074,47.53306863900008],[10.776118760000031,47.516322899000045],[10.75393050200006,47.53430936900003],[10.703417616000024,47.542719686000055],[10.687013597000032,47.557278695000036],[10.603379604000054,47.56847342900005],[10.585819965000042,47.55906681600004],[10.571510529000022,47.53637366300006],[10.518547949000038,47.536123287000066],[10.461497228000042,47.55560990400005],[10.47264,47.58695049900007],[10.433443467000075,47.57759512700005],[10.450367515000039,47.55134203500006],[10.434825903000046,47.50034700800006],[10.44421965600003,47.48659689400006],[10.465030952000063,47.478103935000036],[10.472359105000066,47.43676864100007],[10.437392887000044,47.40979091600008],[10.430273968000051,47.38923821800006],[10.392466950000028,47.37100682200003],[10.332434130000024,47.31028522200006],[10.32849804700004,47.30630397900006],[10.237022369000044,47.27438661600007],[10.178353,47.270113999000046],[10.181318404000024,47.29155789300006],[10.209452395000028,47.31028522200006],[10.205252079000047,47.33232250800006],[10.230510323000033,47.36835952400003],[10.230074857000034,47.38136035100007],[10.183915734000038,47.38804781600004],[10.160926073000041,47.371316096000044],[10.122286317000032,47.37179295800007],[10.100714204000042,47.361602531000074],[10.076920832000042,47.40623969200004],[10.099060156000064,47.42837861800007],[10.090142313000058,47.451937703000056],[10.06183756200005,47.46409063200008],[10.039235573000042,47.48553143300006],[9.999526,47.48301699900003],[9.990611434000073,47.50407026900007],[9.967190451000022,47.522695085000066],[9.967813500000034,47.54624049900008],[9.957822952000072,47.53685195700007],[9.921346515000039,47.53143290100007],[9.885646131000044,47.546298655000044],[9.866846820000035,47.53156327500005],[9.820160739000073,47.549030455000036],[9.823786749000021,47.58382234000004],[9.794082384000035,47.595002624000074],[9.765972858000055,47.58689851300005],[9.734281801000066,47.537859780000076],[9.721026032000054,47.53241997600003],[9.677136308000058,47.524179848000074],[9.55872050000005,47.54189299900003],[9.533878,47.545656499000074],[9.523166500000059,47.54727949900007],[9.495604,47.55145499900004],[9.388960815000075,47.621799519000035],[9.366602649000072,47.62796581600003],[9.259147161000044,47.657601629000055],[9.182192,47.655890499000066],[9.17079891000003,47.65528448200007],[9.163047500000062,47.66045949900007],[9.157211997000047,47.665738229000056],[9.148339500000077,47.667609999000035],[9.141593237000052,47.66468627300003],[9.135418500000071,47.66520349900003],[9.12781,47.66660899900006],[9.119423612000048,47.66814087100005],[9.095087471000056,47.678706334000026],[9.07370580600002,47.67901012600004],[9.057666433000065,47.68406154000007],[9.033338368000045,47.685366274000046],[9.021567168000047,47.686434535000046],[9.01021176100005,47.68407588700006],[8.980924469000058,47.673980834000076],[8.96349301400005,47.66481323000005],[8.94305272300005,47.65722801000004],[8.906114372000047,47.649624352000046],[8.900335665000057,47.64843472100006],[8.894603400000051,47.648390446000064],[8.883189453000057,47.653964408000036],[8.874888,47.65466999900008],[8.871339462000037,47.67028847700004],[8.853871904000073,47.68445364000007],[8.871400727000037,47.701460574000066],[8.822496504000071,47.71386772400007],[8.804066096000042,47.73581379900003],[8.770921843000053,47.712342412000055],[8.799426132000065,47.696815224000034],[8.795708500000046,47.67559549900005],[8.784899936000045,47.67681359300008],[8.757429217000038,47.68925839600007],[8.727981500000055,47.69268049900006],[8.733248349000064,47.71489965400008],[8.714577844000075,47.73092636200005],[8.73738157400004,47.74872578800006],[8.735499256000026,47.75544164000007],[8.718509820000065,47.76355852700004],[8.691016915000034,47.759518437000054],[8.681624253000052,47.78266017300007],[8.654166541000052,47.79643544100003],[8.647591288000058,47.76863866000008],[8.627904949000026,47.76184246100007],[8.61383150000006,47.801078999000026],[8.567405669000038,47.804014539000036],[8.57211395400003,47.78074797200003],[8.510115,47.77619049900005],[8.473911324000028,47.763872366000044],[8.454090913000073,47.74375461600005],[8.453083513000024,47.72431522800008],[8.411742582000045,47.70440030300006],[8.417182569000033,47.68396988400008],[8.411153269000067,47.67020714000006],[8.462243640000054,47.654814833000046],[8.472324671000024,47.644162175000076],[8.526543791000051,47.64662934100005],[8.530112648000056,47.658538614000065],[8.556143319000057,47.66796282800004],[8.606369500000028,47.669005499000036],[8.624706281000044,47.64946706100005],[8.616254101000038,47.640098143000046],[8.60721228400007,47.64887915400004],[8.598660451000057,47.643677181000044],[8.602096515000028,47.61687771600003],[8.595602,47.605544499000075],[8.581734743000027,47.59655840700003],[8.574549680000075,47.59621046400008],[8.562841,47.599432499000045],[8.562571083000023,47.61798384400004],[8.518994144000033,47.63046472600007],[8.463015465000069,47.600919849000036],[8.47469662800006,47.578279595000026],[8.426434500000028,47.56754899900005],[8.402784705000045,47.57491732600005],[8.379007724000076,47.56711478200003],[8.327523438000071,47.57290715700003],[8.30168001800007,47.58782183800008],[8.28882900700006,47.608926188000055],[8.229856587000029,47.60846729200006],[8.206729137000025,47.61940412600006],[8.170017013000063,47.59735634800006],[8.110577891000048,47.58119631400007],[8.091919691000044,47.560208482000064],[8.065204719000064,47.56240463900008],[8.025776993000022,47.55183804300003],[7.963864099000034,47.55658773700003],[7.944426372000066,47.54668388700003],[7.919968253000036,47.54855892300003],[7.894107500000075,47.58637499900004],[7.884716086000026,47.58872009400005],[7.868647083000042,47.58842126700006],[7.852399888000036,47.58377283800007],[7.837581,47.582636499000046],[7.832744,47.58656099900003],[7.824020745000041,47.58767375800005],[7.818366405000063,47.58601751600003],[7.81113999300004,47.57005080600004],[7.794769375000044,47.557258303000026],[7.760212500000023,47.54898049700006],[7.752676500000064,47.54502699900007],[7.72405,47.54222899900003],[7.713784500000031,47.539404999000055],[7.697038063000036,47.53315854600004],[7.68622350000004,47.53249799900004],[7.67529,47.53355449900005],[7.667489216000035,47.53638788000006],[7.661192200000073,47.54439796200006],[7.650188574000026,47.54796959600003],[7.645305500000063,47.55261499900007],[7.634097,47.561113499000044],[7.674093501000073,47.56564216700008],[7.681322973000022,47.57703096400007],[7.658142196000028,47.59458686800008],[7.615015214000039,47.57889625100006],[7.589039,47.589877999000066],[7.589167071000077,47.604244341000026],[7.566824874000076,47.63033492400007],[7.521171382000034,47.66788260000004],[7.513855602000035,47.69920458300004],[7.54144128300004,47.72180652600008],[7.545990500000073,47.743573999000034],[7.531525165000062,47.78116223400008],[7.546814865000044,47.812033375000055],[7.561468322000053,47.84161988900007],[7.557587884000043,47.87533583800007],[7.580441323000059,47.90026397500003],[7.585124950000022,47.93233945500003],[7.620532737000076,47.97297414900004],[7.610884069000065,47.99697140400008],[7.570645551000041,48.03626019200004],[7.577291,48.11565499900007],[7.577919500000064,48.12139199900008],[7.633776110000042,48.18611143700008],[7.66542686400004,48.222784250000075],[7.680713,48.25726699900008],[7.690247557000021,48.29013023200008],[7.699713363000058,48.305555034000065],[7.742243078000058,48.330147184000054],[7.733033353000053,48.393684336000035],[7.763008896000031,48.452614321000055],[7.768673482000054,48.48721119000004],[7.803736088000051,48.51390576700004],[7.804238439000073,48.58866545800004],[7.843611658000043,48.64297667100004],[7.890792469000075,48.66379628800007],[7.947836263000056,48.70919456200005],[7.95963050000006,48.71858099900004],[7.975022023000065,48.75763357200003],[8.010613936000027,48.762328479000075],[8.032989285000042,48.78608895100007],[8.072329824000064,48.79319369000007],[8.101562190000038,48.81653980500005],[8.146791231000066,48.90210601900003],[8.195530569000027,48.95465604700007],[8.232633,48.966571499000054],[8.101562190000038,48.989413540000044],[8.068407500000035,48.99931649900003],[8.047640734000026,49.01317934300005],[7.977321406000044,49.02898911800003],[7.938863629000025,49.05462208900008],[7.910654500000021,49.04516349900007],[7.889609391000022,49.04696378700004],[7.86213723700007,49.03456549100008],[7.799564853000049,49.06333331800005],[7.75933376200004,49.04702641400007],[7.700520330000074,49.05606985000003],[7.67514404700006,49.04636751800007],[7.635651,49.05395049900005],[7.622791810000024,49.074814521000064],[7.563564417000066,49.08167487900005],[7.531273011000053,49.09642536000007],[7.493641697000044,49.13618506000006],[7.502659606000066,49.15208684800007],[7.48966426000004,49.16741933600008],[7.457567825000069,49.16551975800007],[7.426300789000038,49.181212291000065],[7.373410118000038,49.17294746200008],[7.36875550000002,49.16145799900005],[7.358316005000063,49.145741556000075],[7.324155723000047,49.14185630500003],[7.290348081000047,49.116583236000054],[7.243310468000061,49.128731696000045],[7.198809821000054,49.118286743000056],[7.182071896000025,49.12903630300008],[7.153597328000046,49.12295322700004],[7.124196544000029,49.13963789700006],[7.106915602000072,49.14030906700003],[7.101069,49.15599799900008],[7.084769909000045,49.14985375900005],[7.085020524000072,49.130186183000035],[7.05380634900007,49.114535113000045],[7.030357464000076,49.163931698000056],[7.030303450000076,49.19009760900008],[7.008151386000065,49.191116212000054],[6.976804773000026,49.20708596500003],[6.956912535000072,49.20581310800003],[6.929308411000022,49.22228957900006],[6.896494231000077,49.21139662000007],[6.859577082000044,49.22058399600007],[6.842583687000058,49.21434931600004],[6.857495527000026,49.18023143900007],[6.837961490000055,49.15368677500004],[6.777736462000064,49.166522514000064],[6.74046026700006,49.16518112400007],[6.714229614000033,49.18577749600007],[6.728511577000063,49.20560968600006],[6.723465500000032,49.21882899900004],[6.705480068000043,49.21663499600004],[6.693243251000069,49.221811873000036],[6.684816165000029,49.25024031100003],[6.664059695000049,49.259530804000065],[6.665246062000051,49.27902670600008],[6.608641053000042,49.307210878000035],[6.568207749000067,49.348147262000055],[6.56789413100006,49.35441486500008],[6.589108894000049,49.35459416400005],[6.596434857000077,49.36494856500008],[6.581316255000047,49.38449075900007],[6.542429817000027,49.402243905000034],[6.541928376000044,49.41165085500006],[6.556986,49.419208499000035],[6.429200621000064,49.47427967200008],[6.394499384000028,49.465475499000036],[6.367107500000031,49.46950699900003],[6.36732240200007,49.487652129000026],[6.367488490000028,49.50167098700007],[6.364542395000058,49.50974386900003],[6.357294590000038,49.52959862000006],[6.361044,49.53636799900005],[6.380052500000033,49.551104999000074],[6.361903324000025,49.57316639900006],[6.423162555000033,49.62298070700007],[6.437507702000062,49.651238241000044],[6.430697767000026,49.66626939500003],[6.503592450000042,49.71354252300006],[6.501439205000054,49.74741707600003],[6.515657893000025,49.76339999400005],[6.510244240000077,49.79066413000004],[6.526323785000045,49.805545419000055],[6.474962500000061,49.82127499900008],[6.431460940000022,49.81228396600005],[6.401291746000027,49.821384812000076],[6.359044679000021,49.849714119000055],[6.325730158000056,49.83913220800008],[6.311046900000065,49.86662275900005],[6.265166865000026,49.881059297000036],[6.235832924000022,49.90061925400005],[6.217171629000063,49.94845328200006],[6.198204184000076,49.95209466600005],[6.190061618000072,49.96519293100005],[6.181281589000037,49.95640615600007],[6.171587110000075,49.96282268300007],[6.168046348000075,49.98349665400008],[6.147734557000035,49.99514915900005],[6.137129317000074,50.01647620700004],[6.141423255000063,50.023648724000054],[6.116887578000046,50.05906388300008],[6.137662500000033,50.12995149900007],[6.152019087000042,50.14346306300007],[6.140660356000069,50.15270910400005],[6.144672540000045,50.17226522000004],[6.186511186000075,50.18405334400006],[6.184899576000021,50.206860103000054],[6.170740799000043,50.22085300600003],[6.180311293000045,50.234340177000036],[6.217401471000073,50.25569769900005],[6.281067442000051,50.269833437000045],[6.289261899000053,50.29463051600004],[6.313106885000025,50.32070623000004],[6.358115791000046,50.310706107000044],[6.405028500000071,50.32330849900006],[6.400671583000076,50.341918785000075],[6.346815586000048,50.380147229000045],[6.367037278000055,50.40716819200003],[6.374414809000029,50.44775970900008],[6.344090183000048,50.46160466900005],[6.340088792000074,50.48741258000007],[6.315556,50.49704249900003],[6.226624314000048,50.49761363400006],[6.206558622000045,50.517992519000074],[6.192200500000069,50.521055499000056],[6.193872891000069,50.53522718200003],[6.17704724400005,50.55169361900005],[6.189312500000028,50.56609399900003],[6.241527022000071,50.59143420000004],[6.265564287000075,50.62468023100007],[6.203118352000047,50.632827888000065],[6.184152246000053,50.62809549800005],[6.177843489000054,50.65306123700003],[6.115915148000056,50.718751102000056],[6.038157926000054,50.72320607200004],[6.036539775000051,50.74522521600005],[6.020999,50.75429549900008],[6.019435516000044,50.77562301300003],[5.987287482000056,50.80208929100007],[6.01754137000006,50.81333746200005],[6.028920114000073,50.84759855300007],[6.075153770000043,50.855362583000044],[6.086947500000065,50.91313499900008],[6.019973938000021,50.93632035400003],[6.009803160000047,50.95750441400003],[6.020507776000045,50.98226826100006],[5.948769107000032,50.987249115000054],[5.898453523000057,50.97692133900006],[5.903204507000055,51.00073501900005],[5.877085,51.03210099900008],[5.871420015000069,51.04946836700003],[5.912750619000064,51.06341818100003],[5.937276305000069,51.038812620000044],[5.957201871000052,51.03762034600004],[6.001255120000053,51.08551489100006],[6.039655853000056,51.09888615500006],[6.096782026000028,51.13499482800006],[6.166635106000058,51.15295222800006],[6.169738475000031,51.15967894900007],[6.149059342000044,51.17371004100005],[6.174812,51.18451349900005],[6.160168061000036,51.19181449900003],[6.100969923000036,51.17194447300005],[6.08256306800007,51.17395400700008],[6.070493354000064,51.20366491300007],[6.070065252000063,51.21673255800005],[6.081596089000072,51.22509831700006],[6.072657,51.24258749900008],[6.121401568000067,51.273032870000065],[6.169119875000035,51.32941196100006],[6.224405,51.36497899900007],[6.217287528000043,51.38549890100006],[6.222020950000058,51.39809821700004],[6.207671859000072,51.40470730100003],[6.222367079000037,51.46706022200004],[6.210784080000053,51.51253495200007],[6.156125547000045,51.566187650000074],[6.094876910000039,51.606415551000055],[6.113807295000072,51.65474098800007],[6.038061121000055,51.673560328000065],[6.02889017800004,51.70313355300004],[6.032316366000032,51.72214420200004],[5.996298073000048,51.736791323000034],[5.959512951000022,51.73955059800005],[5.953192,51.74784599900005],[5.980767918000026,51.77360706400003],[5.957221071000049,51.81442747800003],[5.961122149000062,51.82872417400006],[6.009697550000055,51.83721473500003],[6.065897183000061,51.860078341000076],[6.156159095000021,51.84632559000005],[6.15766504000004,51.86177339300008],[6.129436600000076,51.89128529700008],[6.167766,51.90080449900006],[6.207381471000076,51.87064865700006],[6.280804146000037,51.872392898000044],[6.308917472000076,51.85158787200004],[6.348907088000033,51.84931218400004],[6.369015166000054,51.83512249200004],[6.407779500000061,51.82809199900004],[6.405322050000052,51.85219365800003],[6.390296591000038,51.86440802700008],[6.394736637000051,51.871270209000045],[6.471419194000021,51.856679675000066],[6.676138137000066,51.915138298000045],[6.722748476000049,51.898226012000066],[6.778070727000056,51.92310595500004],[6.801656016000038,51.95749019500005],[6.828211674000045,51.967532669000036],[6.826759968000033,51.98966029200005],[6.753000890000067,52.027859239000065],[6.692592770000033,52.040516694000075],[6.68758893200004,52.04833547000004],[6.697735457000022,52.06883332400008],[6.744485370000064,52.08126693100007],[6.760465,52.118569499000046],[6.857340319000059,52.12236841300006],[6.872094944000025,52.14122011100005],[6.885196097000062,52.15795919900006],[6.912916137000025,52.17598827900008],[6.950727642000061,52.183101169000054],[6.986713122000026,52.223818519000076],[7.033796487000075,52.22785628100007],[7.065685,52.24137299900008],[7.039093465000064,52.26118547400006],[7.027644188000068,52.28599752200006],[7.070338571000036,52.35308400400004],[7.070613079000054,52.37531460100007],[7.058431744000075,52.396580364000044],[7.036205179000035,52.404863532000036],[7.012057137000056,52.43004661600003],[6.992837762000022,52.46320485900003],[6.978933557000062,52.46394706400008],[6.958686353000076,52.442850831000044],[6.937031780000041,52.43680003400004],[6.847304547000022,52.45933439100003],[6.76160851700007,52.46230714600006],[6.697865500000034,52.486285999000074],[6.70213840100007,52.51795390800004],[6.692280611000058,52.54861997000006],[6.750733425000021,52.56696197600007],[6.725059384000076,52.58874601500003],[6.722597539000049,52.61368997100004],[6.70973250000003,52.627823499000044],[6.746513389000029,52.64514087600003],[6.786785855000062,52.65179769700006],[6.880647993000025,52.65214906800003],[6.929122659000029,52.63907132700007],[6.978374683000027,52.644590623000056],[7.006229500000074,52.63876299900005],[7.040483437000034,52.63291837500003],[7.050238019000062,52.639207731000056],[7.054921378000074,52.64361215100007],[7.066831,52.75462349900005],[7.067941500000074,52.76813899900003],[7.069587500000068,52.78762749900005],[7.072045,52.81087449900008],[7.084303307000027,52.82709848400003],[7.092692,52.83820099900004],[7.091834997000035,52.85301057400005],[7.180637621000074,52.94132353100008],[7.200560513000028,52.98036518400005],[7.213541885000041,53.00580397300007],[7.200164914000027,53.077610735000064],[7.202794500000039,53.11328149900004],[7.186325343000021,53.12183285900005],[7.181195471000024,53.13552576400008],[7.194974269000056,53.166170349000026],[7.216178627000033,53.18258908000007],[7.210429372000021,53.23058831800006],[7.208935,53.24306449900007],[7.219416201000058,53.24891408600007],[7.226086701000042,53.25607590200008],[7.235998833000053,53.27484446700004],[7.236577,53.28798499900006],[7.230221074000042,53.29392700300008],[7.242360978000022,53.303160793000075],[7.249550963000047,53.32393239400005],[7.2643,53.325526499000034],[7.032942609000031,53.33734010100005],[6.999446500000033,53.35988749900008],[6.998599755000043,53.37148725900005],[7.007064476000039,53.37747198800008],[7.010637204000034,53.38535582900005],[7.007759351000061,53.39355296100007],[7.012668396000038,53.407576852000034],[7.010695856000041,53.426230891000046],[7.024144954000064,53.47221022400004],[7.045311789000039,53.50736460100006],[7.037532642000031,53.532136887000036],[7.076504326000077,53.52913035300003],[7.099197134000065,53.51392583900008],[7.105210424000063,53.523747814000046],[7.129525491000038,53.53046806400005],[7.133386299000051,53.538812782000036],[7.092527461000032,53.56883364600003],[7.092605069000058,53.579627394000056],[7.110671885000045,53.59246782200006],[7.158359244000053,53.62636013400004],[7.239015059000053,53.66559243200004],[7.351288447000059,53.68594905300006],[7.550173,53.67503749900004],[7.698424991000024,53.702032279000036],[7.809895500000039,53.70766199900004],[7.914304627000035,53.71750411100004],[8.018037135000043,53.709912519000056],[8.028465156000038,53.70317578500004],[8.026014795000037,53.683583326000075],[8.04029338500004,53.64593661600003],[8.091291,53.63810899900005],[8.124216164000075,53.60124807600005],[8.150041018000024,53.59246782200006],[8.146503511000049,53.57493423600005],[8.165888382000048,53.543335899000056],[8.158636132000026,53.51916457800007],[8.130396094000048,53.50999644700005],[8.115048946000059,53.50659785500005],[8.085734398000056,53.50187013500005],[8.075065417000076,53.50246579800006],[8.061327,53.505956999000034],[8.066314871000031,53.47221022400004],[8.080251315000055,53.45735132300007],[8.101562190000038,53.44607162900007],[8.134746285000062,53.45209305600008],[8.150499747000026,53.44782122500004],[8.195555,53.40917149900008],[8.202321328000039,53.40372339400005],[8.215936265000039,53.40114846000006],[8.22742918800003,53.39897485300003],[8.246390767000037,53.397813],[8.258800945000075,53.40115795200006],[8.278104875000054,53.41269040600008],[8.292036331000077,53.424726580000026],[8.297223298000063,53.43067645900004],[8.295076459000029,53.43575049800006],[8.296710508000047,53.44164316900003],[8.308090574000062,53.44822079100004],[8.311846500000058,53.454165999000054],[8.31517076800003,53.462392676000036],[8.31546184900003,53.47221022400004],[8.314512094000065,53.511391340000046],[8.307064497000056,53.52177359400008],[8.233026770000038,53.52553113600004],[8.246607679000022,53.58518001700003],[8.256127880000065,53.59246782200006],[8.271887980000031,53.60453233100003],[8.302453763000074,53.61445164700007],[8.342449676000058,53.60868660300008],[8.365450433000035,53.59246782200006],[8.397475608000036,53.56988555200007],[8.461727546000077,53.553832673000045],[8.514964242000076,53.55298344600004],[8.548141530000066,53.53658572300003],[8.554898,53.525130999000055],[8.55243678100004,53.53627388000007],[8.505487307000067,53.57181267700008],[8.490269050000052,53.59246782200006],[8.520410500000025,53.606204999000056],[8.485436870000058,53.65606456100005],[8.483056993000048,53.68770782900003],[8.546014182000022,53.81317057600006],[8.564635855000063,53.84138177700004],[8.613389680000068,53.879754010000056],[8.687172500000031,53.89190799900007],[8.689058737000039,53.881161],[8.73321614100007,53.855297965000034],[8.788581523000062,53.834996371000045],[8.901236405000077,53.82906846700007],[8.981260514000041,53.83941893100007],[9.018512500000043,53.83484099900005],[9.014270021000073,53.84009047700005],[9.020410798000057,53.84227780300006],[9.029695426000046,53.84390680400003],[9.054655423000042,53.85269634900004],[9.070259475000057,53.85438065300008],[9.08147235000007,53.85936652200007],[9.142332062000037,53.86452305200004],[9.175620500000036,53.86426299900006],[9.217543747000036,53.86304509900003],[9.230594103000044,53.86183088000007],[9.25314650000007,53.859732499000074],[9.27439503000005,53.85784668200006],[9.272733,53.86766249900006],[9.199751,53.880104499000026],[9.142332062000037,53.877684765000026],[9.119776500000057,53.87882599900007],[9.105396,53.879840999000066],[9.082766500000048,53.880066999000064],[9.075283500000069,53.880513499000074],[9.059376500000042,53.88112599900006],[9.052706,53.88144149900006],[9.036473500000056,53.88101049900007],[9.02242,53.87951749900003],[9.018309500000043,53.89630949900004],[8.97231935000002,53.89189787500004],[8.963567428000033,53.89535113200003],[8.939057,53.91072299900003],[8.935234962000038,53.91576701900004],[8.91403368500005,53.92625226300004],[8.906114372000047,53.935958818000074],[8.892944,53.95209649900005],[8.874398301000042,53.98140432500003],[8.85672607600003,53.999699468000074],[8.84851907600006,54.00819302000008],[8.843518226000072,54.01026262400006],[8.832592,54.023929499000076],[8.875712242000077,54.04334416100005],[8.959179807000055,54.03667046400005],[8.979772505000028,54.055448468000066],[8.924144728000044,54.129251030000034],[8.862401964000071,54.12545890100006],[8.82476546600003,54.151055893000034],[8.81165620400003,54.18477203200007],[8.833882660000029,54.220630293000056],[8.844804500000066,54.26632849900005],[8.823753617000023,54.29003215700004],[8.78218666400005,54.28230524000003],[8.709916049000071,54.291237651000074],[8.690315232000046,54.28058675600005],[8.669278303000056,54.28076832900007],[8.608601729000043,54.30993193200004],[8.601795391000053,54.325227005000045],[8.609383900000068,54.34079170500007],[8.64353174100006,54.33895585600004],[8.688507142000049,54.35640506700008],[8.687710019000065,54.37182574700006],[8.653057623000052,54.37916459500008],[8.666570961000048,54.396424532000026],[8.877714346000062,54.40680887900004],[8.91349245400005,54.41817846300006],[8.964036489000023,54.453064022000035],[9.001633420000076,54.463263426000026],[9.012656824000032,54.48604659100005],[8.981802165000033,54.523420860000044],[8.950464612000076,54.51296290100004],[8.92074361300007,54.475815372000056],[8.895757796000055,54.46244274600008],[8.842204177000042,54.46104107800005],[8.812101606000056,54.46906486700004],[8.811400939000066,54.499668556000074],[8.873412376000033,54.53362632800008],[8.871602070000051,54.564586063000036],[8.874878569000032,54.57128387600005],[8.889190706000022,54.60054072500003],[8.848448082000061,54.62545780600004],[8.826910417000022,54.65294733300004],[8.774072467000053,54.67342571200004],[8.759240044000023,54.67917430700004],[8.737241907000055,54.71724781900008],[8.69420113700005,54.727686092000056],[8.711775757000055,54.741654864000054],[8.68632206600006,54.79051494700008],[8.660766860000024,54.79689335900008],[8.60987953600005,54.843145218000075],[8.61051979900003,54.88621055600004],[8.633862931000067,54.89585239200005],[8.635926,54.91168299900005],[8.682188677000056,54.909174473000064]],[[9.71170528700003,54.52576110000007],[9.644031565000034,54.519071419000056],[9.615098652000029,54.52474469500004],[9.577849184000058,54.50990558600006],[9.585187717000053,54.504217708000056],[9.636501511000063,54.50883795200008],[9.673870945000033,54.496408564000035],[9.705933267000034,54.492665611000064],[9.704130767000038,54.51549098000004],[9.737732228000027,54.52861377100004],[9.75693564900007,54.55035500900004],[9.807738233000066,54.57128387600005],[9.932783080000036,54.622797931000036],[9.945232,54.63672499900008],[9.769541962000062,54.57128387600005],[9.71170528700003,54.52576110000007]],[[13.391330344000039,54.64762004000005],[13.381062754000027,54.63087626400005],[13.393117996000058,54.60197474100005],[13.421802846000048,54.58102536300004],[13.46181628100004,54.572401554000066],[13.624729001000048,54.58438077000005],[13.655168049000054,54.57128159500007],[13.674336761000063,54.55789092300006],[13.671530953000058,54.530001893000076],[13.601807339000061,54.49099462600003],[13.57832139900006,54.47194316700006],[13.574964110000053,54.45749624800004],[13.583588143000043,54.43624546800004],[13.609681151000075,54.40953789900004],[13.675701229000026,54.39601178700008],[13.742810503000044,54.34597735300008],[13.713340163000055,54.27596998100006],[13.694102902000054,54.278454356000054],[13.66648716900005,54.297589920000064],[13.688094210000031,54.31883295800003],[13.67153456400007,54.34498758800004],[13.618761582000047,54.33556036200008],[13.579036525000049,54.34938575800004],[13.50280562000006,54.33945735900005],[13.372692590000042,54.269743521000066],[13.375371349000034,54.26199246500005],[13.400859273000037,54.26071494100006],[13.415217083000073,54.24950150800004],[13.413656999000068,54.23645240600007],[13.391307816000051,54.22736727000006],[13.330592361000072,54.24008945000003],[13.315590688000043,54.26215480800005],[13.261306171000058,54.25736428600004],[13.211261617000048,54.27096354500003],[13.190703556000074,54.290438496000036],[13.154789214000061,54.288621945000045],[13.152511214000072,54.29295543900008],[13.163464752000039,54.30726332900008],[13.122630670000035,54.33727858900005],[13.133620742000062,54.366049435000036],[13.221592987000065,54.37055223800007],[13.244406508000054,54.38376579900006],[13.213072594000039,54.420251783000026],[13.164868540000043,54.426752865000026],[13.157586725000044,54.44533470500005],[13.132380354000077,54.45207518500007],[13.144749648000072,54.47489658900008],[13.169266575000051,54.48866903500004],[13.211469694000073,54.48464483200007],[13.227036368000029,54.47032286100006],[13.245429887000057,54.47729873600008],[13.220253115000048,54.50718383800006],[13.16510863700006,54.51130151900003],[13.16025969900005,54.542589977000034],[13.249130540000067,54.55065408100006],[13.299286235000068,54.526764177000075],[13.309482813000045,54.555229868000026],[13.35926381400003,54.57704207000006],[13.371054503000039,54.54937188800005],[13.364268895000066,54.52782090000005],[13.397008923000044,54.52982534200004],[13.425231189000044,54.49101643500006],[13.479520242000035,54.47578630900006],[13.481416870000032,54.45542905800005],[13.495617088000074,54.44322648200006],[13.492612072000043,54.42757779500005],[13.534522654000057,54.426809148000075],[13.541004417000067,54.46587772700008],[13.510458395000057,54.48495815000007],[13.509467523000069,54.51904269500005],[13.498173146000056,54.54268289700008],[13.403170293000073,54.57128159500007],[13.365730970000072,54.60702457500008],[13.32034802000004,54.58116206600005],[13.255792112000051,54.56562454400006],[13.282708993000028,54.633532639000066],[13.268161746000033,54.64138724800006],[13.223889287000077,54.62955891100006],[13.227308789000062,54.64184944700003],[13.286253980000026,54.67156798100007],[13.416767165000067,54.682403339000075],[13.430977061000021,54.67884954400006],[13.431724045000067,54.668030326000064],[13.391330344000039,54.64762004000005]],[[11.273706571000048,54.45721847900006],[11.281238851000069,54.44514475900007],[11.296837689000029,54.43111290200005],[11.311144665000029,54.40902994800007],[11.311450327000045,54.40441257100008],[11.28533460400007,54.404924254000036],[11.259179026000027,54.40992522700003],[11.233814835000032,54.41134268600007],[11.205868247000069,54.409494109000036],[11.204078158000073,54.41666700900004],[11.184264191000068,54.41949689900008],[11.171582948000037,54.415423049000026],[11.172582378000072,54.40287032200007],[11.15612154400003,54.40163247400005],[11.122718654000039,54.40313900600006],[11.097263680000026,54.412486244000036],[11.099194942000054,54.434084419000044],[11.089002701000027,54.44629605100005],[11.062245132000044,54.45113367400006],[11.05000940900004,54.44705734400003],[11.011732865000056,54.44229278600005],[11.005278349000037,54.45264602300006],[11.011493680000058,54.483063360000074],[11.031059664000054,54.51075587200006],[11.046769921000077,54.523856737000074],[11.069203017000063,54.53398875600004],[11.165318866000064,54.52154860500008],[11.200028423000049,54.50920744700005],[11.227986065000039,54.50206951800004],[11.24110663700003,54.492735810000056],[11.256188184000052,54.47085769800003],[11.273706571000048,54.45721847900006]],[[8.389779120000071,54.89058746200004],[8.460569054000075,54.87290719600003],[8.46082765500006,54.86774613700004],[8.410963305000053,54.84983310600006],[8.344894060000058,54.87596201500003],[8.310054524000066,54.85555523100004],[8.299684483000021,54.840756799000076],[8.299058581000054,54.76681924900004],[8.29173253600004,54.74564895100008],[8.28054323400005,54.75750078400006],[8.28185177000006,54.789468225000064],[8.298877485000048,54.90693866300006],[8.309838006000064,54.92810904900006],[8.387188198000047,55.04077519800006],[8.403945996000061,55.05356472200003],[8.41848482000006,55.05338440600008],[8.409047007000026,55.04035133000008],[8.427045090000036,55.03038210700004],[8.43349977400004,55.017515898000056],[8.388457439000035,54.999065046000055],[8.360019704000024,54.97310238700004],[8.361411949000058,54.92810904900006],[8.365768960000025,54.91148837700007],[8.389779120000071,54.89058746200004]],[[8.567674603000057,54.751373984000054],[8.58790706000002,54.74109937800006],[8.584759763000022,54.72949598300005],[8.596243361000063,54.71873372600004],[8.58193527000003,54.710206224000046],[8.575695981000024,54.69239750200006],[8.56721159500006,54.68077086000005],[8.555197441000075,54.679089875000045],[8.525829822000048,54.68085501500008],[8.486176812000053,54.68036039500004],[8.46794559600005,54.68335566700006],[8.450926632000062,54.69302425400008],[8.42686304800003,54.69495],[8.402690479000057,54.70044623600006],[8.396476474000053,54.70484515800007],[8.395426198000052,54.715078607000066],[8.404397338000024,54.730126236000046],[8.41880810500004,54.74187919000008],[8.436938105000024,54.748217657000055],[8.476943042000073,54.752085944000044],[8.486144550000063,54.749906106000026],[8.513787550000075,54.753955458000064],[8.517082340000059,54.75126921200007],[8.534778680000045,54.75558754500008],[8.567674603000057,54.751373984000054]],[[8.640211907000037,54.489737568000066],[8.624262988000055,54.48934543100006],[8.611801721000063,54.49450427600004],[8.59240008100005,54.50883347300004],[8.58739181900006,54.52298320500006],[8.598846829000024,54.53421949600005],[8.62615678900005,54.53576842900003],[8.640211907000037,54.54448996800005],[8.66805510000006,54.55021548700006],[8.687418777000062,54.55678965800007],[8.702198398000064,54.55763263500006],[8.710286565000047,54.55317936000006],[8.697543875000065,54.52520690600005],[8.69636033300003,54.51610324300003],[8.671007816000042,54.49514869800004],[8.640211907000037,54.489737568000066]],[[8.394175305000033,54.61304661200006],[8.365414960000066,54.60905774500003],[8.338722103000066,54.62743410000007],[8.30381039200006,54.65427108200004],[8.293638111000064,54.665794306000066],[8.306182575000037,54.68211761900005],[8.339842944000054,54.70121733000008],[8.341324131000022,54.69092602600006],[8.361984638000024,54.65031372100003],[8.38140785500002,54.64019631200006],[8.37990699900007,54.63293745300007],[8.395962148000024,54.61690714800005],[8.394175305000033,54.61304661200006]],[[6.735969268000076,53.57028463000006],[6.697852467000075,53.56609103800008],[6.664896093000038,53.57837966900007],[6.655011819000038,53.59246782200006],[6.667874597000036,53.602450926000074],[6.757026554000049,53.61719772100008],[6.804055598000048,53.604387950000046],[6.796752216000073,53.598166896000066],[6.745278074000055,53.59246782200006],[6.729065533000039,53.58438911200005],[6.735969268000076,53.57028463000006]],[[7.321056781000038,53.71171724000004],[7.270226080000043,53.70369573200003],[7.215477328000077,53.70359528200004],[7.208784659000059,53.70660328500003],[7.199089984000068,53.70027343500004],[7.177835063000032,53.701339404000066],[7.171176804000027,53.70700897000006],[7.162918092000041,53.697682677000046],[7.15280202200006,53.69688512100004],[7.137349713000049,53.70697909800003],[7.143481661000067,53.71116501500006],[7.186343828000076,53.722703772000045],[7.271817788000021,53.723771240000076],[7.331921873000056,53.727063601000054],[7.344159782000077,53.72549238300007],[7.346916411000052,53.718656287000044],[7.321056781000038,53.71171724000004]],[[7.628188039000065,53.75365218400003],[7.630644939000035,53.746822690000045],[7.613359589000027,53.74600392100007],[7.571571689000052,53.74842632000008],[7.539203344000043,53.743687539000064],[7.514682795000056,53.74383356200008],[7.506079875000069,53.739937919000056],[7.50337782400004,53.73154684900004],[7.49234767400003,53.724021555000036],[7.484371790000068,53.725943606000044],[7.470538006000027,53.72105179700003],[7.460660375000032,53.725340506000066],[7.469246792000035,53.746109938000075],[7.479794034000065,53.75436230000008],[7.490879365000069,53.75659717000008],[7.548589394000032,53.75880253400004],[7.593300777000024,53.75907307800003],[7.628188039000065,53.75365218400003]],[[7.720409303000054,53.78225292500008],[7.770452175000059,53.781130767000036],[7.812665729000059,53.781535922000046],[7.813822061000053,53.77485750500006],[7.756811826000046,53.760513348000075],[7.739456464000057,53.75996134900004],[7.696960998000066,53.76464551200007],[7.681354470000031,53.75188312500006],[7.668804037000029,53.754446390000055],[7.665053053000065,53.76100217000004],[7.677888154000073,53.773528518000035],[7.698305370000071,53.78072946200007],[7.720409303000054,53.78225292500008]],[[13.146985354000037,54.603764811000076],[13.152698413000053,54.59099428600007],[13.143908958000054,54.58417923300004],[13.135028814000066,54.59437852800005],[13.124511669000071,54.58581617600004],[13.111473290000049,54.58418179100005],[13.116614241000036,54.57586542400003],[13.111886584000047,54.571335883000074],[13.122901906000038,54.54384399000003],[13.086611009000023,54.52132577500004],[13.082490663000044,54.52374252000004],[13.100082978000046,54.571335883000074],[13.09921068500006,54.591958754000075],[13.121068322000042,54.60471098000005],[13.146985354000037,54.603764811000076]],[[6.918195103000073,53.66604612300006],[6.88685233800004,53.664072255000065],[6.86558539400005,53.664824517000056],[6.86298972000003,53.667833597000026],[6.866655205000029,53.671068268000056],[6.894536274000075,53.67191550500007],[6.977759457000047,53.68148753600008],[7.051616221000074,53.68630212100004],[7.090665471000023,53.68605447200008],[7.091561477000027,53.678935428000045],[7.051616221000074,53.678851148000035],[7.015849372000048,53.67405495700007],[6.964973253000039,53.67162550900008],[6.918195103000073,53.66604612300006]],[[8.640500859000042,54.638727577000054],[8.607225019000055,54.63314684200003],[8.586659796000049,54.63437475400008],[8.562106056000061,54.62656635400003],[8.546201901000074,54.61867270700003],[8.528975414000058,54.62667437700003],[8.540697995000073,54.63594583100007],[8.553289706000044,54.63556984000007],[8.602455057000043,54.642029249000075],[8.640500859000042,54.650500038000075],[8.65208418100002,54.65718013700007],[8.663519653000037,54.65523118700003],[8.657011407000027,54.64370395900005],[8.640500859000042,54.638727577000054]],[[11.549247407000053,54.06553722700005],[11.534066584000072,54.05342557500006],[11.533975484000052,54.07729209000007],[11.562485266000067,54.09646573500004],[11.600282402000062,54.10337890300008],[11.600159287000054,54.095763127000055],[11.584922507000044,54.09084924700005],[11.575938045000044,54.08119784300004],[11.549247407000053,54.06553722700005]],[[7.899320565000039,53.79438841600006],[7.956873764000022,53.786594266000066],[7.971665620000067,53.78260381600006],[7.970754860000056,53.77587944800007],[7.950207516000035,53.78162314300005],[7.935194491000061,53.779821319000064],[7.90915158100006,53.78112990600005],[7.874265639000043,53.78855664500003],[7.866639089000046,53.77372984100003],[7.847052204000022,53.78742383800005],[7.864318359000038,53.79393896600004],[7.899320565000039,53.79438841600006]],[[13.175040591000027,54.56074153600008],[13.164707183000075,54.558465987000034],[13.16122630600006,54.56606534200006],[13.165699319000055,54.571373030000075],[13.230487829000026,54.60634293700008],[13.229385378000075,54.59070784100004],[13.190045229000077,54.571373030000075],[13.175040591000027,54.56074153600008]],[[7.427720880000038,53.720555148000074],[7.387287901000036,53.719882744000074],[7.368606410000041,53.72241598200003],[7.36239875800004,53.72709731700007],[7.385730546000048,53.735488564000036],[7.427327725000055,53.73335024800008],[7.435687478000034,53.729857],[7.427720880000038,53.720555148000074]],[[8.577325382000026,54.55998402200004],[8.548265978000074,54.55636851200006],[8.537832425000033,54.56413627300003],[8.51416362200007,54.57128387600005],[8.510664302000066,54.577941260000046],[8.55590402000007,54.57800574200007],[8.565894124000067,54.57128387600005],[8.577325382000026,54.55998402200004]],[[8.704050276000032,47.71027953200007],[8.717719500000044,47.69074199900007],[8.70922869800006,47.689687897000056],[8.701589,47.691935999000066],[8.689851299000054,47.69493830600004],[8.670461,47.684862499000076],[8.663354,47.68589249900003],[8.67776169800004,47.710829911000076],[8.704050276000032,47.71027953200007]],[[6.892707062000056,53.63153756500003],[6.891293225000027,53.625520178000045],[6.876906971000039,53.62858276600008],[6.865014367000072,53.640163578000056],[6.866464382000061,53.645044390000066],[6.900804295000057,53.653861120000045],[6.905940261000069,53.644158857000036],[6.892707062000056,53.63153756500003]],[[8.515230814000063,53.91750327300008],[8.498684656000023,53.912174950000065],[8.486057036000034,53.91440935800006],[8.489024444000052,53.926754294000034],[8.498537327000065,53.93210447100006],[8.517571942000075,53.92287167900008],[8.515230814000063,53.91750327300008]],[[8.438996017000022,53.944950952000056],[8.424698145000036,53.94238698600003],[8.419433223000055,53.94705929100007],[8.425542767000024,53.95758968000007],[8.438014384000041,53.95768101900006],[8.44065839700005,53.96474423900003],[8.451846961000058,53.96153984100005],[8.438996017000022,53.944950952000056]],[[13.075408365000044,54.48476298800006],[13.065787944000022,54.45827714900008],[13.060561445000076,54.46054784700004],[13.061530220000066,54.48139150700007],[13.066367737000064,54.49240973600007],[13.075408365000044,54.48476298800006]],[[8.738412979000032,54.634594091000054],[8.718860162000055,54.62684779400007],[8.70915377600005,54.63222285100005],[8.713229328000068,54.63936616400008],[8.733690566000064,54.64337507700003],[8.738412979000032,54.634594091000054]],[[8.694428552000034,54.057046222000054],[8.682955069000059,54.048164100000065],[8.677851126000064,54.055437796000035],[8.680560815000035,54.06403558000005],[8.692049549000046,54.07083864500004],[8.697271477000072,54.06659458300004],[8.694428552000034,54.057046222000054]],[[13.058175962000064,54.451116951000074],[13.039590653000062,54.441992636000066],[13.033014540000067,54.44586574400006],[13.051199403000055,54.45995989100004],[13.058175962000064,54.451116951000074]],[[8.829793774000052,54.55007972200008],[8.82463363900007,54.54175193400005],[8.80181804700004,54.55199397300004],[8.808861517000025,54.55608484900006],[8.829793774000052,54.55007972200008]],[[8.559752721000052,54.46115178900004],[8.547079907000068,54.457814330000076],[8.53907382400007,54.46651987400003],[8.543943738000053,54.47187975800006],[8.559911011000054,54.46668131800004],[8.559752721000052,54.46115178900004]],[[8.829925425000056,54.603789746000075],[8.819431027000064,54.59118770200007],[8.806843876000073,54.59928772600006],[8.823754940000072,54.60776384300004],[8.829925425000056,54.603789746000075]],[[7.894901251000022,54.18048095200004],[7.886570599000038,54.17446699100003],[7.871746332000043,54.18682480100006],[7.883992920000026,54.19085612500004],[7.894901251000022,54.18048095200004]],[[7.91985904400002,54.18274322700006],[7.903610446000073,54.18009161900005],[7.894938596000031,54.18858785100008],[7.916218293000043,54.19170652000008],[7.91985904400002,54.18274322700006]],[[13.935707433000061,54.02952524300008],[13.924122902000022,54.01604273000004],[13.914631192000058,54.02041558900004],[13.928322124000033,54.035087403000034],[13.935707433000061,54.02952524300008]],[[6.760630225000057,53.56267240100004],[6.742191338000055,53.55579867700004],[6.739493105000065,53.56776487900004],[6.758464244000038,53.569058158000075],[6.760630225000057,53.56267240100004]],[[13.928998526000044,54.245787593000045],[13.92068322800003,54.23966249600005],[13.908911356000033,54.247892543000034],[13.92455341300007,54.25733497600004],[13.928998526000044,54.245787593000045]],[[8.735394369000062,54.46039442500006],[8.723411183000053,54.45654605400006],[8.715906611000037,54.465803770000036],[8.728325906000066,54.473815933000026],[8.735394369000062,54.46039442500006]],[[8.458371929000066,55.04258519200005],[8.449316403000068,55.040046517000064],[8.434326914000053,55.04916524500004],[8.439527683000051,55.05304982900003],[8.455997108000076,55.05000038700007],[8.458371929000066,55.04258519200005]],[[13.551571890000048,54.325461647000054],[13.52777621100006,54.31995098700003],[13.52622135200005,54.32668438800005],[13.542376111000067,54.33357139800006],[13.551571890000048,54.325461647000054]],[[8.716845615000068,54.68130974700006],[8.712368766000054,54.671124183000074],[8.692045785000062,54.67589539900007],[8.697489566000058,54.68251843300004],[8.716845615000068,54.68130974700006]]]}