{"type":"Topology","objects":{"temp":{"type":"GeometryCollection","geometries":[{"type":"MultiPolygon","arcs":[[[0]],[[1]],[[2]],[[3]],[[4]],[[5]],[[6]],[[7]],[[8]],[[9]],[[10]],[[11]],[[12]],[[13]],[[14]],[[15]],[[16]],[[17]],[[18]],[[19]],[[20]],[[21]],[[22]],[[23]],[[24]],[[25]],[[26]],[[27]],[[28]],[[29]],[[30]],[[31]],[[32]],[[33]],[[34]],[[35]],[[36]],[[37]],[[38]],[[39]],[[40]],[[41]],[[42]],[[43]],[[44]],[[45]],[[46]],[[47]],[[48]],[[49]],[[50]],[[51]],[[52]],[[53]],[[54]],[[55]],[[56]],[[57]],[[58]],[[59]],[[60]],[[61]],[[62]],[[63]],[[64]]],"properties":{"NUTS_ID":"IE","LEVL_CODE":0,"CNTR_CODE":"IE","NAME_LATN":"Éire/Ireland","NUTS_NAME":"Éire/Ireland","MOUNT_TYPE":0,"URBN_TYPE":0,"COAST_TYPE":0,"NAME_ENGL":"Ireland","NAME_FREN":"Irlande","ISO3_CODE":"IRL","SVRG_UN":"UN Member State","CAPT":"Dublin","EU_STAT":"T","EFTA_STAT":"F","CC_STAT":"F","NAME_GERM":"Irland"}}]}},"arcs":[[[-7.390325301999951,55.018305260000034],[-7.405781495999975,54.94964210100005],[-7.445468722999976,54.923836520000066],[-7.449487727999951,54.86733729500003],[-7.484465899999975,54.82681113000007],[-7.539318782999942,54.79401546400004],[-7.549745986999937,54.746643895000034],[-7.641523050999979,54.747393342000066],[-7.749423020999927,54.70883304100005],[-7.82987972799998,54.731521308000026],[-7.850034926999967,54.72391291100007],[-7.911490805999961,54.69302696200003],[-7.900202956999976,54.66638996300003],[-7.850034926999967,54.63863438200008],[-7.809557225999981,54.63791675700003],[-7.75242727899996,54.62299406000005],[-7.714066617999947,54.62802217400008],[-7.703411499999959,54.60828799900003],[-7.786456341999951,54.58085967900007],[-7.850034926999967,54.536827275000064],[-7.937037882999959,54.53427750900005],[-7.999313966999978,54.54380096800003],[-8.01589155399995,54.52568757200004],[-8.048482176999926,54.490077633000055],[-8.160230086999945,54.46476534100003],[-8.149254849999977,54.451175360000036],[-8.151424410999937,54.436907974000064],[-8.097683720999953,54.40539148000005],[-8.05437501199998,54.367981590000056],[-8.002791901999956,54.35555280900007],[-7.981522484999971,54.33607737800003],[-7.951698247999957,54.30876869200006],[-7.872485676999929,54.29033805900008],[-7.854619508999974,54.22232122200006],[-7.84570571699993,54.21351474100004],[-7.813182117999929,54.20273957900008],[-7.692732080999974,54.204695152000056],[-7.67404914399998,54.184721308000064],[-7.632594721999965,54.17018323500008],[-7.612389435999944,54.14602869700008],[-7.578668437999966,54.13974467200006],[-7.554732860999934,54.124658269000065],[-7.525894344999926,54.13344446600007],[-7.481296486999952,54.12387983600007],[-7.450347127999976,54.147810684000035],[-7.413682354999935,54.15502297300003],[-7.421016149999957,54.14001935400006],[-7.381918671999927,54.13881291400003],[-7.38800062699994,54.12392904300003],[-7.361840650999966,54.129110523000065],[-7.318662933999974,54.116368597000076],[-7.280683710999938,54.124361520000036],[-7.25603848999998,54.15475565000003],[-7.250752491999947,54.17122868700005],[-7.256825751999941,54.18814542300004],[-7.239411478999955,54.20586289100004],[-7.147417719999964,54.22741172600007],[-7.148216055999967,54.257347751000054],[-7.174556516999928,54.273561606000044],[-7.177051074999952,54.285517922000054],[-7.208331040999951,54.29874605200007],[-7.180518068999959,54.31394054300006],[-7.18797062699997,54.33607737800003],[-7.150912303999974,54.33815164200007],[-7.116254856999944,54.352475679000065],[-7.060525444999939,54.40497819400008],[-7.028071427999976,54.41811170500006],[-6.922942726999963,54.37853486400007],[-6.902266040999962,54.353722952000055],[-6.870294009999952,54.33607737800003],[-6.864229499999965,54.33016549900003],[-6.854627606999941,54.29113563100003],[-6.874564554999949,54.27811771200004],[-6.832252641999958,54.26282591800003],[-6.814942512999949,54.22611313700003],[-6.794334897999931,54.21001152500003],[-6.737425340999948,54.18378432900005],[-6.696958971999948,54.19940179100007],[-6.643909,54.18001949900008],[-6.633334459999958,54.15117184200005],[-6.657431762999977,54.11856052400003],[-6.649058489999959,54.09947881200003],[-6.657496057999936,54.08104929700005],[-6.662600204999933,54.06990071000007],[-6.627766796999936,54.04165591200007],[-6.594991,54.044673999000054],[-6.579256897999926,54.05473007400008],[-6.511326674999964,54.056055205000064],[-6.474530855999944,54.072740629000066],[-6.456692973999964,54.06621923900008],[-6.438672857999961,54.05963122600008],[-6.395823901999961,54.06148389600003],[-6.364011724999955,54.08104929700005],[-6.359750089999977,54.11217587200008],[-6.342991009999935,54.110466571000075],[-6.323960254999974,54.093084505000036],[-6.291913923999971,54.111577268000076],[-6.268015499999933,54.102336999000045],[-6.248593612999969,54.08104929700005],[-6.178419076999944,54.04066775600006],[-6.131607494999969,54.02753551100005],[-6.11124104299995,54.000935466000044],[-6.170996619999926,53.97902721000003],[-6.24052742799995,53.98711667400005],[-6.335516346999952,54.01167575000005],[-6.363180667999927,53.97680669200008],[-6.375289448999979,53.94597874100003],[-6.363232036999932,53.90139954600005],[-6.341392622999933,53.88375837800004],[-6.245543570999928,53.85861562500003],[-6.256981226999926,53.81361328500003],[-6.224795996999944,53.793651441000065],[-6.244230905999927,53.76162311400003],[-6.247798883999963,53.72633961100007],[-6.214899499999945,53.633406999000044],[-6.188585900999954,53.625831050000045],[-6.147567299999935,53.58891807100008],[-6.106606400999965,53.57854600100006],[-6.083047296999951,53.55060393000008],[-6.084766409999929,53.523243265000076],[-6.109421994999934,53.50724612500005],[-6.104374616999962,53.48733490600006],[-6.129965359999971,53.45240455100003],[-6.118853390999959,53.41294189300004],[-6.127081454999939,53.391137308000054],[-6.146492567999928,53.381141143000036],[-6.160202588999937,53.359396451000066],[-6.196724873999926,53.35541469200007],[-6.19318709199996,53.34302748500005],[-6.205110720999926,53.328467799000066],[-6.186235454999974,53.30744720700005],[-6.101196118999951,53.278041700000074],[-6.110153011999955,53.24926958800006],[-6.102773,53.21077299900003],[-6.078352978999931,53.18768047600008],[-6.073111470999947,53.160285600000066],[-6.04125348499997,53.11391257500003],[-6.04052711199995,53.10794063000003],[-6.039851273999943,53.10238416900006],[-6.035855818999948,53.06953516600004],[-6.048586750999959,53.023053677000064],[-6.046506916999931,52.99316807300005],[-6.002920767999967,52.962790737000034],[-6.05756299199993,52.87960916500003],[-6.061566209999967,52.85841952900006],[-6.105167212999959,52.837102807000065],[-6.138137554999958,52.80074056800004],[-6.144516499999952,52.73769649900004],[-6.193218520999949,52.68959058100006],[-6.221846117999974,52.64429293200004],[-6.222171676999949,52.61802114400007],[-6.20231730699993,52.56834879200005],[-6.206712804999938,52.54816883600006],[-6.344177916999968,52.41443555200004],[-6.366256211999939,52.35713356100007],[-6.446616702999961,52.350143453000044],[-6.47496313299996,52.367330683000034],[-6.48857222099997,52.35851555000005],[-6.434564997999928,52.30712324900003],[-6.392699970999956,52.29372741900005],[-6.367414233999966,52.259890348000056],[-6.330237347999969,52.24185894300007],[-6.366487893999931,52.18195363500007],[-6.48387063499996,52.18920538900005],[-6.581893667999964,52.17902710700008],[-6.66171191899997,52.21438694100004],[-6.784448973999929,52.21346733900003],[-6.767299479999963,52.24191052300006],[-6.770783577999964,52.24923499600004],[-6.825098671999967,52.22096622400005],[-6.840472975999944,52.17567331300006],[-6.905313331999935,52.14460012300003],[-6.91152915999993,52.20021384100005],[-6.927661512999975,52.21894967900005],[-6.957606234999957,52.23223413000005],[-6.974803301999941,52.20441950400004],[-6.97942685299995,52.16856456000005],[-7.020635758999958,52.13863781500004],[-7.086284384999942,52.13389300500006],[-7.099343601999976,52.14645155300008],[-7.100838679999981,52.16126546700008],[-7.118077377999953,52.16494045200005],[-7.18589447599993,52.137695389000044],[-7.374345396999956,52.13617995300007],[-7.448697891999927,52.12367893000004],[-7.55343279799996,52.08633858600007],[-7.600146326999948,52.09138855000003],[-7.621934081999939,52.08088581000004],[-7.620554879999929,52.068915178000054],[-7.55846244199995,52.04492325900003],[-7.594162832999928,51.993593598000075],[-7.691405921999944,51.97253058800004],[-7.724446407999949,51.94262139400007],[-7.805675613999938,51.943527635000066],[-7.817272941999931,51.94133471100008],[-7.842156,51.954218499000035],[-7.882456674999958,51.91438934100006],[-7.895354287999965,51.879864388000044],[-7.976942678999933,51.86042666900005],[-8.038841755999954,51.821276252000075],[-8.120657669999957,51.80088299800008],[-8.234057659999962,51.809064410000076],[-8.236848775999931,51.82278491200003],[-8.217868452999937,51.846463795000034],[-8.22428413199998,51.85448736500007],[-8.310898853999959,51.848566625000046],[-8.316592601999957,51.83326426500008],[-8.294984492999959,51.79257319800007],[-8.33521441399995,51.73037614800006],[-8.418615414999977,51.69773312500007],[-8.50510490399995,51.68457770800006],[-8.553987087999928,51.63224780500008],[-8.68001015699997,51.641305430000045],[-8.70548476199997,51.59721908900008],[-8.72646901099995,51.58158507500008],[-8.836504064999929,51.59066275200007],[-8.930826843999967,51.54831908400007],[-9.001470076999965,51.55936994900003],[-9.09641290299993,51.55365127200008],[-9.217806652999968,51.496196155000064],[-9.34868329099993,51.47681534700007],[-9.389602091999961,51.49207285400007],[-9.408051978999936,51.53157971400003],[-9.429480960999967,51.54034783800006],[-9.50297935499998,51.512726273000055],[-9.542050027999949,51.51456279100006],[-9.603334231999952,51.501445673000035],[-9.65863339599997,51.503683789000036],[-9.741563681999935,51.46539181000003],[-9.781985898999949,51.45823782300005],[-9.808547897999972,51.47068670800007],[-9.798847616999979,51.49459402700006],[-9.680417121999938,51.54070415600006],[-9.61365253699995,51.59136947200005],[-9.630667286999937,51.59600921100008],[-9.796839624999961,51.55020557700004],[-9.809489044999964,51.550688],[-9.808006714999976,51.55755909900006],[-9.674851540999953,51.61946304300005],[-9.489440169999966,51.67629385500004],[-9.469108694999932,51.69220468600008],[-9.47122350899997,51.71285121000005],[-9.532703136999942,51.73268331200006],[-9.640403269999979,51.68439740700006],[-9.722654684999952,51.67955189500003],[-9.84545,51.65379037300005],[-9.848251619999928,51.647536348000074],[-9.821067462999963,51.63667751600008],[-9.840950576999944,51.62371001400004],[-9.890844820999973,51.61877453500006],[-9.92929172199996,51.62539119400003],[-10.024417719999974,51.599608628000055],[-10.117457004999949,51.597073730000034],[-10.127433591999932,51.60839957600007],[-10.081455080999945,51.63286668900008],[-10.071264504999931,51.664290892000054],[-9.986695054999927,51.69028625900006],[-9.964672888999928,51.72880773400004],[-9.825333715999932,51.76911140500005],[-9.758826641999974,51.81467803000004],[-9.68110981999996,51.842053950000036],[-9.673654245999955,51.85326428800005],[-9.741378047999945,51.84703982900004],[-9.852962993999938,51.80728682000006],[-9.926178302999972,51.803102617000036],[-10.11666641499994,51.75206347200003],[-10.173398995999946,51.77628718900007],[-10.186342244999935,51.81409206500007],[-10.207252964999952,51.83258511200006],[-10.24050019899994,51.83332168000004],[-10.286763512999926,51.80998596100005],[-10.324496083999975,51.80281379500008],[-10.347345205999943,51.832576405000054],[-10.39263981399995,51.86689610900004],[-10.40301588099993,51.888548273000026],[-10.389786741999956,51.90644032500006],[-10.32409419499993,51.92886792300004],[-10.297946704999958,51.91035341300005],[-10.282516144999931,51.91171234300003],[-10.275423721999971,51.93216818700006],[-10.283906448999971,51.95990186900008],[-10.249891526999932,51.98448105800003],[-10.145015414999932,52.021789976000036],[-10.014593223999952,52.04699683300004],[-9.937250930999937,52.080609088000074],[-9.89486457299995,52.11610921600004],[-9.830221922999954,52.12959248200008],[-9.815816234999943,52.14212065700008],[-9.857669388999966,52.152872939000076],[-9.923501856999962,52.14437779200006],[-9.96052702999998,52.12751044500004],[-10.01870536599995,52.135030104000066],[-10.171971448999955,52.11600769900008],[-10.267867644999967,52.12810336900003],[-10.346982388999947,52.12147921600007],[-10.42488405399996,52.10409560700003],[-10.448401892999925,52.111364482000056],[-10.45777938599997,52.12498325700005],[-10.435961111999973,52.187257929000054],[-10.38432056399995,52.18971690800004],[-10.339832030999958,52.23236235100006],[-10.205279170999972,52.27698161500007],[-10.170748652999976,52.27272470500003],[-10.137977901999932,52.245677830000034],[-10.094204950999938,52.25399774700003],[-10.029963037999948,52.295663776000026],[-9.998252011999966,52.26293385400004],[-9.939637619999928,52.236440781000056],[-9.891340098999933,52.23542907800004],[-9.778373603999967,52.255567694000035],[-9.772177003999957,52.26124837400005],[-9.777962834999926,52.26894966900005],[-9.83765756899993,52.28827755000003],[-9.846667041999979,52.36822088800005],[-9.904691639999953,52.39778110700007],[-9.913648559999956,52.41893723100003],[-9.793889467999975,52.44584056700006],[-9.730404602999954,52.470614295000075],[-9.669069827999976,52.54254571000007],[-9.624901381999962,52.56911170700005],[-9.483237583999937,52.57020133900005],[-9.403317343999959,52.58141963300005],[-9.365192,52.57212449900004],[-9.282206170999928,52.57617869100005],[-9.115443829999947,52.62006148900008],[-9.011625605999939,52.62609931800006],[-8.936276763999956,52.65915083200008],[-8.810883922999949,52.66526815200007],[-8.800685931999965,52.673502529000075],[-8.862559094999938,52.69377477900008],[-8.945793262999928,52.69371437800004],[-8.96204510399997,52.76435697800008],[-8.97521345299998,52.77115957900003],[-9.014736682999967,52.75561558800007],[-9.044512948999966,52.70995830500004],[-9.092744613999969,52.66692697500008],[-9.146454043999938,52.63433360000005],[-9.239530833999936,52.61699977900008],[-9.282206170999928,52.60093088200006],[-9.29556490999994,52.59569765500004],[-9.31958166399994,52.602327622000075],[-9.321386184999938,52.623192103000065],[-9.43220286199994,52.60977718700008],[-9.513737195999965,52.63109148800004],[-9.561660949999975,52.66131743200003],[-9.57320670799993,52.63292596400004],[-9.686793601999966,52.609633141000074],[-9.722271607999971,52.583987542000045],[-9.873167620999936,52.561455644000034],[-9.907502208999972,52.566812549000076],[-9.89540269899993,52.578482370000074],[-9.823862212999927,52.60188214900006],[-9.666434992999939,52.67961999900007],[-9.598612379999963,52.740336642000045],[-9.565638430999968,52.74746429600003],[-9.52851021899994,52.74388494800007],[-9.504610334999938,52.75447899900007],[-9.48210122599994,52.80435126300006],[-9.44372868499994,52.83871101300008],[-9.426149607999946,52.87927305300008],[-9.363077283999928,52.92661836700006],[-9.377160973999935,52.938344734000054],[-9.446578188999979,52.936977322000075],[-9.45325403299995,52.950798158000055],[-9.37000185599993,53.054603919000044],[-9.30907747799995,53.10238416900006],[-9.303685687999973,53.10661270700007],[-9.282206170999928,53.13267480700006],[-9.273238375999938,53.14355585100003],[-9.249396623999928,53.14750718400006],[-9.140543612999977,53.12602784000006],[-9.11681583099994,53.13681272800005],[-9.10547530599996,53.154124902000035],[-9.075024797999959,53.16252822900003],[-9.009308499999975,53.140817499000036],[-9.002618606999931,53.164310269000055],[-8.952140823999969,53.16509634600004],[-8.939909721999982,53.18038687100005],[-8.937040155999966,53.20529028900006],[-8.973530111999935,53.233463423000046],[-8.972378366999976,53.264605009000036],[-9.034372794999967,53.266679701000044],[-9.156996766999953,53.248820858000045],[-9.50291784899997,53.228795611000066],[-9.537381221999965,53.24328091000007],[-9.561053908999952,53.26722477700008],[-9.59243010299997,53.250878459000035],[-9.611623762999955,53.25590781000005],[-9.617214754999964,53.273168078000026],[-9.610149048999972,53.304478449000044],[-9.579494373999978,53.34634241800006],[-9.59219367199995,53.36001010200005],[-9.621214843999951,53.34622199700004],[-9.655027077999932,53.37298035100008],[-9.674191936999932,53.35269360600006],[-9.695288625999979,53.348499203000074],[-9.744158064999965,53.31560525800006],[-9.775509141999976,53.308767233000026],[-9.830840751999972,53.31184764100004],[-9.851537273999952,53.30092330100007],[-9.879303440999934,53.32416852000006],[-9.883216768999944,53.34372942400006],[-9.867835368999977,53.364699202000054],[-9.82336240899997,53.38670635900007],[-9.823154209999927,53.39958411300006],[-9.887902906999955,53.402584070000046],[-9.976440035999929,53.38070887100008],[-10.069390251999948,53.41134675100005],[-10.134362877999934,53.41797187800006],[-10.127736279999965,53.43929028000008],[-10.085784648999947,53.450283883000054],[-10.07473325899997,53.46976135500006],[-10.08861646899993,53.491579529000035],[-10.153919703999975,53.528870340000026],[-10.161945447999926,53.54079161700008],[-10.155800949999957,53.54967534300005],[-10.097020517999965,53.570979804000046],[-10.010640064999961,53.56369623300003],[-10.007662567999944,53.57339339200007],[-10.02219348899996,53.59317909500004],[-10.013309505999928,53.60250640500004],[-9.932911064999928,53.60221708700004],[-9.853264585999966,53.61598060500006],[-9.905812658999935,53.67543073300004],[-9.906390415999965,53.70711316500007],[-9.880215580999959,53.75648417800005],[-9.780513145999976,53.77782721800003],[-9.615396720999968,53.78296198800007],[-9.585089379999943,53.79877204300004],[-9.600071403999948,53.828446091000046],[-9.586039981999932,53.86637098300008],[-9.610756292999952,53.89178474700003],[-9.75404453599998,53.89883951100006],[-9.861931494999965,53.87216075100008],[-9.913424446999954,53.88001914000006],[-9.91721683399993,53.909888540000054],[-9.897087994999936,53.94078693600005],[-9.81993388899997,53.955167465000045],[-9.85176583599997,53.97981798300003],[-9.887144383999953,54.03405847800008],[-9.86624719799994,54.09086700200004],[-9.88482677199994,54.09160172800006],[-9.921348911999928,54.074105141000075],[-9.962189055999943,54.081370253000046],[-9.965010891999952,54.10338765700004],[-9.935997216999965,54.13840544700008],[-9.949940478999963,54.18808655200007],[-9.983619605999934,54.20877145900005],[-10.005843746999972,54.20631366400005],[-10.063719616999947,54.16131223100007],[-10.083333357999948,54.10258332400008],[-10.11166616099996,54.10892408300003],[-10.11274024599993,54.14222885700008],[-10.076243316999978,54.20795371300005],[-10.07204317999998,54.25012475800003],[-10.056862229999979,54.27104427900008],[-9.969610648999947,54.28548006300008],[-9.923371731999964,54.26357347600003],[-9.922331368999949,54.22963218600006],[-9.902555389999975,54.22294415200008],[-9.880722628999933,54.23341579600003],[-9.858478762999937,54.26555863300007],[-9.833334519999937,54.28409218500008],[-9.83755356699993,54.31817175900005],[-9.801164031999974,54.33478114400003],[-9.404576604999932,54.30366953300006],[-9.32183119399997,54.317233972000054],[-9.27805372399996,54.30833385400007],[-9.246729978999952,54.28001841400004],[-9.21858087499993,54.27201022400004],[-9.202471749999972,54.215429819000065],[-9.164056155999958,54.19397567300007],[-9.132258499999978,54.162360499000044],[-9.113949912999942,54.20919515300005],[-9.02094520199995,54.291534314000046],[-8.936766913999975,54.28920885300005],[-8.833325850999927,54.26001888800005],[-8.766442844999972,54.27190583200007],[-8.678646951999951,54.267887346000066],[-8.59891535099996,54.22378885400008],[-8.571973601999957,54.220980189000045],[-8.571045266999931,54.23212251700005],[-8.601659128999927,54.27239403600004],[-8.586741958999937,54.28134279600005],[-8.524109507999981,54.28751398300005],[-8.527222866999978,54.298212480000075],[-8.55046886699995,54.31338561900003],[-8.538837440999941,54.32711319400005],[-8.58063810599998,54.338941231000035],[-8.642569418999926,54.33334034300003],[-8.656454846999964,54.34689506700005],[-8.65186538599994,54.35997493200006],[-8.517328249999935,54.413519361000056],[-8.45594727799994,54.45941168500008],[-8.382859318999976,54.46434720500008],[-8.273920225999973,54.49247113800004],[-8.205812588999947,54.57281369100008],[-8.14243369299993,54.61843355800005],[-8.137694555999929,54.63711254200007],[-8.145846694999932,54.640237755000044],[-8.26804685199994,54.61528230300007],[-8.30281284199998,54.63477394800003],[-8.370794701999955,54.61379645200003],[-8.42581901099993,54.62750109900003],[-8.463562836999927,54.61787996100003],[-8.505307179999932,54.62600503500005],[-8.59599990099997,54.61573003600006],[-8.668907632999947,54.62587528000006],[-8.75393870299996,54.65468316000005],[-8.784294402999933,54.68504756500005],[-8.779656490999969,54.697996190000026],[-8.729904956999974,54.73623976600004],[-8.662363445999972,54.76522337400007],[-8.553309640999942,54.77228531500003],[-8.480889628999932,54.78640501900003],[-8.512666555999942,54.830386419000035],[-8.41099483499994,54.85255684900005],[-8.352294624999956,54.882030530000065],[-8.357028141999933,54.89413495600007],[-8.397425460999955,54.89710235800004],[-8.434715775999962,54.91638377100003],[-8.436348391999957,54.942136970000035],[-8.404485566999938,54.95581364800006],[-8.431928246999973,54.999977701000034],[-8.417317424999965,55.02530630800004],[-8.392289815999959,55.03028472500006],[-8.341253295999934,55.05979142400008],[-8.28090805599993,55.14289098300003],[-8.13483627599993,55.140973845000076],[-7.980232685999965,55.20975378400004],[-7.863906976999942,55.15094927900003],[-7.844100344999958,55.168892062000054],[-7.855950654999958,55.20406320700005],[-7.843171585999926,55.224907776000066],[-7.643387658999927,55.26343633600004],[-7.618051693999973,55.23725975500008],[-7.606103982999969,55.19853862300005],[-7.569026307999934,55.168063724000035],[-7.535261159999948,55.12144554900004],[-7.550561538999943,55.094683701000065],[-7.607432460999974,55.05969365000004],[-7.583021645999963,55.035966803000065],[-7.634339979999936,54.99133260800005],[-7.638295899999946,54.98153683700008],[-7.63208893999996,54.97774272400005],[-7.521530635999966,55.03170664000004],[-7.509326598999962,55.07150303100008],[-7.475277933999962,55.087251077000076],[-7.476248708999947,55.12877814600006],[-7.533629467999958,55.19535154200008],[-7.535129024999947,55.22523630000006],[-7.508221219999939,55.27557449100004],[-7.421888337999974,55.28860107600008],[-7.359359049999966,55.31508588500003],[-7.352101687999948,55.33491292000008],[-7.357746209999959,55.368958399000064],[-7.208766028999946,55.34527720300008],[-7.13480689499994,55.29534844500006],[-6.983277512999962,55.25760610400005],[-6.948419976999958,55.23875481200008],[-6.980028193999942,55.20367224300003],[-7.15853175899997,55.14336640800008],[-7.256068499999969,55.06703499900004],[-7.288442284999974,55.05185660600006],[-7.348739154999976,55.04549171700006],[-7.390325301999951,55.018305260000034]],[[-9.972757402999946,54.02833256100007],[-9.942764795999949,54.00971717300007],[-9.931499975999941,53.99699964700005],[-9.938625258999934,53.99181614300005],[-9.956253243999981,53.98846329300005],[-9.952122215999964,53.98163942800005],[-9.955931457999952,53.97360647200003],[-9.95043101899995,53.957209069000044],[-9.940778232999946,53.963605392000034],[-9.922998590999953,53.96289819900005],[-9.926197655999943,53.94083744400007],[-9.93315546599996,53.93620855800003],[-9.924674306999975,53.929611812000076],[-9.934151130999965,53.91710682000007],[-9.94640938799995,53.91596870500007],[-9.93697124299996,53.897496853000064],[-9.947961826999972,53.87839489500004],[-9.942639455999938,53.872690644000045],[-9.944292391999966,53.85729477600006],[-9.953196207999952,53.85943468200003],[-9.967491658999961,53.871146010000075],[-9.965775827999948,53.87718160800006],[-9.99100194999994,53.88881780500003],[-10.00046675599998,53.89668204000003],[-9.99361743399993,53.90271520700003],[-10.015637133999974,53.91258963100006],[-10.018941105999943,53.92021041400005],[-10.027342980999947,53.92088284100004],[-10.03816173599995,53.91463331300008],[-10.053967184999976,53.91715056600003],[-10.054406434999976,53.93784422200008],[-10.045196377999957,53.958202924000034],[-10.051773200999946,53.96462007700006],[-10.073939284999938,53.97319209600005],[-10.084828391999963,53.97210252200006],[-10.09921486099995,53.96448970300003],[-10.116211337999971,53.96152706300006],[-10.127304035999941,53.97362789500005],[-10.15479924899995,53.96657707000003],[-10.188894197999957,53.969081155000026],[-10.192752029999951,53.96153202000005],[-10.208280343999945,53.96530008700006],[-10.223821018999956,53.97615637500007],[-10.208280343999945,53.98244319400004],[-10.188061514999958,53.99703717300008],[-10.187617228999954,54.014544543000056],[-10.167234353999959,54.008064266000076],[-10.147652111999946,54.00900502800005],[-10.133713738999973,53.999602769000035],[-10.120052403999978,54.00252218300005],[-10.101190779999968,54.00144124900004],[-10.068857461999926,54.024623974000065],[-10.042593548999946,54.02391608200003],[-10.026956207999945,54.01202497300005],[-10.014254138999945,54.016194159000065],[-9.988614044999963,54.01239728300004],[-9.986764971999946,54.01853438900008],[-9.972757402999946,54.02833256100007]],[[-9.764335614999936,53.14724684300006],[-9.747765149999964,53.13492176900007],[-9.720168115999968,53.13733817600007],[-9.663628064999955,53.13098940800006],[-9.668680567999957,53.11298404300004],[-9.663028286999975,53.10794063000003],[-9.650816077999934,53.10238416900006],[-9.648830660999977,53.10238416900006],[-9.63334031599993,53.10578067300003],[-9.635011978999955,53.10238416900006],[-9.64003332699997,53.092181734000064],[-9.650971567999932,53.09008432400003],[-9.688059599999974,53.10238416900006],[-9.704814135999982,53.10794063000003],[-9.81956824599996,53.14130737500005],[-9.807824006999965,53.14988247800005],[-9.784309740999959,53.15091296500003],[-9.764335614999936,53.14724684300006]],[[-9.64985459299993,53.23069406700006],[-9.66302540299995,53.226050513000075],[-9.70072369299993,53.22802496500003],[-9.713987419999967,53.239251436000075],[-9.709312617999956,53.25272563500005],[-9.718540110999982,53.25979782200005],[-9.716719697999963,53.262486136000064],[-9.658448333999957,53.28243318400007],[-9.650776126999972,53.27654146300006],[-9.64366592999994,53.24104682400008],[-9.64985459299993,53.23069406700006]],[[-8.529690640999945,55.012531842000044],[-8.51208266599997,55.00433045600005],[-8.506797497999969,55.00728340000006],[-8.495539612999949,55.00213331300006],[-8.49641130799995,54.987900068000044],[-8.489144726999939,54.98564709300007],[-8.487889484999926,54.97358158700007],[-8.503980247999948,54.971681182000054],[-8.545484170999941,54.97300470300007],[-8.56753643899998,54.976623603000064],[-8.55953655199994,54.98418359200008],[-8.563071081999965,54.994172966000065],[-8.54771657599997,55.00179704800007],[-8.55677117099998,55.009255936000045],[-8.545125301999974,55.013267864000056],[-8.537906823999947,55.02166838800008],[-8.529690640999945,55.012531842000044]],[[-9.95053543499995,53.79788089700003],[-9.985980458999961,53.790611597000066],[-10.046226087999969,53.79076743600007],[-10.048722636999969,53.801322904000074],[-10.023852922999936,53.81065068800007],[-9.996536859999935,53.814353881000045],[-9.986476171999925,53.82578277700003],[-9.975811832999966,53.82671523800008],[-9.965266923999934,53.81380369900006],[-9.944303034999962,53.81112324800006],[-9.95053543499995,53.79788089700003]],[[-6.043943157999934,53.37799164100005],[-6.052550578999956,53.36260495700003],[-6.068154732999972,53.36397222700003],[-6.077301423999927,53.360363094000036],[-6.096405508999965,53.369833321000044],[-6.10232782099996,53.38452271400007],[-6.117815631999974,53.39092642800006],[-6.113404771999967,53.39502894600008],[-6.045847850999962,53.38504308500006],[-6.043943157999934,53.37799164100005]],[[-7.286145292999947,54.140204149000056],[-7.292816132999974,54.13159625600008],[-7.31222616499997,54.130033499000035],[-7.319268313999942,54.13727211100007],[-7.327224507999972,54.136170365000055],[-7.33804588199996,54.14581879200006],[-7.325725951999971,54.15117134700006],[-7.310033454999939,54.166133126000034],[-7.290675995999948,54.17058078700006],[-7.281531193999967,54.16643022200003],[-7.285234252999942,54.15338988600007],[-7.295404062999978,54.147493300000065],[-7.286145292999947,54.140204149000056]],[[-10.183644375999961,53.631363124000075],[-10.187890276999951,53.62370763100006],[-10.179242423999938,53.61672197000007],[-10.191198430999975,53.60716342900008],[-10.213130167999964,53.60794069200006],[-10.21669176699993,53.61335042800005],[-10.23389298199993,53.61237917700004],[-10.253917208999951,53.61755648500008],[-10.260317628999928,53.62309644800007],[-10.249285189999966,53.63077677700005],[-10.240387043999931,53.62186535500007],[-10.221502223999948,53.631269219000046],[-10.206319285999939,53.62724880900004],[-10.200252440999975,53.63683762900007],[-10.183644375999961,53.631363124000075]],[[-9.58054535599996,53.071137632000045],[-9.60700842999995,53.06555162800004],[-9.619159090999972,53.068498368000064],[-9.61358484599998,53.083336245000055],[-9.599317807999967,53.09246645400003],[-9.597454888999948,53.09792773200007],[-9.575151593999976,53.10203504700007],[-9.566018314999951,53.09899664000005],[-9.562061980999943,53.08698223200008],[-9.573827283999947,53.08028692400006],[-9.58054535599996,53.071137632000045]],[[-9.684759210999971,53.30992889500004],[-9.651257159999943,53.300283669000066],[-9.64375217099996,53.30389311300007],[-9.631867815999954,53.295337689000064],[-9.651257159999943,53.28821134300006],[-9.68403288899998,53.28717034200008],[-9.690654130999974,53.27974841200006],[-9.693014673999926,53.29052332900005],[-9.712620260999927,53.29781507200005],[-9.706146410999963,53.304230318000066],[-9.684759210999971,53.30992889500004]],[[-9.723043162999943,53.24707327600004],[-9.723043162999943,53.22988031300008],[-9.740979502999949,53.23321830500004],[-9.744534036999937,53.23796590900008],[-9.757267082999931,53.23569740100004],[-9.762249776999965,53.24193712500005],[-9.750754341999937,53.25222682800006],[-9.763170790999936,53.255972771000074],[-9.764160500999935,53.26805683500004],[-9.751730341999973,53.27109386600006],[-9.74974532999994,53.25846877600003],[-9.723043162999943,53.24707327600004]],[[-9.461303337999937,51.448472765000076],[-9.485988284999962,51.43113645900007],[-9.498015040999974,51.427452809000044],[-9.50016033999998,51.432463520000056],[-9.512508339999954,51.42261529800004],[-9.523828274999971,51.42942434400004],[-9.515062695999973,51.438069632000065],[-9.484551716999931,51.45085290500003],[-9.467868146999933,51.45294331700006],[-9.461303337999937,51.448472765000076]],[[-10.082114308999962,53.710147920000054],[-10.088485421999962,53.69936530000007],[-10.101674756999955,53.69498420600007],[-10.128196659999958,53.690762781000046],[-10.137106787999926,53.69294784200008],[-10.135430974999963,53.70105083000004],[-10.124802345999967,53.70551191000004],[-10.124928163999925,53.71141167900004],[-10.10515034399998,53.70987852400003],[-10.090384678999953,53.714035153000054],[-10.082114308999962,53.710147920000054]],[[-10.20271970999994,54.12832336500003],[-10.202732982999976,54.11107168800004],[-10.222181018999947,54.116382083000076],[-10.207790314999954,54.129550847000075],[-10.208210805999954,54.13887906300005],[-10.202135118999934,54.14744364500007],[-10.206227172999945,54.15224796700005],[-10.19440405599994,54.16356731600007],[-10.185028103999969,54.15336831600007],[-10.195941690999973,54.14393929600004],[-10.18445136899993,54.137015691000045],[-10.184157221999953,54.13092255000004],[-10.20271970999994,54.12832336500003]],[[-9.504517867999937,53.055901016000064],[-9.526686178999967,53.04566002200005],[-9.550594513999954,53.04913773000004],[-9.552903312999945,53.05207482800006],[-9.543788268999947,53.06361693500003],[-9.529722101999937,53.067882214000065],[-9.504650137999931,53.06149311400003],[-9.504517867999937,53.055901016000064]],[[-9.399328695999941,51.468148169000074],[-9.436786849999976,51.45316084800004],[-9.438746489999971,51.461767165000026],[-9.425381929999958,51.46575417400004],[-9.425073560999977,51.47618210700006],[-9.415748772999962,51.47898354900008],[-9.414120196999932,51.48845391400005],[-9.398202288999926,51.48791973200008],[-9.399328695999941,51.468148169000074]],[[-10.549045605999936,52.08585903900007],[-10.56761027999994,52.077717852000035],[-10.571143240999959,52.07993312800005],[-10.567211208999936,52.08585903900007],[-10.520274383999947,52.107580176000056],[-10.512312341999973,52.104776033000064],[-10.519541363999963,52.09485076200008],[-10.549045605999936,52.08585903900007]],[[-8.222652510999978,55.27075275400006],[-8.205053023999938,55.25892775600005],[-8.213744128999963,55.253947063000055],[-8.225491852999937,55.26473426600006],[-8.229836337999927,55.26179642400007],[-8.248559420999925,55.26385452900007],[-8.252683970999954,55.26818859100007],[-8.252296219999948,55.27312460700006],[-8.23521169999998,55.274585450000075],[-8.222652510999978,55.27075275400006]],[[-10.161026382999978,51.60495889800006],[-10.205729557999973,51.59161557700003],[-10.209251497999958,51.59425156200007],[-10.195193569999958,51.605950678000056],[-10.16221874699994,51.61046877700005],[-10.161026382999978,51.60495889800006]],[[-9.479477071999952,51.69977686900006],[-9.496891471999959,51.67847234300007],[-9.512285567999982,51.68550135500004],[-9.484013087999926,51.70445555500004],[-9.479477071999952,51.69977686900006]],[[-9.888736809999955,54.00176452800008],[-9.892391485999951,53.98884743600007],[-9.913227431999928,53.990679674000035],[-9.916368671999976,53.985469530000046],[-9.923684677999972,53.99499350000008],[-9.907650371999978,54.00078926900005],[-9.888736809999955,54.00176452800008]],[[-6.003438192999965,53.49355313400008],[-6.015153864999945,53.482445228000074],[-6.034385977999932,53.48965664000008],[-6.027325743999938,53.49794978800003],[-6.009312701999932,53.49874639900003],[-6.003438192999965,53.49355313400008]],[[-9.428747974999965,51.48771523500005],[-9.436581650999926,51.48694567800004],[-9.442038453999942,51.49522474300005],[-9.43454419799997,51.49879612500007],[-9.429760554999973,51.51623351600006],[-9.419113704999972,51.51480820900008],[-9.417098353999961,51.50883388800003],[-9.43001301399994,51.49636972900004],[-9.428747974999965,51.48771523500005]],[[-10.263813551999931,53.60726450100003],[-10.294687376999946,53.603110868000044],[-10.297064679999949,53.606665175000046],[-10.289703453999948,53.61810936000006],[-10.26950527699995,53.613050230000056],[-10.263813551999931,53.60726450100003]],[[-8.42678412999993,54.586592791000044],[-8.441102522999927,54.57303718400004],[-8.453220905999956,54.57468048700008],[-8.443381515999931,54.588324201000034],[-8.428888843999971,54.59176430400004],[-8.42678412999993,54.586592791000044]],[[-8.446174294999935,54.97009043800006],[-8.454970549999928,54.96874888100007],[-8.468036616999939,54.97434512900003],[-8.46086527999995,54.99086816300007],[-8.454014124999958,54.98895907200006],[-8.454536056999927,54.97893103100006],[-8.446174294999935,54.97009043800006]],[[-9.869544848999965,52.287271961000044],[-9.880960312999946,52.28720965700006],[-9.889651584999967,52.29676458400007],[-9.884974668999973,52.302111152000066],[-9.863382746999946,52.29516137400003],[-9.869544848999965,52.287271961000044]],[[-8.57828423199993,54.30013783800007],[-8.585491966999939,54.28866605700006],[-8.594993275999968,54.289755669000044],[-8.59823752099993,54.30035658200006],[-8.59125086299997,54.30498598300005],[-8.57828423199993,54.30013783800007]],[[-8.360492483999963,55.09546295500007],[-8.352357247999976,55.083933314000035],[-8.373557798999968,55.084162493000065],[-8.379942246999974,55.092269256000066],[-8.360492483999963,55.09546295500007]],[[-9.041301273999977,52.67400771900003],[-9.04747127099995,52.67293231300005],[-9.060240551999925,52.68023499000003],[-9.042668532999926,52.69076466100006],[-9.041301273999977,52.67400771900003]],[[-10.393071606999968,51.834891173000074],[-10.404590384999949,51.829086361000066],[-10.414239905999978,51.83747574500006],[-10.40810860099998,51.846670663000054],[-10.393071606999968,51.834891173000074]],[[-9.62321830299993,53.830593246000035],[-9.636420189999967,53.823475949000056],[-9.64585984699994,53.82946795300006],[-9.630703953999955,53.83979856000008],[-9.62321830299993,53.830593246000035]],[[-10.204266547999964,51.781101859000046],[-10.211359737999942,51.77205864500007],[-10.230599039999959,51.78150658700008],[-10.22562632499995,51.78606836200004],[-10.204266547999964,51.781101859000046]],[[-10.147855370999935,53.51412787900006],[-10.150733936999927,53.49635430200004],[-10.157588984999961,53.49705123600006],[-10.160619662999977,53.50802157600003],[-10.15794670899993,53.515627073000076],[-10.147855370999935,53.51412787900006]],[[-9.010449527999981,52.67739976100006],[-9.01572731799996,52.66926667800004],[-9.03356307699994,52.674710437000044],[-9.024290291999932,52.68398134000006],[-9.010449527999981,52.67739976100006]],[[-6.611778179999931,52.11919436200003],[-6.617524190999973,52.104843935000076],[-6.629716071999951,52.11094858600006],[-6.626729147999981,52.120856667000055],[-6.611778179999931,52.11919436200003]],[[-10.15757085499996,54.07959592900005],[-10.158903719999955,54.06911362800008],[-10.179581084999938,54.07372785000007],[-10.173238831999981,54.081158653000045],[-10.164341976999935,54.081158653000045],[-10.15757085499996,54.07959592900005]],[[-6.056363096999974,53.401423943000054],[-6.06332753099997,53.396860814000036],[-6.07326427299995,53.40084902800004],[-6.070645670999966,53.40883043600007],[-6.055760542999963,53.41207789500004],[-6.056363096999974,53.401423943000054]],[[-9.01603440599996,53.21738956100006],[-9.024110571999927,53.21051552000006],[-9.037467185999958,53.218773586000054],[-9.022993964999955,53.22738646500005],[-9.01603440599996,53.21738956100006]],[[-8.439299540999968,55.052184098000055],[-8.452306306999958,55.04771020700008],[-8.462933914999951,55.05739794800007],[-8.448144472999957,55.06215685500007],[-8.439299540999968,55.052184098000055]],[[-9.653033928999946,53.315563593000036],[-9.675425249999932,53.31468171900008],[-9.67789905899997,53.320398545000046],[-9.659297548999973,53.326149988000054],[-9.653033928999946,53.315563593000036]],[[-8.132980156999963,55.15574808500003],[-8.149876150999944,55.14825964700003],[-8.148707344999934,55.16358930200005],[-8.13200323999996,55.16243836000007],[-8.132980156999963,55.15574808500003]],[[-9.00142174499996,52.706973606000076],[-9.013512547999937,52.70541795100007],[-9.019085903999951,52.709909236000044],[-9.013990492999937,52.716899269000066],[-9.002035579999927,52.71685315700006],[-8.99723634399993,52.71072241400003],[-9.00142174499996,52.706973606000076]],[[-8.277407294999932,51.83184873300007],[-8.295322595999949,51.82735400800004],[-8.299560883999959,51.83697042800003],[-8.281642811999973,51.84058315000004],[-8.277407294999932,51.83184873300007]],[[-9.47513569399996,51.480435673000045],[-9.490651765999928,51.47648751200006],[-9.49634632699997,51.47963458300006],[-9.497774659999948,51.48420307300006],[-9.491418284999952,51.488693528000056],[-9.48273667199993,51.490181128000074],[-9.48207782299994,51.485686721000036],[-9.47513569399996,51.480435673000045]],[[-10.599713596999948,52.04535209000005],[-10.605229863999966,52.03847802900003],[-10.616455759999951,52.04026220000003],[-10.623141145999966,52.049160810000046],[-10.618943258999934,52.05245303500004],[-10.599713596999948,52.04535209000005]],[[-9.921110621999958,53.36525564900006],[-9.93410483699995,53.36265278600007],[-9.935710391999976,53.374603688000036],[-9.920885558999942,53.37906142300005],[-9.921110621999958,53.36525564900006]],[[-8.15594404999996,55.194287366000026],[-8.15864537899995,55.18158110400003],[-8.173684634999972,55.19430286700003],[-8.163851267999974,55.20205491300004],[-8.15594404999996,55.194287366000026]],[[-8.162914546999957,55.17157483700004],[-8.176642408999953,55.16913098100008],[-8.186329944999954,55.178345136000075],[-8.178982239999925,55.18440478300005],[-8.174719338999978,55.17805503800008],[-8.162914546999957,55.17739186600005],[-8.162914546999957,55.17157483700004]],[[-9.50992850299997,52.61024930700006],[-9.520908781999935,52.60323444800008],[-9.526636975999963,52.61774899400007],[-9.509476784999947,52.61983681800007],[-9.50992850299997,52.61024930700006]],[[-9.132849281999938,54.19817172300003],[-9.148148430999981,54.19594241500005],[-9.155610303999936,54.20389417200005],[-9.142398919999948,54.21045122600003],[-9.132849281999938,54.19817172300003]],[[-9.627581728999928,53.31545138200005],[-9.637162935999982,53.308214287000055],[-9.65059107999997,53.31327805400008],[-9.634290593999935,53.32426772500003],[-9.627581728999928,53.31545138200005]],[[-8.965600388999974,52.70160790400007],[-8.97443411699993,52.69701306800005],[-8.98611452199998,52.70842432500007],[-8.970399498999939,52.71337422700003],[-8.965600388999974,52.70160790400007]],[[-6.57937839799996,52.142970035000076],[-6.583254244999978,52.12705291100008],[-6.596561742999938,52.13284431100004],[-6.590362729999981,52.14399711400006],[-6.57937839799996,52.142970035000076]],[[-10.240571115999956,51.73093027900006],[-10.24975712099996,51.724083302000054],[-10.263192076999928,51.726701664000075],[-10.256159330999935,51.735652497000046],[-10.245703222999964,51.73725510700007],[-10.240571115999956,51.73093027900006]],[[-8.324977712999953,55.10439428600006],[-8.335340058999975,55.09716626900007],[-8.349351731999946,55.10401341700003],[-8.341559815999972,55.11196759200004],[-8.324977712999953,55.10439428600006]],[[-9.962248898999974,53.326484994000054],[-9.975433318999933,53.314602895000064],[-9.982096744999978,53.32747882600006],[-9.976859855999976,53.33297034800006],[-9.962248898999974,53.326484994000054]],[[-10.019268087999933,53.72074092100007],[-10.027869733999978,53.70797338800003],[-10.039320422999936,53.71761068100005],[-10.034243248999928,53.72508790400008],[-10.019268087999933,53.72074092100007]],[[-8.649494157999925,54.43095697800004],[-8.672127839999973,54.426950946000034],[-8.676562855999975,54.432783716000074],[-8.665718067999933,54.43693090100004],[-8.649564440999939,54.43599294900008],[-8.649494157999925,54.43095697800004]],[[-9.706387250999967,53.27568124600003],[-9.71710328499995,53.26979279200003],[-9.72494857099997,53.279477771000074],[-9.72494857099997,53.28516190500005],[-9.71556396099993,53.28616819900003],[-9.706387250999967,53.27568124600003]],[[-10.568824478999943,52.12646095900004],[-10.58943265299996,52.12154306100007],[-10.590527389999977,52.12686867200006],[-10.573861754999939,52.13798270700005],[-10.568824478999943,52.12646095900004]],[[-10.213332692999927,51.74268493800008],[-10.211153101999969,51.72992421300006],[-10.232178567999938,51.73267254400008],[-10.223933526999929,51.74240301700007],[-10.213332692999927,51.74268493800008]],[[-9.497575967999978,51.48023920700007],[-9.502386974999979,51.472760650000055],[-9.51519507699993,51.479474862000075],[-9.503862838999964,51.48441728100005],[-9.498217563999958,51.484785283000065],[-9.497575967999978,51.48023920700007]],[[-9.441512777999947,51.49394739200005],[-9.447251817999927,51.489112359000046],[-9.451901479999947,51.49201999400003],[-9.450539877999972,51.49485878400003],[-9.444598133999932,51.498316216000035],[-9.441512777999947,51.49394739200005]]],"bbox":[-10.623141145999966,51.42261529800004,-6.002920767999967,55.368958399000064]}
