{"type":"Topology","objects":{"data":{"geometries":[{"properties":{"id":"NL","name":"Nederland"},"type":"MultiPolygon","arcs":[[[0],[1]],[[2]],[[3]],[[4]],[[5]],[[6]],[[7]],[[8]],[[9]],[[10]],[[11]]],"id":"feature_0"}],"type":"GeometryCollection"}},"bbox":[3.36284325400004,50.750964485000054,7.216178627000033,53.55586354900004],"arcs":[[[6.821377562000066,53.460577442000044],[6.833389311000076,53.44558567100006],[6.850086558000044,53.45337655700007],[6.866448655000056,53.449262814000065],[6.880496977000064,53.43766354600007],[6.874905,53.40801299900005],[6.901236593000021,53.35324537400004],[6.937365678000049,53.32658597000005],[7.030607905000068,53.30333808300003],[7.085845034000045,53.30167602100005],[7.081189799000072,53.271635427000035],[7.092712500000061,53.25701749900003],[7.194789103000062,53.23905457400008],[7.208935,53.24306449900007],[7.210429372000021,53.23058831800006],[7.216178627000033,53.18258908000007],[7.194974269000056,53.166170349000026],[7.181195471000024,53.13552576400008],[7.186325343000021,53.12183285900005],[7.202794500000039,53.11328149900004],[7.200164914000027,53.077610735000064],[7.213541885000041,53.00580397300007],[7.200560513000028,52.98036518400005],[7.180637621000074,52.94132353100008],[7.091834997000035,52.85301057400005],[7.092692,52.83820099900004],[7.084303307000027,52.82709848400003],[7.072045,52.81087449900008],[7.069587500000068,52.78762749900005],[7.067941500000074,52.76813899900003],[7.066831,52.75462349900005],[7.054921378000074,52.64361215100007],[7.050238019000062,52.639207731000056],[7.040483437000034,52.63291837500003],[7.006229500000074,52.63876299900005],[6.978374683000027,52.644590623000056],[6.929122659000029,52.63907132700007],[6.880647993000025,52.65214906800003],[6.786785855000062,52.65179769700006],[6.746513389000029,52.64514087600003],[6.70973250000003,52.627823499000044],[6.722597539000049,52.61368997100004],[6.725059384000076,52.58874601500003],[6.750733425000021,52.56696197600007],[6.692280611000058,52.54861997000006],[6.70213840100007,52.51795390800004],[6.697865500000034,52.486285999000074],[6.76160851700007,52.46230714600006],[6.847304547000022,52.45933439100003],[6.937031780000041,52.43680003400004],[6.958686353000076,52.442850831000044],[6.978933557000062,52.46394706400008],[6.992837762000022,52.46320485900003],[7.012057137000056,52.43004661600003],[7.036205179000035,52.404863532000036],[7.058431744000075,52.396580364000044],[7.070613079000054,52.37531460100007],[7.070338571000036,52.35308400400004],[7.027644188000068,52.28599752200006],[7.039093465000064,52.26118547400006],[7.065685,52.24137299900008],[7.033796487000075,52.22785628100007],[6.986713122000026,52.223818519000076],[6.950727642000061,52.183101169000054],[6.912916137000025,52.17598827900008],[6.885196097000062,52.15795919900006],[6.872094944000025,52.14122011100005],[6.857340319000059,52.12236841300006],[6.760465,52.118569499000046],[6.744485370000064,52.08126693100007],[6.697735457000022,52.06883332400008],[6.68758893200004,52.04833547000004],[6.692592770000033,52.040516694000075],[6.753000890000067,52.027859239000065],[6.826759968000033,51.98966029200005],[6.828211674000045,51.967532669000036],[6.801656016000038,51.95749019500005],[6.778070727000056,51.92310595500004],[6.722748476000049,51.898226012000066],[6.676138137000066,51.915138298000045],[6.471419194000021,51.856679675000066],[6.394736637000051,51.871270209000045],[6.390296591000038,51.86440802700008],[6.405322050000052,51.85219365800003],[6.407779500000061,51.82809199900004],[6.369015166000054,51.83512249200004],[6.348907088000033,51.84931218400004],[6.308917472000076,51.85158787200004],[6.280804146000037,51.872392898000044],[6.207381471000076,51.87064865700006],[6.167766,51.90080449900006],[6.129436600000076,51.89128529700008],[6.15766504000004,51.86177339300008],[6.156159095000021,51.84632559000005],[6.065897183000061,51.860078341000076],[6.009697550000055,51.83721473500003],[5.961122149000062,51.82872417400006],[5.957221071000049,51.81442747800003],[5.980767918000026,51.77360706400003],[5.953192,51.74784599900005],[5.959512951000022,51.73955059800005],[5.996298073000048,51.736791323000034],[6.032316366000032,51.72214420200004],[6.02889017800004,51.70313355300004],[6.038061121000055,51.673560328000065],[6.113807295000072,51.65474098800007],[6.094876910000039,51.606415551000055],[6.156125547000045,51.566187650000074],[6.210784080000053,51.51253495200007],[6.222367079000037,51.46706022200004],[6.207671859000072,51.40470730100003],[6.222020950000058,51.39809821700004],[6.217287528000043,51.38549890100006],[6.224405,51.36497899900007],[6.169119875000035,51.32941196100006],[6.121401568000067,51.273032870000065],[6.072657,51.24258749900008],[6.081596089000072,51.22509831700006],[6.070065252000063,51.21673255800005],[6.070493354000064,51.20366491300007],[6.08256306800007,51.17395400700008],[6.100969923000036,51.17194447300005],[6.160168061000036,51.19181449900003],[6.174812,51.18451349900005],[6.149059342000044,51.17371004100005],[6.169738475000031,51.15967894900007],[6.166635106000058,51.15295222800006],[6.096782026000028,51.13499482800006],[6.039655853000056,51.09888615500006],[6.001255120000053,51.08551489100006],[5.957201871000052,51.03762034600004],[5.937276305000069,51.038812620000044],[5.912750619000064,51.06341818100003],[5.871420015000069,51.04946836700003],[5.877085,51.03210099900008],[5.903204507000055,51.00073501900005],[5.898453523000057,50.97692133900006],[5.948769107000032,50.987249115000054],[6.020507776000045,50.98226826100006],[6.009803160000047,50.95750441400003],[6.019973938000021,50.93632035400003],[6.086947500000065,50.91313499900008],[6.075153770000043,50.855362583000044],[6.028920114000073,50.84759855300007],[6.01754137000006,50.81333746200005],[5.987287482000056,50.80208929100007],[6.019435516000044,50.77562301300003],[6.020999,50.75429549900008],[5.983559996000054,50.75309021600003],[5.975390974000049,50.75541868000005],[5.971998144000054,50.759749406000026],[5.960132027000043,50.76202392600004],[5.948220990000038,50.75943466000007],[5.936111,50.75680199900006],[5.930423738000059,50.75636582000004],[5.91761942100004,50.750964485000054],[5.913640550000025,50.75531495800004],[5.905964026000049,50.755287948000046],[5.90126196600005,50.75207630700004],[5.892073,50.75523749900003],[5.886290695000071,50.76948368200004],[5.86343525500007,50.76334206200005],[5.849627102000056,50.75536903600005],[5.844917,50.76538499900005],[5.830474603000027,50.75887928700007],[5.808213444000046,50.75637171500006],[5.793760562000045,50.76933476100004],[5.784417536000035,50.768286069000055],[5.77703955000004,50.78093576400005],[5.770756240000026,50.78269501200003],[5.763358269000037,50.78079533500005],[5.74603998200007,50.769308281000065],[5.737277332000076,50.75778721300003],[5.72996958300007,50.75813977100006],[5.71976386700004,50.76276460100007],[5.697084769000071,50.75573376700004],[5.682000500000072,50.75744649900008],[5.698279565000064,50.78165863600003],[5.687622,50.811923999000044],[5.657656942000074,50.82085762000003],[5.641507184000034,50.851945457000056],[5.64837553600006,50.871182102000034],[5.681773925000073,50.88521784100004],[5.698644778000073,50.907387791000076],[5.722377602000051,50.91274785400003],[5.753773476000049,50.951061440000046],[5.724507809000045,50.96410878100005],[5.760226122000063,50.993030529000066],[5.766125500000044,51.00871549900006],[5.772617548000028,51.021926800000074],[5.761676603000069,51.03502194400005],[5.772750363000057,51.05697301400005],[5.798274,51.05985349900004],[5.800479992000021,51.08961665500004],[5.830267569000057,51.09967832900003],[5.812350282000068,51.11732022600006],[5.850795477000077,51.142682887000035],[5.829352529000062,51.16250465000007],[5.781677108000054,51.154982536000034],[5.770630435000044,51.17936836600006],[5.753333914000052,51.186567497000055],[5.662352829000042,51.18541452900007],[5.644884762000061,51.19962770400008],[5.566283500000054,51.22083649900003],[5.553517467000063,51.266147352000075],[5.515184288000057,51.29384479000004],[5.494725940000023,51.29849467400004],[5.414989220000052,51.26361115100008],[5.351861025000062,51.27394032800004],[5.329681319000031,51.26340749500008],[5.237716500000033,51.26160049900005],[5.226578017000065,51.26920095500003],[5.241098,51.30566299900005],[5.200245,51.32261949900004],[5.174154516000044,51.31604756200005],[5.162362023000071,51.31074220200003],[5.134464500000036,51.31549049900008],[5.131386218000046,51.347104916000035],[5.120852310000032,51.35455155400007],[5.115479278000066,51.36191510700007],[5.071045,51.39342099900006],[5.10218,51.42900499900003],[5.081104655000047,51.46664716300006],[5.049275531000035,51.47233137000006],[5.033819708000067,51.484649320000074],[5.014762694000069,51.47428818100008],[5.000884902000053,51.44337034600005],[4.927079735000063,51.39682076400004],[4.884981350000032,51.41459564300004],[4.78525124600003,51.41110300200006],[4.773402829000077,51.41693697100004],[4.77283630900007,51.42864335200005],[4.826744329000064,51.425197955000044],[4.825754268000026,51.44687302500006],[4.839040408000074,51.47810378200006],[4.806475551000062,51.49684020800004],[4.759926,51.50246449900004],[4.750610622000067,51.49798916200007],[4.746144537000021,51.48961305000006],[4.734006500000021,51.485591499000066],[4.72877565400006,51.48337630700007],[4.715785440000047,51.469155098000044],[4.704348141000025,51.46660754200008],[4.692802150000034,51.45231734300006],[4.667285639000056,51.44443922800008],[4.669544,51.42638399900005],[4.577543195000032,51.43191339600003],[4.538329755000063,51.42493736800003],[4.53171125700004,51.44550514200006],[4.54287090400004,51.47682052300007],[4.478997554000046,51.47710404800006],[4.392661417000056,51.450081209000075],[4.396215416000075,51.432563791000064],[4.387891904000071,51.415013688000045],[4.427318973000069,51.37715845800005],[4.42716198100004,51.36574316100007],[4.375975009000058,51.35548089300005],[4.34442208300004,51.359062692000066],[4.32898031600007,51.37656210600005],[4.279565,51.376017499000056],[4.243669500000067,51.37472949900007],[4.206980552000061,51.398074731000065],[4.144375548000028,51.398156447000076],[4.08080239800006,51.40959350600008],[3.97006714500003,51.45537316600007],[3.929718682000043,51.44324281200005],[3.89014422300005,51.39839082200007],[3.812240974000076,51.39043618800008],[3.727322453000056,51.419276179000065],[3.678844682000033,51.45476171400003],[3.625236155000039,51.44366691600004],[3.566543770000067,51.44694091800005],[3.447391244000073,51.52494601700005],[3.460723699000027,51.54948581200006],[3.571672895000063,51.59050948000004],[3.835290521000047,51.60177251200008],[3.879063205000023,51.57916051600006],[3.889717290000021,51.54548009600006],[4.024949908000053,51.511022927000056],[4.108193027000027,51.44366835100004],[4.146424644000035,51.43533430100007],[4.213332627000057,51.44644064900007],[4.210379151000041,51.48497521400003],[4.177904862000048,51.509294950000026],[4.07499075100003,51.53162533700004],[3.996395447000054,51.581744068000035],[4.007921273000022,51.594818427000064],[4.058168484000021,51.60805885800005],[4.132124881000038,51.608034375000045],[4.11238455900002,51.63574666200003],[4.125790850000044,51.64758747500008],[4.156460041000059,51.65100202100007],[4.146037313000022,51.66821829400004],[4.109740772000066,51.66602756000003],[4.057616505000055,51.631976974000054],[3.976411165000059,51.61808001000003],[3.901612281000041,51.63565456300006],[3.866584706000026,51.66832477500003],[3.820877676000066,51.688678537000044],[3.724966021000057,51.66980446300005],[3.701124786000037,51.67568411500008],[3.688080457000069,51.68929571500007],[3.689589774000069,51.71090303300008],[3.711117559000058,51.728600862000064],[3.803238054000076,51.74167545600005],[3.839083,51.75829699900004],[3.862049314000046,51.77627704000008],[3.858451111000022,51.80544682500005],[3.870907587000033,51.817998619000036],[4.001443687000062,51.84862259600004],[4.035512011000037,51.82813002900008],[4.064058122000063,51.84510345800004],[4.03483555300005,51.88535761900005],[4.05052282500003,51.91650695800007],[3.98489859600005,51.924054546000036],[3.963304410000035,51.957999115000064],[3.973592111000073,51.97580542700007],[4.002605268000025,51.98731139700004],[4.072428977000072,51.97825542100003],[4.127788500000065,52.00054249900006],[4.162827788000072,52.02952996300007],[4.198018500000046,52.054144499000074],[4.313433779000036,52.14122011100005],[4.374232500000062,52.18708999900008],[4.405349500000057,52.21953299900008],[4.409820555000067,52.22454811700004],[4.44523635500002,52.26425349900006],[4.493847500000072,52.32825999900007],[4.560596500000031,52.43742599900003],[4.560516046000032,52.45678930300005],[4.584386878000032,52.46856889500003],[4.576871403000041,52.48244869300004],[4.609676500000035,52.57340099900006],[4.649071,52.756177499000046],[4.682870372000025,52.82709848400003],[4.70691481700004,52.87755077400004],[4.717276172000027,52.944545979000054],[4.732814654000038,52.960612327000035],[4.799667916000033,52.95988476900004],[4.794331727000042,52.93537513200005],[4.80869614300002,52.91628415200006],[4.881797470000038,52.89108528300005],[4.937313676000031,52.90474833900004],[4.972088994000046,52.93048243000004],[5.041971344000046,52.93611299400004],[5.12557033500002,52.98036518400005],[5.164383500000042,53.00091049900004],[5.240358621000041,53.041108989000065],[5.293898088000049,53.069414265000034],[5.343101604000026,53.07749638400003],[5.371062517000041,53.09312325500008],[5.377580198000032,53.098594078000076],[5.379109625000069,53.108289005000074],[5.395648520000066,53.11500275800006],[5.403815943000041,53.12201176800005],[5.408196331000056,53.13169323500006],[5.41122850000005,53.15172449900007],[5.412607175000062,53.17444634200007],[5.445540337000068,53.217696372000034],[5.47102720700002,53.23058831800006],[5.514783583000053,53.252721472000076],[5.530057643000021,53.26044750300008],[5.589812789000064,53.30141519300008],[5.891017943000065,53.387662901000056],[6.029324848000044,53.40453670100004],[6.191301500000066,53.410937999000055],[6.255158169000026,53.41456888300007],[6.309488312000042,53.39822851400004],[6.367713645000038,53.41506515100008],[6.749850839000032,53.46523730500007],[6.821377562000066,53.460577442000044]],[[4.916859393000038,51.435385920000044],[4.928789963000042,51.43028531400006],[4.940001575000053,51.430601083000056],[4.935002213000075,51.441786542000045],[4.923925826000072,51.441585513000064],[4.916859393000038,51.435385920000044]],[[3.682206447000056,51.37105833900006],[3.76315627200006,51.34021620800007],[3.78200651700007,51.34886623800003],[3.813601572000039,51.33599763500007],[3.855865261000076,51.336373011000035],[3.954163563000066,51.36921745600006],[3.969892038000069,51.398449620000065],[3.987094032000073,51.40440017200007],[4.019835194000052,51.39716667700003],[4.051377356000046,51.36923038200007],[4.123592062000057,51.34710428300008],[4.124291369000048,51.36042669300008],[4.160598063000066,51.34857597000007],[4.158712921000074,51.36676397600007],[4.194692968000027,51.37367789900003],[4.234817500000077,51.348253999000065],[4.159672615000034,51.29006163100007],[4.061566107000033,51.24561619100007],[4.006678511000075,51.241730156000074],[3.977666500000055,51.22513199900004],[3.945685337000043,51.21409791900004],[3.925268648000042,51.217129657000044],[3.893161150000026,51.20275792800004],[3.882508070000029,51.206032777000075],[3.886015832000055,51.22019017200006],[3.856339500000047,51.21105599900005],[3.793981648000056,51.21513304900003],[3.791647806000071,51.25384304500005],[3.783783664000055,51.25993805600007],[3.593884136000042,51.30325681800008],[3.579156472000022,51.29022117800008],[3.519478996000032,51.28563983000004],[3.524928256000067,51.25199308100008],[3.51923739700004,51.24626344600006],[3.437183913000069,51.24374769100007],[3.380661,51.27429949900005],[3.36284325400004,51.31463390400006],[3.381907285000068,51.336073671000065],[3.365787500000067,51.36983549900003],[3.418022109000049,51.388147151000055],[3.523211268000068,51.40684623000004],[3.682206447000056,51.37105833900006]],[[4.819309542000042,53.02942165400003],[4.784566528000028,53.00172020400004],[4.76798255500006,53.00492399500007],[4.767061544000057,52.997810325000046],[4.755605109000044,52.992008964000036],[4.720932537000067,52.984512841000026],[4.712899355000047,52.99962448600007],[4.708823814000027,53.02246156900003],[4.712833910000029,53.043662554000036],[4.720143207000035,53.06104529000004],[4.734020429000054,53.079885295000054],[4.751486604000036,53.09889416400006],[4.785068103000071,53.130603274000066],[4.803112856000041,53.13744431200007],[4.799576361000049,53.14313103500007],[4.841130022000073,53.182889482000064],[4.860852782000052,53.182884985000044],[4.908283527000037,53.134766745000036],[4.900016543000049,53.124258154000074],[4.898614233000046,53.09855395300008],[4.900873316000059,53.087988417000076],[4.896682373000033,53.07750331700004],[4.873124867000058,53.06486454700007],[4.871942370000056,53.054916494000054],[4.861245949000022,53.04248755200007],[4.843189774000052,53.03228022400003],[4.819309542000042,53.02942165400003]],[[5.226627564000069,53.36498517600006],[5.191710509000075,53.349818036000045],[5.156789954000033,53.357439929000066],[5.179537112000048,53.38290405600003],[5.204487095000047,53.39623992300005],[5.514783583000053,53.444447370000034],[5.530925388000071,53.44453178900005],[5.543960736000031,53.44104998500006],[5.541022616000021,53.43276064500003],[5.514783583000053,53.428553358000045],[5.478026981000028,53.41806344500003],[5.464997596000046,53.40599754700003],[5.386552041000073,53.40118939900003],[5.332001692000063,53.379199578000055],[5.226627564000069,53.36498517600006]],[[5.750963409000065,53.46060436500005],[5.77699777600003,53.46056711500006],[5.934185778000028,53.46835471400004],[5.961155817000076,53.467738963000045],[5.962102349000077,53.461153609000064],[5.938860369000054,53.457670508000035],[5.909486352000044,53.45679980800003],[5.887078336000059,53.45074084000004],[5.806221254000036,53.43791259800008],[5.77699777600003,53.43802300100003],[5.727112394000073,53.44217320400003],[5.703610569000034,53.43026483400007],[5.681283077000046,53.42496829000004],[5.647295804000066,53.42516767500007],[5.61848694400004,53.43732512200006],[5.613030595000055,53.44811382100005],[5.616649025000072,53.454720380000026],[5.647295804000066,53.469912142000055],[5.65818962000003,53.47131453800006],[5.68527707100003,53.46553291400005],[5.750963409000065,53.46060436500005]],[[6.163585194000063,53.47092202300007],[6.14884419200007,53.46253387000007],[6.132959290000031,53.47219048900007],[6.137332626000045,53.48733259900007],[6.161460331000058,53.50100415300005],[6.361981591000074,53.51305746500003],[6.362833212000055,53.50775601300006],[6.252130540000053,53.47848215400006],[6.187804418000042,53.47219048900007],[6.163585194000063,53.47092202300007]],[[4.922476779000021,53.21745373400006],[4.91409937700007,53.215833469000074],[4.881238236000058,53.21686898300004],[4.867551935000051,53.207966714000065],[4.853596369000059,53.20690848500004],[4.849612998000055,53.21104898300007],[4.856313193000062,53.22310266300008],[4.874447466000049,53.23056404300007],[5.030253801000072,53.30004431100008],[5.06529064800003,53.30743577800007],[5.081870614000024,53.304473105000056],[5.082194404000063,53.29923897800006],[4.982020929000043,53.268209022000065],[4.965887285000065,53.241785770000035],[4.940091022000047,53.23056404300007],[4.922476779000021,53.21745373400006]],[[6.486223121000023,53.52459950300005],[6.474804018000043,53.517775389000064],[6.458199745000059,53.53994484100008],[6.470579877000034,53.55047433400006],[6.487330038000039,53.55586354900004],[6.500211089000061,53.54965613300004],[6.512790964000033,53.53731236600004],[6.487282023000034,53.53274432300003],[6.486223121000023,53.52459950300005]],[[6.602947309000058,53.52638413200003],[6.598509587000024,53.51660778000007],[6.579877332000024,53.52525017600004],[6.584657597000046,53.52985954300004],[6.572526904000028,53.53970942600006],[6.575879314000076,53.543618922000064],[6.592532246000076,53.544075047000035],[6.595416064000062,53.53848596100005],[6.587398399000051,53.53002630100008],[6.602947309000058,53.52638413200003]],[[3.690239840000061,51.62316932200008],[3.686840619000066,51.616551033000064],[3.679493094000065,51.62297078000006],[3.699359289000029,51.63817687100004],[3.710398864000069,51.64041664400003],[3.714595053000039,51.63668513700003],[3.702971060000039,51.62724222400004],[3.690239840000061,51.62316932200008]],[[5.264018268000029,53.25536258000005],[5.263725681000039,53.24819075800008],[5.243293097000048,53.24870615800006],[5.240486370000042,53.25176317900008],[5.249813027000073,53.25890146100005],[5.264018268000029,53.25536258000005]]]}