{"type": "Topology", "objects": {"data": {"geometries": [{"properties": {"NUTS_ID": "UKN", "LEVL_CODE": 1, "CNTR_CODE": "UK", "NAME_LATN": "Northern Ireland", "NUTS_NAME": "Northern Ireland", "MOUNT_TYPE": 0, "URBN_TYPE": 0, "COAST_TYPE": 0, "NAME_ENGL": "United Kingdom", "NAME_FREN": "Royaume-Uni", "ISO3_CODE": "GBR", "SVRG_UN": "UN Member State", "CAPT": "London", "EU_STAT": "F", "EFTA_STAT": "F", "CC_STAT": "F", "NAME_GERM": "Vereinigtes K\u00f6nigreich"}, "type": "MultiPolygon", "arcs": [[[0]], [[1]], [[2]]], "id": 66}], "type": "GeometryCollection"}}, "bbox": [-8.149057503999927, 54.032895144000065, -5.439309100999935, 55.32894982400006], "arcs": [[[-6.096516194999936, 55.20602110800007], [-6.033388196999965, 55.15869531200008], [-6.042706132999967, 55.065915903000075], [-5.976527499999975, 55.056598499000074], [-5.97080413499998, 54.99182967200005], [-5.804769332999967, 54.84347610000003], [-5.737318438999978, 54.84069477400004], [-5.702315890999955, 54.80026194900006], [-5.741104133999954, 54.73752000600007], [-5.868339499999934, 54.68877049900004], [-5.912931499999956, 54.648036999000055], [-5.855336, 54.63376999900004], [-5.750231729999939, 54.67210327600003], [-5.550401391999969, 54.65403886300004], [-5.52688339499997, 54.61667946800003], [-5.439309100999935, 54.47756376400008], [-5.472589945999971, 54.386474245000045], [-5.503936685999975, 54.34421664700005], [-5.53563064399998, 54.36166642000006], [-5.571275759999935, 54.404246545000035], [-5.53781048299993, 54.45617272900006], [-5.555913761999932, 54.51532755000005], [-5.672513127999935, 54.574810641000056], [-5.690047816999936, 54.53777643900003], [-5.630496798999957, 54.47821103100006], [-5.646038, 54.45902999900005], [-5.62218504599997, 54.39257937000008], [-5.554145804999962, 54.34274379500005], [-5.564410453999926, 54.286069421000036], [-5.623848403999943, 54.25174539000005], [-5.831494736999957, 54.25203447200005], [-5.881490753999969, 54.21034384600006], [-5.895157920999964, 54.15159089200006], [-5.906364070999928, 54.103417454000066], [-6.048338418999947, 54.032895144000065], [-6.268015499999933, 54.102336999000045], [-6.594991, 54.044673999000054], [-6.656524912999942, 54.070650647000036], [-6.647188295999968, 54.15159089200006], [-6.643909, 54.18001949900008], [-6.776451743999928, 54.21034384600006], [-6.79895814799994, 54.21549306800006], [-6.864229499999965, 54.33016549900003], [-7.018040896999935, 54.41617452500003], [-7.18851049999995, 54.33768099900004], [-7.198449638999932, 54.298891138000045], [-7.151185156999929, 54.23281117700003], [-7.216747934999944, 54.21034384600006], [-7.26877088699996, 54.15159089200006], [-7.360363028999927, 54.12444203700005], [-7.554032311999947, 54.13391757800008], [-7.600389289999953, 54.15159089200006], [-7.702575227999944, 54.20113081200003], [-7.82835644599993, 54.21034384600006], [-7.871602870999936, 54.27671258500004], [-8.028441958999963, 54.357776003000026], [-8.063089865999927, 54.375684024000066], [-8.149057503999927, 54.45642784900008], [-8.028441958999963, 54.52343359200006], [-7.999198256999932, 54.53967939100005], [-7.859656187999974, 54.53620124300005], [-7.703411499999959, 54.60828799900003], [-7.741376448999972, 54.61667946800003], [-7.848266434999971, 54.64030557500007], [-7.900494923999929, 54.67948678000005], [-7.837774120999939, 54.72874017000004], [-7.743201426999974, 54.710024899000075], [-7.559872880999933, 54.75171598700007], [-7.452438803999939, 54.86458838500005], [-7.447535373999926, 54.93484564800008], [-7.415285106999931, 54.94865800200006], [-7.396751771999959, 55.01234224900003], [-7.342921524999952, 55.05048351500005], [-7.256068499999969, 55.06703499900004], [-7.149065499999949, 55.04338049900008], [-7.039843366999946, 55.06112261200008], [-6.94848720799996, 55.18219766100003], [-6.750412905999951, 55.17170464900005], [-6.624021162999952, 55.20602110800007], [-6.480592870999942, 55.242822137000076], [-6.118864655999971, 55.213783712000065], [-6.096516194999936, 55.20602110800007]], [[-6.223467360999962, 55.28964307000007], [-6.273576725999931, 55.279571772000054], [-6.282483599999978, 55.301180626000075], [-6.263838857999929, 55.32894982400006], [-6.230354526999974, 55.321326457000055], [-6.223467360999962, 55.28964307000007]], [[-6.155451272999926, 55.30857839300006], [-6.193642547999957, 55.241511083000034], [-6.210148161999939, 55.27253349000006], [-6.196581298999945, 55.31334194600004], [-6.155451272999926, 55.30857839300006]]]}