{"type":"Topology","objects":{"data":{"geometries":[{"properties":{"NUTS_ID":"NO081","LEVL_CODE":3,"CNTR_CODE":"NO","NAME_LATN":"Oslo","NUTS_NAME":"Oslo","MOUNT_TYPE":3,"URBN_TYPE":1,"COAST_TYPE":1,"NAME_ENGL":"Norway","NAME_FREN":"Norv\u00e8ge","ISO3_CODE":"NOR","SVRG_UN":"UN Member State","CAPT":"Oslo","EU_STAT":"F","EFTA_STAT":"T","CC_STAT":"F","NAME_GERM":"Norwegen","bidding_zone":"NO1"},"type":"MultiPolygon","arcs":[[[0,-3]]],"id":1029},{"properties":{"NUTS_ID":"NO082","LEVL_CODE":3,"CNTR_CODE":"NO","NAME_LATN":"Viken","NUTS_NAME":"Viken","MOUNT_TYPE":2,"URBN_TYPE":2,"COAST_TYPE":1,"NAME_ENGL":"Norway","NAME_FREN":"Norv\u00e8ge","ISO3_CODE":"NOR","SVRG_UN":"UN Member State","CAPT":"Oslo","EU_STAT":"F","EFTA_STAT":"T","CC_STAT":"F","NAME_GERM":"Norwegen","bidding_zone":"NO1"},"type":"MultiPolygon","arcs":[[[1,2,3,-8,-129,-6]]],"id":1030},{"properties":{"NUTS_ID":"NO020","LEVL_CODE":3,"CNTR_CODE":"NO","NAME_LATN":"Innlandet","NUTS_NAME":"Innlandet","MOUNT_TYPE":3,"URBN_TYPE":3,"COAST_TYPE":3,"NAME_ENGL":"Norway","NAME_FREN":"Norv\u00e8ge","ISO3_CODE":"NOR","SVRG_UN":"UN Member State","CAPT":"Oslo","EU_STAT":"F","EFTA_STAT":"T","CC_STAT":"F","NAME_GERM":"Norwegen","bidding_zone":"NO1"},"type":"MultiPolygon","arcs":[[[4,5,-128,-155,-178]]],"id":1031},{"properties":{"NUTS_ID":"NO091","LEVL_CODE":3,"CNTR_CODE":"NO","NAME_LATN":"Vestfold og Telemark","NUTS_NAME":"Vestfold og Telemark","MOUNT_TYPE":2,"URBN_TYPE":2,"COAST_TYPE":1,"NAME_ENGL":"Norway","NAME_FREN":"Norv\u00e8ge","ISO3_CODE":"NOR","SVRG_UN":"UN Member State","CAPT":"Oslo","EU_STAT":"F","EFTA_STAT":"T","CC_STAT":"F","NAME_GERM":"Norwegen","bidding_zone":"NO2"},"type":"MultiPolygon","arcs":[[[6,-10,-118,-130,7]],[[8]]],"id":1032},{"properties":{"NUTS_ID":"NO092","LEVL_CODE":3,"CNTR_CODE":"NO","NAME_LATN":"Agder","NUTS_NAME":"Agder","MOUNT_TYPE":2,"URBN_TYPE":2,"COAST_TYPE":1,"NAME_ENGL":"Norway","NAME_FREN":"Norv\u00e8ge","ISO3_CODE":"NOR","SVRG_UN":"UN Member State","CAPT":"Oslo","EU_STAT":"F","EFTA_STAT":"T","CC_STAT":"F","NAME_GERM":"Norwegen","bidding_zone":"NO2"},"type":"MultiPolygon","arcs":[[[9,10,-119]]],"id":1033},{"properties":{"NUTS_ID":"NO071","LEVL_CODE":3,"CNTR_CODE":"NO","NAME_LATN":"Nordland","NUTS_NAME":"Nordland","MOUNT_TYPE":3,"URBN_TYPE":3,"COAST_TYPE":1,"NAME_ENGL":"Norway","NAME_FREN":"Norv\u00e8ge","ISO3_CODE":"NOR","SVRG_UN":"UN Member State","CAPT":"Oslo","EU_STAT":"F","EFTA_STAT":"T","CC_STAT":"F","NAME_GERM":"Norwegen","bidding_zone":"NO4"},"type":"MultiPolygon","arcs":[[[11,-176,12,-73]],[[13,-75]],[[14]],[[15]],[[16]],[[17]],[[18]],[[19]],[[20]],[[21]],[[-181,22]],[[23]],[[24]],[[25]],[[26]],[[27]],[[28]],[[29]],[[30]],[[31]],[[32]],[[33]],[[34]],[[35]],[[36]],[[37]],[[38]],[[39]],[[40]],[[41]],[[42]],[[43]],[[44]],[[45]],[[46]],[[47]],[[48]],[[49]],[[50]],[[51]],[[52]],[[53]],[[54]],[[55]],[[56]],[[57]],[[58]],[[59]],[[60]],[[61]],[[62]],[[63]],[[64]],[[65]],[[66]],[[67]],[[68]],[[69]],[[70]],[[-77,71]]],"id":1048},{"properties":{"NUTS_ID":"NO074","LEVL_CODE":3,"CNTR_CODE":"NO","NAME_LATN":"Troms og Finnmark","NUTS_NAME":"Troms og Finnmark","MOUNT_TYPE":3,"URBN_TYPE":3,"COAST_TYPE":1,"NAME_ENGL":"Norway","NAME_FREN":"Norv\u00e8ge","ISO3_CODE":"NOR","SVRG_UN":"UN Member State","CAPT":"Oslo","EU_STAT":"F","EFTA_STAT":"T","CC_STAT":"F","NAME_GERM":"Norwegen","bidding_zone":"NO4"},"type":"MultiPolygon","arcs":[[[72,73,74,75],[76,77]],[[78]],[[79]],[[80]],[[81]],[[82]],[[83]],[[84]],[[85]],[[86]],[[87]],[[88]],[[89]],[[90]],[[91]],[[92]],[[93]],[[94]],[[95]],[[96]],[[97]],[[98]],[[99]],[[100]],[[101]],[[102]],[[103]],[[104]],[[105]],[[106]],[[107]],[[108]],[[109]],[[110]],[[111]],[[112]],[[113]],[[114]],[[115]],[[116]]],"id":1053},{"properties":{"NUTS_ID":"NO0A1","LEVL_CODE":3,"CNTR_CODE":"NO","NAME_LATN":"Rogaland","NUTS_NAME":"Rogaland","MOUNT_TYPE":2,"URBN_TYPE":2,"COAST_TYPE":1,"NAME_ENGL":"Norway","NAME_FREN":"Norv\u00e8ge","ISO3_CODE":"NOR","SVRG_UN":"UN Member State","CAPT":"Oslo","EU_STAT":"F","EFTA_STAT":"T","CC_STAT":"F","NAME_GERM":"Norwegen","bidding_zone":"NO2"},"type":"MultiPolygon","arcs":[[[117,118,119,-133,120,-131]],[[121]],[[122]],[[123]],[[124]],[[125]],[[126]]],"id":1107},{"properties":{"NUTS_ID":"NO0A2","LEVL_CODE":3,"CNTR_CODE":"NO","NAME_LATN":"Vestland","NUTS_NAME":"Vestland","MOUNT_TYPE":3,"URBN_TYPE":2,"COAST_TYPE":1,"NAME_ENGL":"Norway","NAME_FREN":"Norv\u00e8ge","ISO3_CODE":"NOR","SVRG_UN":"UN Member State","CAPT":"Oslo","EU_STAT":"F","EFTA_STAT":"T","CC_STAT":"F","NAME_GERM":"Norwegen","bidding_zone":"NO5"},"type":"MultiPolygon","arcs":[[[127,128,129,130,131,-156]],[[132,133]],[[134]],[[135]],[[136]],[[137]],[[138]],[[139]],[[140]],[[141]],[[142]],[[143]],[[144]],[[145]],[[146]],[[147]],[[148]],[[149]],[[150]],[[151]],[[152]],[[153]]],"id":1136},{"properties":{"NUTS_ID":"NO0A3","LEVL_CODE":3,"CNTR_CODE":"NO","NAME_LATN":"M\u00f8re og Romsdal","NUTS_NAME":"M\u00f8re og Romsdal","MOUNT_TYPE":3,"URBN_TYPE":3,"COAST_TYPE":1,"NAME_ENGL":"Norway","NAME_FREN":"Norv\u00e8ge","ISO3_CODE":"NOR","SVRG_UN":"UN Member State","CAPT":"Oslo","EU_STAT":"F","EFTA_STAT":"T","CC_STAT":"F","NAME_GERM":"Norwegen","bidding_zone":"NO3"},"type":"MultiPolygon","arcs":[[[154,155,156,-179]],[[157]],[[158]],[[159]],[[160]],[[161]],[[162]],[[163]],[[164]],[[165]],[[166]],[[167]],[[168]],[[169]],[[170]],[[171]],[[172]],[[173]]],"id":1137},{"properties":{"NUTS_ID":"NO060","LEVL_CODE":3,"CNTR_CODE":"NO","NAME_LATN":"Tr\u00f8ndelag","NUTS_NAME":"Tr\u00f8ndelag","MOUNT_TYPE":2,"URBN_TYPE":2,"COAST_TYPE":1,"NAME_ENGL":"Norway","NAME_FREN":"Norv\u00e8ge","ISO3_CODE":"NOR","SVRG_UN":"UN Member State","CAPT":"Oslo","EU_STAT":"F","EFTA_STAT":"T","CC_STAT":"F","NAME_GERM":"Norwegen","bidding_zone":"NO3"},"type":"MultiPolygon","arcs":[[[174,175,176,177,178,179,180]],[[181]],[[182]],[[183]],[[184]],[[185]],[[186]],[[187]],[[188]],[[189]],[[190]],[[191]],[[192]],[[193]]],"id":1513}],"type":"GeometryCollection"}},"bbox":[4.650383763000036,57.980015620000074,30.991054982000037,71.15304394200007],"arcs":[[[10.764788,59.829544499000065],[10.760965333000058,59.87325617100004],[10.744530221000048,59.88276809100006],[10.64198,59.911508499000035]],[[11.839729,59.84076699900004],[11.926970500000039,59.79047599900008],[11.930301394000026,59.70173303000007],[11.80186214300005,59.64465701100005],[11.722385638000048,59.62075726900008],[11.699040276000062,59.58116496500003],[11.813950931000022,59.338073877000056],[11.826196500000037,59.23784999900005],[11.788254899000037,59.20315681000005],[11.772231762000047,59.094077954000056],[11.683694869000021,58.95170193300004],[11.635364644000049,58.90375936000004],[11.507084030000044,58.88298684800003],[11.463374006000038,58.89666530100004],[11.460046331000058,58.95170193300004],[11.460827,58.98865849900005],[11.425464238000075,59.040393133000066],[11.425308396000048,59.06181461300008],[11.370459012000026,59.10884241100007],[11.329011216000026,59.11617532200006],[11.22636835000003,59.09771821100003],[11.166372411000054,59.147410629000035],[11.117418804000067,59.11133737500006],[10.968805682000038,59.17020560800006],[10.976767303000031,59.09288741200004],[11.054161649000037,59.08481236700004],[11.077351543000077,59.022188940000035],[11.043237846000068,58.99820529300007],[10.855372098000032,59.07805687100006],[10.842480239000054,59.10634159400007],[10.896637137000027,59.12662191900006],[10.896629365000024,59.15970984200004],[10.876924737000024,59.173756884000056],[10.812949090000075,59.16421845700006],[10.751005101000032,59.216021873000045],[10.742568904000052,59.23085744500003],[10.749131326000054,59.29233591600007],[10.741459578000047,59.33266966300005],[10.681507339000063,59.320014608000065],[10.649589122000066,59.41204761400007],[10.603990688000067,59.43267461200003],[10.642328023000061,59.48122779000005],[10.686118,59.48940699900004],[10.635320482000054,59.64465701100005],[10.572887545000071,59.738584735000074],[10.632813429000066,59.83620898800007],[10.675004651000052,59.85196596500003],[10.719188561000067,59.775796308000054],[10.764788,59.829544499000065]],[[10.764788,59.829544499000065],[10.922096555000053,59.83116124900005],[10.928261161000023,59.87325617100004],[10.940534058000026,59.95706146400005],[10.831290826000043,60.01674030400005],[10.739921511000034,60.11887038300006],[10.680319500000053,60.133530499000074],[10.600720500000023,60.131609999000034],[10.583865623000065,60.07886412300007],[10.489165,60.01725999900003],[10.615147602000036,59.96467729900007],[10.64198,59.911508499000035]],[[10.64198,59.911508499000035],[10.598710072000074,59.87325617100004],[10.51099544400006,59.844219707000036],[10.497314500000073,59.788338499000076],[10.596252397000057,59.63990154600003],[10.573900303000073,59.55844816700005],[10.450676828000041,59.54376526500005],[10.41202177200006,59.676569338000036],[10.335642026000073,59.71248055500007],[10.319881500000065,59.69134349900003],[10.380753993000042,59.65682947600004],[10.39408210800002,59.577491578000036],[10.368260274000022,59.53626134000007]],[[12.25465950000006,62.33102449900008],[12.29937,62.26749399900007],[12.14540157600004,61.73031691800003],[12.41581724100007,61.56913901300004],[12.579072419000056,61.55968134400007],[12.856330403000072,61.36419958500005],[12.826030999000068,61.24881160400008],[12.71492807800007,61.144698306000066],[12.693707288000041,61.09454950600008],[12.670176500000025,61.05597649900005],[12.235409085000072,61.00963871500005],[12.324959095000054,60.89493881400006],[12.394830769000066,60.73977429800004],[12.602921924000043,60.51042248400006],[12.599804876000064,60.40634262400005],[12.504107476000058,60.31191246100008],[12.535716517000026,60.18984560900003],[12.493830936000052,60.09296967900008],[12.343282141000032,59.97063268000005],[12.175829890000045,59.895472047000055],[12.05912810600006,59.89533965900006],[11.970523549000063,59.89523914500006],[11.917739634000043,59.87325617100004],[11.839729,59.84076699900004]],[[11.839729,59.84076699900004],[11.829480295000053,59.87325617100004],[11.803732493000041,59.95487865300004],[11.816908743000056,60.04436486600008],[11.58929751200003,60.169407155000044],[11.58690378800003,60.26847931800006],[11.438890593000053,60.343226893000065],[11.34234580900005,60.45321272000007],[11.223856581000064,60.502355323000074],[11.204655496000044,60.566039095000065],[11.153986,60.60514799900005],[11.087281688000076,60.52339613800007],[10.928944061000038,60.47952010500006],[10.70791162300003,60.50978013000008],[10.711793815000021,60.43606004800006],[10.869697073000054,60.408479396000075],[10.92380699000006,60.352174328000046],[10.87804864100002,60.31136104600006],[10.366276,60.32097549900004],[10.388487500000053,60.37522549900007],[10.33887450100002,60.36614099900004],[10.261204500000076,60.39362249900006],[10.202076499000043,60.392300499000044],[10.197803375000035,60.39169599300004],[10.150964526000053,60.518817366000064],[10.042801710000049,60.62336873900006],[9.946151346000022,60.631824823000045],[9.862595937000037,60.57386827800008],[9.816446619000033,60.55403079300004],[9.806464525000024,60.457057735000035],[9.633668315000023,60.496531780000055],[9.591824295000038,60.53482563100005],[9.451912883000034,60.538368226000046],[9.36776476700004,60.652810775000034],[9.290770506000058,60.75752398600008],[8.879380059000027,60.89458973200004],[8.657472376000044,60.93672145900007],[8.564594851000038,60.99926007000005],[8.314948223000044,61.083077607000064],[8.251701,61.07394399900005]],[[10.368260274000022,59.53626134000007],[10.300897220000024,59.51741657100007],[10.37704106700005,59.45509595000004],[10.479977880000035,59.42761649100004],[10.50810728700003,59.264531899000076],[10.470392399000048,59.22721504600008],[10.473902499000076,59.17334641600007],[10.428550003000055,59.13963666500007],[10.474701405000076,59.11649779600003],[10.421544188000041,59.06467565500003],[10.320087817000058,59.14431029000008],[10.197657501000037,59.02839261300005],[10.047850993000054,59.034479161000036],[10.03476372800003,58.99215019500008],[9.994494552000049,58.97759986500006],[9.87241313900006,58.96969154200008],[9.839197,59.04417899900005],[9.60557501900007,58.93640099800007],[9.509851550000064,58.84766181600003],[9.365971,58.771348999000054]],[[7.488040500000068,60.09883849900007],[7.647340180000072,60.12499178200005],[7.824056724000059,60.10775585300007],[8.136239598000031,60.18465878200004],[8.742959632000066,60.176037131000044],[8.938025707000065,60.101740953000046],[9.009120823000046,59.98735880100003],[9.176757499000075,59.92179873100008],[9.18517921800003,59.87325617100004],[9.192407297000045,59.83159372200004],[9.354251016000035,59.78083880000008],[9.341199077000056,59.70124452200008],[9.36776476700004,59.68259730800003],[9.414195324000048,59.65000637800006],[9.501788514000054,59.53927758100008],[9.481105954000043,59.487857070000075],[9.550239538000028,59.48119765000007],[9.65833024400007,59.41252578500007],[9.778087500000026,59.41200199900004],[9.793222959000047,59.456270637000046],[10.02174265900004,59.47918083500008],[9.95000761600005,59.57880688700004],[10.003327520000028,59.65340045000005],[10.297479031000023,59.68865827600007],[10.368260274000022,59.53626134000007]],[[10.575688655000022,59.18298074200004],[10.536174569000025,59.15533037200004],[10.507160752000061,59.19002759300008],[10.557733636000023,59.21199237400003],[10.575688655000022,59.18298074200004]],[[7.214666500000021,59.672686999000064],[7.369575996000037,59.63809091300004],[7.440523125000027,59.64949860100006],[7.519905856000037,59.60220142000003],[7.538658012000042,59.53701769800006],[7.599435194000023,59.47373511100005],[7.567378999000027,59.387612500000046],[7.70688614900007,59.298780469000064],[7.764419165000049,59.13461257900008],[7.98348612500007,58.97048514200003],[8.167444920000037,58.97492532900003],[8.458603306000043,58.89231113200003],[8.58329481000004,58.91897681300003],[8.754273831000035,58.84605616600004],[8.807532769000034,58.90248061400007],[8.777324234000048,58.950432127000056],[8.958291815000052,58.98741623600006],[9.158675225000025,58.87860950600003],[9.21605631400007,58.80808797600008],[9.365971,58.771348999000054]],[[9.365971,58.771348999000054],[9.177860674000044,58.73866717200008],[9.203279444000032,58.682654795000076],[8.902778033000061,58.47045882900005],[8.740556889000061,58.40733824500006],[8.521042559000023,58.263081154000076],[8.396779847000062,58.23636078900006],[8.264210197000068,58.13711296300005],[8.185152,58.142941499000074],[8.119525209000074,58.105626965000056],[8.029532892000077,58.12169979000004],[8.012009436000028,58.06496565200007],[7.766757404000032,58.05809523700003],[7.547958050000034,57.980015620000074],[7.181431756000052,58.02987078600006],[7.075768195000023,58.00430320400005],[6.935369585000046,58.058073498000056],[6.633770754000068,58.08545096600005],[6.612225312000021,58.13405238300004],[6.677476622000029,58.20626284500008],[6.561852674000022,58.21861419100003],[6.438414023000064,58.29072668100008]],[[18.125925,68.53651599900007],[18.104229330000067,68.40360300900005],[18.142879651000044,68.19696277900005],[17.90818537900003,67.98008448000007],[17.566233082000053,68.05606180800004],[17.312718609000058,68.11238940900006],[17.27194743000007,68.11245419400007],[17.169453667000028,68.04750557000006],[16.771936648000064,67.92533216300006],[16.554889352000032,67.67228936000004],[16.47868423400007,67.58344625000007],[16.39773817100007,67.53530132000003],[16.16678556100004,67.51631102800008],[16.10198759000002,67.44584521200005],[16.391625954000062,67.21156474800006],[16.380564415000038,67.04980655300005],[16.050971725000068,66.91723351200005],[15.869537148000063,66.78048786800008],[15.629565082000056,66.60155596200008],[15.551835414000038,66.56656257200007],[15.52308226200006,66.55361809000004],[15.387379103000058,66.48101823100006],[15.453994500000022,66.34523349900007],[15.460316974000023,66.27682457400005],[15.047260031000064,66.15793065800005],[15.021456823000051,66.15652450100004],[14.531552128000044,66.12982692900005],[14.587562742000046,65.89464535100007],[14.617913379000072,65.81348752700006],[14.542813142000057,65.69613660700003],[14.507403271000044,65.55732620300006],[14.502815605000023,65.32090912400008],[14.468336410000063,65.29414106000007],[14.365260084000056,65.21411733500008],[14.325985,65.11891599900008]],[[12.046106500000064,65.06244999900008],[12.180576059000032,65.17737374300003],[12.346666499000037,65.11142025200007],[12.432286367000074,65.12537906900008],[12.361934391000034,65.29262797000007],[12.20353646500007,65.26722066700006],[12.141794450000077,65.28582531200004],[12.200268902000062,65.43820142900006],[12.288353183000027,65.51855396000008],[12.461430951000068,65.46105393400006],[12.559820276000039,65.47377540100007],[12.542150174000028,65.51557316900005],[12.423476352000023,65.56792261600003],[12.387039018000053,65.61558985700003],[12.600536987000055,65.85618127000004],[12.497655078000037,65.93162065400003],[12.60488794400004,65.99633412800006],[12.78788567600003,66.04745579200005],[12.975170074000062,66.25466390500003],[13.023608318000072,66.25579501300007],[12.997693477000041,66.21443094000006],[13.017365678000033,66.19653879100008],[13.195482081000023,66.26926888300005],[13.194932727000037,66.30224935500007],[13.075279261000048,66.38459396200005],[13.112325094000028,66.47384408200003],[13.225514239000063,66.50199831200007],[13.375342377000038,66.53814583500008],[13.253433366000024,66.61509624700005],[13.337682417000053,66.74020594400008],[13.533374344000038,66.74998625900008],[13.624696516000029,66.82084569100005],[13.59997807700006,66.90374195300006],[13.616593984000076,66.93504740500003],[13.96387868200003,67.01728841600004],[14.110012169000072,67.12654847900006],[14.293221156000072,67.14967922200003],[14.48026804400007,67.21055762400005],[15.036786654000025,67.22972869000006],[15.426988301000051,67.15603421400004],[15.430494700000054,67.19358740800004],[15.385971761000064,67.23688440600006],[15.113546719000055,67.30413869100005],[14.78177295300003,67.26310149700004],[14.416743501000042,67.29255264000005],[14.724462278000033,67.48921808900008],[15.024747392000052,67.56944093900006],[15.233950993000064,67.49383614900006],[15.417943422000064,67.49252835200008],[15.274783133000028,67.56579915100008],[15.230682196000032,67.62489921700006],[15.308775517000072,67.69909735000005],[15.48559079000006,67.74647441500008],[15.499585675000048,67.77033896700004],[15.475376271000073,67.79452972600006],[15.36447508200007,67.80744584700005],[15.039444358000026,67.70481551300003],[14.870320998000068,67.69624375500007],[14.868719202000023,67.83419285600007],[15.074676115000045,67.89783157600004],[14.986355058000072,67.92681688800008],[14.99519616200007,67.95453848000005],[15.084331940000027,67.98529201000008],[15.157803219000073,67.97733982700004],[15.219537255000034,68.01175848200006],[15.262652615000036,67.98285897900007],[15.222951178000073,67.94149365100003],[15.24197360900007,67.91303213700007],[15.83191058500006,67.94889334900006],[15.858603637000044,67.97728285900007],[15.779397247000077,68.00566085200006],[15.51636133900007,68.03835486700007],[15.402782897000066,68.01703760600003],[15.370917277000046,68.06322880800008],[15.466503849000048,68.13392387200008],[15.584249011000054,68.15200920300003],[15.771902114000056,68.12455464100003],[16.000393452000026,68.22208183300006],[16.075874509000073,68.18444151700004],[16.135146131000056,68.04935609800003],[16.225598412000068,67.97419260800007],[16.37566247600006,68.12209184600005],[16.37538346300005,68.18898726100008],[16.286527255000067,68.27414756900004],[16.35592602500003,68.35959226800003],[16.61967166200003,68.40707361900007],[16.928079997000054,68.36692135100003],[17.113379980000047,68.37469816200007],[17.31370110900002,68.43390946900007],[16.963098192000075,68.49170904300007],[16.58905704400007,68.45664203900003]],[[16.143939509000063,68.50574139700007],[15.985609218000036,68.43046159800008],[15.657847120000042,68.34791598700008],[15.344164354000043,68.38167462600006],[15.091004973000054,68.31184377900007],[14.984446486000024,68.32818577300003],[14.811480412000037,68.22949902800008],[14.697729002000074,68.28710344500007],[14.56941849900005,68.24331819900004],[14.262835321000068,68.21030745700006],[14.379749736000065,68.34580134000004],[14.604626168000038,68.41268920900006],[14.879275800000073,68.42751094500005],[15.20442704800007,68.50458942900008],[15.419725411000059,68.65562063800007],[15.565913694000074,68.84461020900005],[15.578469158000075,68.91857057300007],[15.486676943000077,68.94505757100006],[15.537998482000035,69.04594512900007],[15.88740987400007,69.24105932200007],[16.07748354900002,69.28496832600007],[16.109669,69.24978034000003],[16.079457337000065,69.18902988600007],[15.833912412000075,68.99040892500005],[15.895049265000068,68.90595323000008],[15.925181580000071,68.79933699400004],[16.005573,68.75553849900007]],[[15.369811759000072,68.84206775000007],[15.320204303000025,68.76745038300004],[15.401843153000073,68.70471945800006],[15.010888153000053,68.56227446500003],[14.934569504000024,68.58308246300004],[14.927469468000027,68.56647905100004],[14.970831771000064,68.55057468400008],[14.962287060000051,68.53373443500004],[14.82681290000005,68.49716515100005],[14.656340846000035,68.55103279000008],[14.680310898000073,68.58301161900005],[14.873725845000024,68.57884218200007],[14.853083340000069,68.64155681700004],[15.123445369000024,68.71676908100005],[15.13170690000004,68.74555988100008],[15.047459058000072,68.75739534800005],[14.986468761000026,68.71953463700004],[14.771855806000076,68.66907856200004],[14.683233728000062,68.67386172800008],[14.591798630000028,68.62576574200006],[14.44682387100005,68.61806431000008],[14.41426104900006,68.68042989300005],[14.467900599000075,68.76180897300003],[14.535999177000065,68.80478242400005],[14.599051248000023,68.77351098300005],[14.677117942000052,68.81566569000006],[14.719491977000075,68.77352709100006],[14.748975271000063,68.82712304200004],[14.806598516000065,68.83712947600003],[14.898839852000037,68.76332299000006],[14.923243907000028,68.83162876700004],[14.869094623000024,68.88899095300008],[14.874956808000036,68.91828281000005],[14.96548555000004,68.91062047100007],[15.035710201000029,68.83351444000004],[15.06636577100005,68.88369513300006],[15.024792384000023,68.98239931500007],[15.116197959000033,69.01549561800005],[15.171571124000025,68.99933129700008],[15.186053508000043,68.93411511300008],[15.281047880000074,68.92025061400005],[15.303627341000038,68.86145029100004],[15.369811759000072,68.84206775000007]],[[13.992081796000036,68.33502328700007],[14.039732835000052,68.27738563600008],[14.108384881000063,68.34269038900004],[14.256445108000037,68.29888675400008],[14.245122861000027,68.26871457800007],[14.132496436000054,68.24144655800006],[14.026262099000064,68.19010277000007],[13.879755963000036,68.19049264900008],[13.852312600000062,68.13304666900007],[13.800449522000065,68.10868503900008],[13.74927860300005,68.13186444000007],[13.718754054000044,68.08491393200006],[13.612352239000074,68.12481170100006],[13.573375049000049,68.12240934400006],[13.537545411000053,68.05567834400006],[13.47057454000003,68.08742112500005],[13.532369497000047,68.15321754700005],[13.520115923000048,68.21313483000006],[13.598307771000066,68.22962003800006],[13.57078395800005,68.26798233100004],[13.612352239000074,68.29490448200005],[13.805006530000071,68.29218694000008],[13.923255250000068,68.34432635600007],[13.992081796000036,68.33502328700007]],[[13.424454617000038,68.13863625600004],[13.373099696000054,68.03510836300006],[13.288449529000047,68.00946549100007],[13.225514239000063,68.02101142100008],[13.153326622000066,67.95746706400007],[13.08730609500003,67.94972731700005],[13.071910475000038,67.91090353800007],[12.866148967000072,67.82926424400006],[12.832167321000043,67.83798477900007],[12.85310246000006,67.90134780400007],[12.871508057000028,67.91090353800007],[12.969975218000059,68.02122636000007],[13.097058531000073,68.10397508600005],[13.153187068000022,68.09464803900005],[13.159696577000034,68.05343414100008],[13.225514239000063,68.09297827400007],[13.329070427000033,68.08949926300005],[13.313217352000038,68.13344615300008],[13.334353142000055,68.15904799400005],[13.424454617000038,68.13863625600004]],[[12.522563387000048,66.05408628000004],[12.401610504000075,66.02157114000005],[12.345729480000045,66.03797509600008],[12.396358098000064,66.09601761900007],[12.509046410000053,66.14604617900005],[12.490083372000072,66.19075322800006],[12.55918600700005,66.21846810300008],[12.60213531900007,66.21846810300008],[12.648020749000068,66.10542874600003],[12.522563387000048,66.05408628000004]],[[11.946803097000043,65.61003103200005],[11.87107455100005,65.59276059400008],[11.766856003000044,65.62634299800004],[11.807277299000077,65.68385787500006],[11.946803097000043,65.72300141300008],[12.021243932000061,65.69769304700003],[12.026079905000074,65.66049952300006],[11.985504425000045,65.62937250400006],[11.946803097000043,65.61003103200005]],[[13.036852203000024,66.56538699300006],[12.985279281000032,66.55572179700005],[12.987450704000025,66.61334393800007],[12.956412684000043,66.68004727600004],[13.087596316000031,66.69453506700006],[13.036852203000024,66.56538699300006]],[[12.841061531000037,66.22248959800004],[12.773909450000076,66.21887606200005],[12.731760525000027,66.26371794200003],[12.827570569000045,66.29513978000006],[12.827570569000045,66.31470141800008],[12.887614248000034,66.26597587300006],[12.841061531000037,66.22248959800004]],[[12.902864430000022,66.38405154200007],[12.826563880000037,66.37816816000003],[12.841868250000061,66.44213782000003],[12.874997913000072,66.45298555700003],[12.951106010000046,66.42528846400006],[12.902864430000022,66.38405154200007]],[[11.938759,65.14892399900003],[12.006320243000062,65.14864456400005],[12.00643997700007,65.11909164400004],[12.014733428000056,65.08300942900007],[11.976052279000044,65.07260128200005]],[[14.338756907000061,67.38637985300005],[14.260866779000025,67.37698899700007],[14.247878581000066,67.38952052500008],[14.338756907000061,67.43310023600003],[14.381567363000045,67.44061564500004],[14.413226518000045,67.42264483800005],[14.384017991000064,67.39525918900006],[14.338756907000061,67.38637985300005]],[[12.690501131000076,66.52483588400008],[12.682618469000033,66.51138043800006],[12.608554907000041,66.56656257200007],[12.597732970000038,66.58540988100003],[12.662767442000074,66.62051895100007],[12.683861294000053,66.59042264500005],[12.663615284000059,66.56656257200007],[12.690501131000076,66.52483588400008]],[[13.81810788100006,67.05516019800007],[13.769401452000068,67.05516019800007],[13.777436143000045,67.08063005600008],[13.839554835000058,67.09265186100004],[13.825085713000021,67.11190423600004],[13.847450906000063,67.13537322700006],[13.882766034000042,67.12778221100007],[13.882708449000063,67.09748994200004],[13.81810788100006,67.05516019800007]],[[13.541544135000038,66.84282862800006],[13.533337786000061,66.82389053300005],[13.47199518800005,66.82496160900007],[13.358098607000045,66.81206802300005],[13.347568770000066,66.82012495500004],[13.362546738000049,66.83507803900005],[13.42779069200003,66.84612209500006],[13.541544135000038,66.84282862800006]],[[12.239062405000027,65.83526901100004],[12.242980808000027,65.78626298700004],[12.21156237100007,65.79918639700003],[12.202005564000046,65.83218993200006],[12.23016023300005,65.86710647500007],[12.279176543000062,65.88445873700005],[12.278175116000057,65.85347950100004],[12.239062405000027,65.83526901100004]],[[13.809795336000036,67.17599110600008],[13.800673145000076,67.14011798200005],[13.75733225700003,67.16434212900003],[13.721653637000031,67.14344714500004],[13.698279976000038,67.15375682800004],[13.705438597000068,67.18250171400007],[13.753720302000033,67.19658965500008],[13.760625276000042,67.18048523400006],[13.809795336000036,67.17599110600008]],[[12.338441270000033,65.98133023800006],[12.239906223000048,65.95971724500004],[12.22812053000007,65.97047093400005],[12.240803449000055,65.98720087400005],[12.325959075000071,66.01010505100004],[12.338441270000033,65.98133023800006]],[[12.783053990000042,66.16078538000005],[12.769035828000028,66.14069406600004],[12.700956939000037,66.14345089900007],[12.681488828000056,66.17272941800007],[12.70096815900007,66.18547209400003],[12.783053990000042,66.16078538000005]],[[12.823967125000024,66.58414805000007],[12.841846100000055,66.55392947900003],[12.87497589800006,66.55392947900003],[12.872429671000077,66.51874589800008],[12.826980525000067,66.51815542300005],[12.808171273000028,66.55392947900003],[12.823967125000024,66.58414805000007]],[[12.122952239000028,65.41626263200004],[12.09514585100004,65.39356051200008],[12.067932486000075,65.40664914100006],[12.036554204000026,65.38243930500005],[12.025647090000064,65.41264085600005],[12.067932486000075,65.42907928400007],[12.09192291900007,65.43259974800003],[12.122952239000028,65.41626263200004]],[[12.139369651000038,65.49638975500005],[12.137275310000064,65.45259201600004],[12.053434966000054,65.47300673300003],[12.065250369000069,65.48821463000007],[12.139369651000038,65.49638975500005]],[[16.168239750000055,68.33261440200005],[16.08431323900004,68.33245818700004],[16.06421494500006,68.34280622400007],[16.09620951900007,68.35770677300007],[16.158684395000023,68.35645837100003],[16.168239750000055,68.33261440200005]],[[15.050597777000064,67.63689241200007],[14.999855428000046,67.62082939600003],[14.991793439000048,67.67277654000003],[15.046223761000022,67.66299765300005],[15.050597777000064,67.63689241200007]],[[12.175724856000045,65.93194621100008],[12.13397707300004,65.88804425500007],[12.114252859000032,65.92224742500008],[12.148828282000068,65.95602464800004],[12.175724856000045,65.93194621100008]],[[13.978221996000059,67.41244097200007],[13.939156085000036,67.38739945100008],[13.912552267000024,67.39033664800007],[13.91757999500004,67.42210108100005],[13.953756901000077,67.43743051300004],[13.978221996000059,67.41244097200007]],[[12.485453412000027,65.77469029700006],[12.408755237000037,65.75366725300006],[12.399402470000041,65.76892058100003],[12.483704036000063,65.80558167700008],[12.485453412000027,65.77469029700006]],[[14.108636082000032,67.44134351700006],[14.07606342400004,67.41501527500003],[14.047272771000053,67.42406210100006],[14.061820767000029,67.46443382600006],[14.102992956000037,67.46028035700004],[14.108636082000032,67.44134351700006]],[[11.727724989000023,65.56409798700008],[11.69979222400002,65.54675853500004],[11.66147360900004,65.55272587600007],[11.667515532000039,65.57814984100008],[11.702131425000061,65.59644701400003],[11.727724989000023,65.56409798700008]],[[12.70221476000006,67.65606654000004],[12.647162137000066,67.64826420000003],[12.629397205000032,67.66291250800003],[12.701309397000045,67.69858395300008],[12.70221476000006,67.65606654000004]],[[11.724829211000042,65.73777087700006],[11.655429218000052,65.73283761600004],[11.641720796000072,65.74654536800006],[11.735297655000068,65.77295445500005],[11.724829211000042,65.73777087700006]],[[11.985723267000026,65.32029503400008],[11.947283779000031,65.30701149400005],[11.931228442000076,65.34868436000005],[11.98796782900007,65.35985796200004],[11.985723267000026,65.32029503400008]],[[12.61903961400003,67.63617081700005],[12.571493264000026,67.62233456200005],[12.543050847000075,67.64380653500007],[12.559125237000046,67.66140500700004],[12.604268325000021,67.66175928500007],[12.61903961400003,67.63617081700005]],[[14.007564971000022,67.17172944100008],[14.008529171000077,67.12690514000008],[13.96028128200004,67.12814819100004],[13.96028128200004,67.16776803600004],[14.007564971000022,67.17172944100008]],[[12.130201506000049,65.68368309700003],[12.062028044000044,65.64377222200005],[12.062028044000044,65.68212641200006],[12.110356361000072,65.70406083900008],[12.130201506000049,65.68368309700003]],[[13.13212052700004,66.58526071000006],[13.111985204000064,66.57073492000006],[13.084088099000041,66.61657160500005],[13.130744769000046,66.64250878500008],[13.13212052700004,66.58526071000006]],[[12.54765971300003,66.30802142800007],[12.529757193000023,66.26273995200006],[12.479371643000036,66.27123852900007],[12.520658870000034,66.31692495200008],[12.54765971300003,66.30802142800007]],[[12.72315827500006,66.31998916900005],[12.68313022500007,66.30205837400007],[12.65828053100006,66.31275146100006],[12.69299871100003,66.34504722600008],[12.742861737000055,66.34729482800003],[12.72315827500006,66.31998916900005]],[[12.106291430000056,67.49538102500003],[12.074689294000052,67.47895905300004],[12.048781072000054,67.49373210900006],[12.047697292000066,67.53914084600007],[12.096856204000062,67.51146030500007],[12.106291430000056,67.49538102500003]],[[12.15586806400006,65.60237165900003],[12.121293864000052,65.59079250800005],[12.124156734000053,65.61795527700008],[12.172115845000064,65.65779649800004],[12.186937650000061,65.63954295200006],[12.15586806400006,65.60237165900003]],[[13.965828688000045,67.23194650500005],[13.930972266000026,67.22628083600006],[13.964797167000029,67.28799582400006],[14.002161301000058,67.26966804500006],[13.965828688000045,67.23194650500005]],[[12.347457786000064,65.82796053600003],[12.318789357000071,65.81787424200007],[12.31404477500007,65.85724136500005],[12.343662649000066,65.88452559600006],[12.363868275000073,65.86781638800005],[12.347457786000064,65.82796053600003]],[[12.07428978200005,65.75215672300004],[12.038125206000075,65.73718204700003],[12.011407183000074,65.77361052100008],[12.069005884000035,65.79081125400006],[12.07428978200005,65.75215672300004]],[[14.730423564000034,67.83198230200003],[14.719029505000037,67.79212572300008],[14.668252805000066,67.81020909400007],[14.691179926000075,67.84727185800006],[14.730423564000034,67.83198230200003]],[[13.143650875000048,66.78860837100007],[13.13474833500004,66.73635897700007],[13.087071538000032,66.78748879900007],[13.100992345000066,66.80700419300007],[13.143650875000048,66.78860837100007]],[[12.445567916000073,65.82408194000004],[12.406226570000058,65.81505583000006],[12.384778088000076,65.83339978600003],[12.446968319000064,65.87518474500007],[12.445567916000073,65.82408194000004]],[[12.113044553000066,65.79684274100003],[12.07360976800004,65.79137724700007],[12.070522849000042,65.82501065500003],[12.080638516000022,65.84847068100004],[12.114108602000044,65.83863192400008],[12.113044553000066,65.79684274100003]],[[12.043869032000032,65.21332250200004],[12.023072483000021,65.20252094300008],[11.961804189000077,65.21332250200004],[11.963456593000046,65.23790428900003],[12.004996251000023,65.23927228600007],[12.043869032000032,65.21332250200004]],[[14.663334986000052,67.53987607700003],[14.618611971000064,67.51755638300006],[14.591468252000027,67.52404330600007],[14.594076792000067,67.54310216700003],[14.650350408000065,67.56662221500005],[14.663334986000052,67.53987607700003]],[[12.206180623000023,66.01415286500003],[12.182264282000062,65.96454803300003],[12.136249970000051,65.98026407600008],[12.162032108000062,66.01244130600003],[12.206180623000023,66.01415286500003]],[[12.280518510000036,66.23175150500003],[12.20884443600005,66.21776614000004],[12.215802978000056,66.25150004000005],[12.286127262000036,66.25653008200004],[12.280518510000036,66.23175150500003]],[[12.349234308000064,66.13942278500008],[12.332840242000032,66.12223559600005],[12.272761130000049,66.13464172400006],[12.318553461000022,66.17410405300006],[12.349234308000064,66.13942278500008]],[[12.370283596000036,66.37741310700005],[12.341585938000037,66.33772833600005],[12.298111676000076,66.36484556500005],[12.302395819000026,66.38681014300005],[12.370283596000036,66.37741310700005]],[[12.558309052000027,66.37066326800004],[12.514674424000077,66.32060191400006],[12.499813927000048,66.33693283200006],[12.510019413000066,66.38689523600004],[12.558309052000027,66.37066326800004]],[[13.911812061000035,67.38896203700006],[13.879420115000073,67.37678740400008],[13.83941857800005,67.39276490000003],[13.866239607000068,67.43321479500008],[13.911812061000035,67.38896203700006]],[[13.468622941000035,66.91481855300003],[13.402749536000044,66.89488880200008],[13.397499699000036,66.90985853000007],[13.402742197000066,66.93199079800007],[13.443936219000022,66.94244312700005],[13.468622941000035,66.91481855300003]],[[12.193957738000051,66.04227669800008],[12.165200263000031,66.04227669800008],[12.180328702000054,66.09475883400006],[12.213975069000071,66.08377081400005],[12.225473234000049,66.06216879900006],[12.193957738000051,66.04227669800008]],[[12.948594245000038,66.55655615500007],[12.936921855000037,66.55655615500007],[12.879247195000062,66.57648771500004],[12.936265448000029,66.61492828300004],[12.948594245000038,66.55655615500007]],[[12.046534228000041,66.08176814300003],[12.043791620000036,66.03254385100007],[11.997522381000067,66.04102011900005],[11.989234253000063,66.06950933700006],[12.046534228000041,66.08176814300003]],[[16.578006121000044,68.54157346000005],[16.579589500000054,68.54136699900005]],[[18.125925,68.53651599900007],[18.00884871900007,68.60674525900004],[17.566233082000053,68.59668205200006],[17.305117575000054,68.56230640700005],[16.880188323000027,68.56869613300006],[16.60675311400007,68.50624736600008],[16.58145977500004,68.51503053900007],[16.58905704400007,68.45664203900003]],[[16.58905704400007,68.45664203900003],[16.218358266000052,68.42188838800007],[16.173195983000028,68.44181864300003],[16.143939509000063,68.50574139700007]],[[16.143939509000063,68.50574139700007],[16.026330520000045,68.57833850600008],[15.977642025000023,68.60631309000007],[15.944727249000039,68.60631309000007],[15.89508201600006,68.55792050000008],[15.890585154000064,68.53877061500003],[15.869537148000063,68.53284446100008],[15.650398823000046,68.45413980300003],[15.662717713000063,68.50405975200005],[15.605361925000068,68.56245916700004],[15.661410053000054,68.58572401700008],[15.674080209000067,68.63430391100007],[15.780021399000077,68.65960764100004],[15.802461295000057,68.70507897600004],[15.869537148000063,68.70956653700006],[16.005573,68.75553849900007]],[[16.005573,68.75553849900007],[16.061772888000064,68.72618890500007],[16.186758163000036,68.82661289000004],[16.338645561000078,68.85051166000005],[16.531487608000077,68.79058581900006],[16.670591038000055,68.66657458100008],[17.14518242400004,68.71673906400008],[17.328684296000063,68.81274606800008],[17.209862430000044,68.84006750800006],[17.200766643000065,68.89324265400006],[17.429002406000052,68.92183889500006],[17.688983961000076,69.08998287400004],[18.00734833200005,69.16095700100004],[18.06075897900007,69.31957539900003],[18.184410891000027,69.44526850300008],[18.33642241600006,69.43993574700005],[18.517302501000074,69.30765519700003],[18.659992588000023,69.33899499600005],[18.498926666000045,69.47829725000008],[18.447892402000036,69.52220385200008],[18.210842653000043,69.54239287300004],[18.10983509400006,69.62234072500007],[18.249517294000043,69.71693599800005],[18.37384491100005,69.75808661400004],[18.69161174900006,69.763334],[18.73993224900005,69.84655603200008],[18.814444982000055,69.88407002600007],[18.786913448000064,69.99603988300004],[18.717988856000034,70.05600671900004],[18.828925775000073,70.13784566900006],[19.008944222000025,70.05240854000004],[19.192473603000053,70.06675437200005],[19.347174602000052,70.02309179300005],[19.525667734000024,70.01962597500005],[19.616351434000023,69.96942128700005],[19.798032256000056,69.97646279900005],[19.68478869300003,69.87028442500008],[19.363308484000072,69.84969558100005],[19.08147753000003,69.79412060600004],[19.02190107200005,69.74674408000004],[19.06542418300006,69.70739408400004],[19.275993645000028,69.77023684700004],[19.656489883000063,69.77898915100008],[19.69480089500007,69.51910120600007],[19.77192424800006,69.58396969100005],[19.818044502000078,69.69908160600005],[19.877638732000037,69.76466070500004],[20.160028555000054,69.91582959000004],[20.304901461000043,69.92544050500004],[20.34089177900006,69.81954271200004],[20.282912673000055,69.62471317800004],[20.183198762000075,69.47829725000008],[20.12562385800004,69.39682361100006],[20.13412215900007,69.36996677800005],[20.229033912000034,69.39855765900006],[20.328700294000043,69.47829725000008],[20.506685608000055,69.58782497400006],[20.517945446000056,69.71452349600008],[20.601002651000044,69.88459412900005],[20.657658667000078,69.90674827100008],[20.735926647000042,69.86053437600003],[20.771451054000067,69.88839793100004],[20.682175003000054,70.02357183700008],[20.43780672300005,70.10060594700008],[20.451189898000052,70.15917532100008],[20.558660678000024,70.20623883200005],[20.72435360700007,70.20402887400007],[20.820937713000035,70.13649077400004],[20.973590353000077,69.83490601900007],[21.35876029800005,69.99720566700006],[21.95152779700004,69.82913070600006],[21.896156090000034,70.02190879700004],[21.756794402000025,70.07295317900008],[21.485058007000077,70.11490912400006],[21.311533242000053,70.21201108000008],[21.541760133000025,70.28086540100003],[21.785062954000068,70.22785348900004],[22.056225810000058,70.29286115800005],[22.207156464000036,70.25840587000005],[22.300722122000025,70.18335084500006],[22.46922823400007,70.23013286900004],[22.84931606300006,70.18519549600006],[23.110006044000045,69.98976192400005],[23.286790465000024,69.98692014900007],[23.31666597800006,70.00875531400004],[23.276873395000052,70.08610492700006],[23.300214047000054,70.22178708300004],[23.732595455000023,70.47968340700004],[23.67854912100006,70.62647019600007],[23.717163219000042,70.71432980200007],[23.82542312100003,70.72767829900005],[23.98624740500003,70.68368425300008],[24.055802741000036,70.62139545600007],[24.080867384000044,70.53461784300004],[24.152986465000026,70.51354589900006],[24.279593442000078,70.64056406200007],[24.532264525000073,70.67832983500006],[24.50271437400005,70.72425545800007],[24.36664918300005,70.76614015400008],[24.32867899300004,70.80431768800008],[24.39878021000004,70.84292577400004],[24.551419618000068,70.84476333800006],[24.607712836000076,70.93690497400007],[24.64853154700006,70.96551550300006],[24.946721472000036,70.94343289400007],[25.275025679000066,70.86477641800008],[25.39454513900006,70.97304779500007],[25.35750222000007,71.04680487600007],[25.371716598000035,71.07675348500004],[25.714117669000075,71.15304394200007],[25.901148990000024,71.11883420100008],[25.977341602000024,71.04836962200005],[26.060478766000074,71.01962526600005],[26.030048454000053,70.99373385400008],[25.749995022000064,70.97263658700007],[25.58418313800007,70.92050808600004],[25.73813811200006,70.86289515400006],[25.757161283000073,70.82888971200003],[25.63174544800006,70.73326617200007],[25.21458857700003,70.54484323100007],[25.190332495000064,70.40993574400005],[24.958548079000025,70.16843246200006],[24.997394016000044,70.10742733500007],[25.133286928000075,70.09983308800008],[25.40512730100005,70.24405030900004],[25.51807268400006,70.39422260900005],[25.920425099000056,70.59295387500003],[26.154532609000057,70.75921378300006],[26.561595587000056,70.91738098300004],[26.65247796600005,70.90858965200005],[26.680284855000025,70.85618169300005],[26.650753742000063,70.76914881300007],[26.55595635700007,70.67820817900008],[26.583966778000047,70.58580160700006],[26.576730894000036,70.46930153900007],[26.61195733200003,70.45639843400005],[26.93771570900003,70.49432053000004],[27.08974703000007,70.61850883500006],[27.156598423000048,70.71510238300004],[27.391673448000063,70.83705374100003],[27.403332247000037,70.85963477500007],[27.37441323200005,70.89058447100007],[27.209475462000057,70.93538711100007],[27.214601241000025,70.97283564200006],[27.270192033000058,71.00319178500007],[27.494485147000034,71.00741371600003],[27.568764307000038,71.07065563800006],[27.659668499000077,71.09497954900007],[27.86447901200006,71.05601124300006],[28.156948041000078,71.06341224000005],[28.45221145900007,70.93082031500006],[28.323488755000028,70.83640073700008],[28.04842738900004,70.77750901600007],[28.061966986000073,70.70926467700008],[28.180114227000047,70.69002563300006],[28.21541631900004,70.65008263100003],[28.14297871000008,70.58806773000003],[27.95983761100007,70.51661310000003],[27.94700222700004,70.48350447300004],[28.40789225000003,70.49637752400008],[28.598157702000037,70.75385374500007],[28.762356381000075,70.83889457100008],[28.93302697100006,70.86675410500004],[29.221230158000026,70.81924562800003],[29.36732209300004,70.69296306800004],[29.663846645000035,70.71404310900004],[29.843808267000043,70.67245656900008],[30.076055331000077,70.68032053800005],[30.221755124000026,70.61679190600006],[30.238833328000055,70.53786240000005],[30.52237846400004,70.52994828100003],[30.934887288000027,70.41303352300008],[30.991054982000037,70.34626953500003],[30.941012124000054,70.29132640200004],[30.562599162000026,70.23602473900007],[30.264162558000066,70.12895698100004],[30.02878312300004,70.08526938400007],[28.929333727000028,70.14947917600006],[28.87623583900006,70.12720433300007],[29.16884159800003,70.03060725000006],[29.541343694000034,69.97268321200005],[29.755016905000048,69.86721378100003],[29.895368982000036,69.86685544800008],[29.996998915000063,69.75620492200005],[30.078168171000073,69.76087895400008],[30.22867949700003,69.84726853100005],[30.423416874000054,69.77839387200004],[30.56991541000008,69.79780561600006],[30.86536,69.75959449900006],[30.93904903400005,69.64379482600003],[30.896817757000065,69.55312622900004],[30.553018182000073,69.54154729300006],[30.14745434100007,69.64958713800007],[30.17124997600007,69.55523026200007],[30.077321377000032,69.45279803700004],[29.983482372000026,69.41509007700006],[29.775442456000064,69.39453324400006],[29.578238097000053,69.32488241800007],[29.317359262000025,69.29668572500003],[29.290555751000056,69.27235553500003],[29.287535605000073,69.18954141000006],[29.21108776500006,69.09991960900004],[29.056194650000066,69.02475957500008],[28.92968,69.05190499900004],[28.830322066000065,69.12077944700007],[28.85330590500007,69.21813436700006],[29.199941911000053,69.39042624500007],[29.299666244000036,69.47850748100007],[29.158067275000064,69.65784174000004],[28.414969773000053,69.82270706100007],[28.04524755500006,69.98638674700004],[27.914981089000037,70.08639704700005],[27.646323806000055,70.07213454200007],[27.086798895000072,69.92212774500007],[26.814292254000065,69.95600380300004],[26.509853073000045,69.93903006700003],[26.34085303200004,69.84019472800003],[25.963013621000073,69.69018230600005],[25.945361947000038,69.60390323400003],[25.860996785000054,69.52341559200005],[25.82364022400003,69.38646393700003],[25.723456703000068,69.25503307700006],[25.729394480000053,68.98981058500004],[25.60593686200008,68.89891430900008],[25.446210904000054,68.89262966700005],[25.239885772000036,68.83192889000003],[25.151647484000023,68.77255460900005],[25.08671004400003,68.64344232100007],[24.894558032000077,68.57732993700006],[24.727804330000026,68.64646783600006],[24.607712836000076,68.66730336800003],[24.30314601300006,68.72014484400006],[23.906674870000074,68.82858926900008],[23.784069286000033,68.80858853800004],[23.626549375000025,68.70329901600007],[23.218616498000074,68.64040202200005],[23.034355876000063,68.68563840000007],[22.795287682000037,68.69113623500004],[22.548422009000035,68.73795171700004],[22.40178007800006,68.72652066500007],[22.312376674000063,68.84314517200005],[21.983611500000052,69.07289349900003],[21.624865035000028,69.27075907500006],[21.30444080700005,69.30719847200004],[21.026601735000042,69.21050654400005],[21.077824720000024,69.11077116200005],[21.04803670600006,69.05852188400007],[20.732970669000053,69.10862069900003],[20.548636500000043,69.05996849900004],[20.197044721000054,69.02405169700006],[20.287760656000046,68.91420241800006],[20.30663734500007,68.80180736500006],[20.194019095000044,68.67219168000008],[20.026315367000052,68.56928171100003],[20.126551319000043,68.46192762300007],[19.940188084000056,68.37739653600005],[19.47564865100003,68.44377475100003],[19.028917571000022,68.50760832400005],[18.628033121000044,68.51302668700004],[18.40895034700003,68.57158072300007],[18.125925,68.53651599900007]],[[16.578006121000044,68.54157346000005],[16.578638217000048,68.53671550800004],[16.579589500000054,68.54136699900005]],[[16.579589500000054,68.54136699900005],[16.612436519000028,68.53923838500003],[16.617922572000055,68.55613465100004],[16.551401476000024,68.61704343100007],[16.50917244900006,68.60707089200008],[16.48947009500006,68.57153018400004],[16.456952,68.55735799900003],[16.578006121000044,68.54157346000005]],[[17.873908495000023,69.55553691200004],[18.00075116100004,69.47829725000008],[17.977778470000032,69.43496854400007],[18.041819237000027,69.41751351400006],[18.053375721000066,69.37083794600005],[17.933202725000058,69.31740074200007],[17.94322703000006,69.18036007100005],[17.58022784600007,69.15878454500006],[17.454412856000033,69.18448464100004],[17.119711546000076,69.01668945500006],[17.04415532200005,69.06788443700003],[16.819850925000026,69.07842959300007],[16.845438010000066,69.11688594200007],[17.036572370000044,69.15795117100004],[17.008205154000052,69.21696010200003],[17.094410346000075,69.26130053900005],[16.978068740000026,69.31740074200007],[16.971582854000076,69.39145006700005],[17.28879085400007,69.42584807700007],[17.271647484000027,69.47829725000008],[17.377366976000076,69.51770503300008],[17.509818669000026,69.51045644300007],[17.52331680700007,69.56701314700007],[17.630083784000078,69.53254023500006],[17.720070790000022,69.57165241300004],[17.873908495000023,69.55553691200004]],[[23.444911395000076,70.80008438300007],[23.274573571000076,70.69762549700005],[23.166105338000023,70.67712612000008],[23.07785418700007,70.59191242100007],[22.926524442000073,70.54105432400007],[22.639837588000034,70.54123497600006],[22.496193007000045,70.50335518000003],[22.176976456000034,70.49119689800006],[22.159683117000043,70.51701194800006],[22.212675510000054,70.59251465100004],[22.040114698000025,70.61116491100006],[22.03210013200004,70.62026000700007],[22.056637057000046,70.64368352300005],[22.342528799000036,70.64075327600005],[22.387594570000033,70.69134961600008],[22.532729691000043,70.70795304600006],[22.608757085000036,70.65583615000008],[22.71814075900005,70.63853563000004],[22.761420860000044,70.66998138200006],[22.71677365900007,70.74636912700004],[22.885577789000024,70.73470103200003],[22.926524442000073,70.76942991500005],[22.974924893000036,70.76326137600006],[22.926524442000073,70.71076242100008],[22.98714506400006,70.68445375100004],[23.099741067000025,70.73311707300007],[23.061555616000078,70.79264830800008],[23.06811649800005,70.84127386700004],[23.245878203000075,70.79373762000006],[23.348554405000073,70.84758554000007],[23.444911395000076,70.80008438300007]],[[23.55569170700005,70.52938987500005],[23.621848998000075,70.46230909000008],[23.283195052000053,70.30187629800008],[23.087068353000063,70.28867116000004],[23.047723508000047,70.34492975800003],[22.92654404900003,70.35844651200006],[22.906270848000077,70.36070785100003],[22.877468459000056,70.42111617400008],[22.888895767000065,70.45060037300004],[22.92654404900003,70.46489773400003],[23.014233509000064,70.49819879900008],[23.087068353000063,70.50122077700007],[23.19148863600003,70.53664523700007],[23.268811351000068,70.48527631200005],[23.28027441200004,70.54452115900006],[23.430561730000022,70.56629811000005],[23.421828806000065,70.61694606700007],[23.443463072000043,70.62252050500007],[23.563339717000076,70.60417709900008],[23.55569170700005,70.52938987500005]],[[19.644141776000026,70.28242299800007],[19.684553691000076,70.23699554900003],[19.76089676500004,70.24754329700005],[19.772654533000036,70.16389773400005],[19.84090904900006,70.20215784700008],[19.946499578000044,70.14306455300004],[20.007546327000057,70.17640486800008],[20.03872698400005,70.15894669300008],[20.01665102800007,70.12802047100007],[20.05657863600004,70.10762123700005],[20.05526967800006,70.09108448400008],[19.934104613000045,70.05168943700005],[19.73843394900007,70.06047094100006],[19.658665378000023,70.16548197500003],[19.516283448000024,70.22576834700004],[19.582684271000062,70.28525726700008],[19.644141776000026,70.28242299800007]],[[22.772088852000024,70.38714547000006],[22.806942467000056,70.34346917700003],[22.896610528000053,70.32777399800005],[22.92654404900003,70.30740869500005],[22.97517456500003,70.27432287000005],[22.970552293000026,70.25790091700003],[22.92654404900003,70.25575709200007],[22.754640223000024,70.24738294000008],[22.525240186000076,70.27387526200005],[22.403051808000043,70.29717155600008],[22.352015619000042,70.33555857500005],[22.482874180000067,70.37019837100007],[22.525240186000076,70.35658732600007],[22.673742357000037,70.38597871300004],[22.72424181200006,70.35178876500004],[22.772088852000024,70.38714547000006]],[[24.11154815900005,71.08393873800003],[24.109651798000073,71.05090597300006],[24.05528696400006,71.03337429600003],[24.070146,70.96985121500006],[24.140961703000073,70.97234261700004],[24.205592326000044,70.96279158000004],[24.20531733100006,70.94493722400006],[24.081816970000034,70.93055719000006],[24.046641455000042,70.91339774500005],[23.925778156000035,70.93322463600003],[23.907661145000077,70.98430096700008],[23.878386843000044,70.98746012900006],[23.889037332000044,71.02356658900004],[23.95198877300004,71.03262623700004],[23.95605395700005,71.07550851700006],[24.002495527000065,71.06102833900007],[24.02272294100004,71.08182387700003],[24.070712696000044,71.09313375800008],[24.11154815900005,71.08393873800003]],[[16.98758321100007,68.74219532700005],[16.89012796000003,68.72564815100003],[16.84078776700005,68.73419336500007],[16.86010527600007,68.77020204000007],[16.920024777000037,68.77751795300003],[16.922541741000032,68.79338947700006],[16.978683527000044,68.84237293400008],[17.03296655500003,68.86767913200003],[17.112073639000073,68.80220777600005],[17.18536429200003,68.78187505300008],[17.171199454000032,68.76313141900005],[17.117199554000024,68.74870509000004],[16.98758321100007,68.74219532700005]],[[16.31587631600007,68.99020296900005],[16.546792407000055,68.95339094600007],[16.569252319000043,68.98760045700004],[16.615698852000037,68.96078327900005],[16.63016956200005,68.93829910600004],[16.616495978000046,68.89712330400005],[16.590784272000064,68.88262338500004],[16.466074890000073,68.88484574600005],[16.28009505400007,68.96510230000007],[16.31587631600007,68.99020296900005]],[[19.190154196000037,70.11663334500008],[19.116560306000054,70.10974970100006],[19.02833394700008,70.15236144000005],[19.12282562400003,70.20338030200003],[19.113627528000052,70.23307660500006],[19.15466837100007,70.24007157400007],[19.193430483000043,70.26766604800008],[19.24490501100007,70.23118306700007],[19.25426457100008,70.17594863800008],[19.226283133000038,70.15697851700008],[19.227521425000077,70.13258236500008],[19.190154196000037,70.11663334500008]],[[17.413114174000043,68.99473235100004],[17.374291463000077,68.98665770000008],[17.34391230600005,68.99895602900006],[17.35323410600006,69.03198782200008],[17.40261855800003,69.07438354500005],[17.439779388000034,69.08427915700008],[17.54616108500005,69.08632432500008],[17.552457092000054,69.06594285400007],[17.52527408700007,69.04426069700008],[17.461621141000023,69.02967551100005],[17.413114174000043,68.99473235100004]],[[19.57428749500008,70.11199842900004],[19.55435479600004,70.09639367500006],[19.47564865100003,70.09720454500007],[19.365516945000024,70.11260877100005],[19.340641969000046,70.12979180900004],[19.397594766000054,70.16311745400003],[19.47564865100003,70.14191184000003],[19.57428749500008,70.11199842900004]],[[21.800034346000075,70.32925995700003],[21.730647788000056,70.26914260800004],[21.686109852000072,70.28145476000003],[21.696255966000024,70.37268998600007],[21.783660119000047,70.35946653200006],[21.800034346000075,70.32925995700003]],[[24.80466617600007,71.07369936900005],[24.722498139000038,71.03052064400003],[24.640835958000025,71.06361010700004],[24.66946243600006,71.08557927400005],[24.719328404000066,71.08735736700004],[24.722498139000038,71.11507347600008],[24.80309195500007,71.09045419100005],[24.80466617600007,71.07369936900005]],[[16.537042392000046,68.98819246800008],[16.474926863000064,68.98210550300007],[16.441851086000042,68.99696931400007],[16.463866691000078,69.03716178400003],[16.498471680000023,69.05046714400004],[16.50559235700007,69.07336792900003],[16.53887984200003,69.05907567600008],[16.548038763000022,69.02995607500003],[16.537042392000046,68.98819246800008]],[[20.235316323000063,70.22694157400008],[20.207329704000074,70.22552093700006],[20.18611110300003,70.26748329500003],[20.16910667700006,70.30111161200006],[20.191540259000078,70.30853750300008],[20.261941802000024,70.26748329500003],[20.281866109000077,70.25586456300005],[20.235316323000063,70.22694157400008]],[[21.715975309000044,70.02018944400004],[21.688532993000024,69.98951417800004],[21.58534404200003,70.01172770900007],[21.578154061000077,70.01984009700004],[21.62482220000004,70.04636227500004],[21.715975309000044,70.02018944400004]],[[30.09609333800006,69.81411396400006],[30.049451457000032,69.80517679900004],[30.050725059000058,69.83525158400005],[30.00685640100005,69.86106919400004],[30.040585947000068,69.89464958100007],[30.08921365300006,69.87270452600006],[30.076399836000064,69.85204705800004],[30.09609333800006,69.81411396400006]],[[18.574277210000048,69.82180192700008],[18.46219551400003,69.82117512600007],[18.453025996000065,69.83084338500004],[18.50078955400005,69.86362431200007],[18.568429682000044,69.85633687400008],[18.574277210000048,69.82180192700008]],[[21.02062090000004,69.98449365800008],[20.977247990000023,69.97486311000006],[20.926073425000027,70.02128799300004],[20.977762941000037,70.05338754100006],[21.00315899900005,70.04316066700005],[20.995420015000036,70.00764223600004],[21.02062090000004,69.98449365800008]],[[25.33687776900007,70.26602728900008],[25.29539356600003,70.24325691000007],[25.24671025400005,70.25357660900005],[25.274556751000034,70.28869025200004],[25.335160693000034,70.30207328900008],[25.33687776900007,70.26602728900008]],[[25.018533066000032,71.00343665400004],[24.95419552900006,71.00114319400006],[24.927920452000023,71.02574766400005],[24.97202663300004,71.04988459800006],[25.02261622000003,71.03674243000006],[25.018533066000032,71.00343665400004]],[[25.87385278200003,70.68677049100006],[25.80832079700008,70.66452510500005],[25.778322849000062,70.67615049400007],[25.778322849000062,70.69204767200006],[25.852815459000055,70.71019474500008],[25.87385278200003,70.68677049100006]],[[16.741726957000026,68.87249809700006],[16.681084772000077,68.85762979100008],[16.66916726900007,68.88726235200005],[16.722668722000037,68.90477574600004],[16.741726957000026,68.87249809700006]],[[16.735439824000025,68.95069602200005],[16.673567814000023,68.92739728900006],[16.65979803400006,68.95317761400008],[16.675233282000022,68.96770808200006],[16.730927374000032,68.96827391800008],[16.735439824000025,68.95069602200005]],[[21.381118418000028,70.11054093200005],[21.364635500000077,70.08608269100006],[21.28008938000005,70.11524963900007],[21.293749739000077,70.12932404200006],[21.381118418000028,70.11054093200005]],[[19.009599641000023,70.18615083500003],[18.964400477000027,70.14750540000006],[18.939126317000046,70.17821744500003],[18.960704977000034,70.20434299100003],[19.009599641000023,70.18615083500003]],[[18.537718007000024,69.98193519600005],[18.528177094000057,69.95289761500004],[18.47497297700005,69.97165697400004],[18.50371993300007,70.01319682400003],[18.537718007000024,69.98193519600005]],[[18.57757109000005,70.03503302500008],[18.547745280000072,70.01401314700007],[18.518162535000044,70.02686029200004],[18.51494444900004,70.05655148600005],[18.56981264800004,70.05749292100006],[18.57757109000005,70.03503302500008]],[[23.24403706000004,70.12417548100007],[23.191454760000056,70.12398515900003],[23.16233427000003,70.14051579800008],[23.174688262000075,70.15543646000003],[23.236991214000057,70.15243008300007],[23.24403706000004,70.12417548100007]],[[21.455085358000076,70.36169740700007],[21.422065632000056,70.32630007900008],[21.393592222000052,70.35525700800008],[21.435044365000067,70.39327405800003],[21.455085358000076,70.36169740700007]],[[16.304258176000076,68.88958862000004],[16.295607121000046,68.87687863900004],[16.242431002000046,68.88591706700004],[16.234700152000073,68.90157957300005],[16.26970139100007,68.92838225300005],[16.304258176000076,68.88958862000004]],[[19.945129422000036,70.01114318100008],[19.941893278000066,69.98902373900006],[19.867925042000024,70.00248285500004],[19.857656924000025,70.01436301700005],[19.872880511000062,70.02922502300004],[19.945129422000036,70.01114318100008]],[[20.398952576000056,69.67943136500003],[20.363373892000027,69.64607032500004],[20.31944651300006,69.65764146400005],[20.34797844900004,69.69259994100008],[20.398952576000056,69.67943136500003]],[[24.275956775000054,70.87180146400004],[24.218947972000024,70.84676687800004],[24.206580190000068,70.86631833300004],[24.253664125000057,70.90766934200008],[24.275956775000054,70.87180146400004]],[[19.405374814000027,70.05993532000008],[19.368346487000053,70.04470987100007],[19.32790773800002,70.05726213600008],[19.34289992600003,70.08317264100003],[19.38345236600003,70.08389133000003],[19.405374814000027,70.05993532000008]],[[21.74586299300006,69.93893192400003],[21.732081677000053,69.91091906700007],[21.651784624000072,69.93405723700005],[21.66496793300007,69.95032975500004],[21.74586299300006,69.93893192400003]],[[21.064842266000028,69.93622172400006],[20.99035386500003,69.91548167500008],[20.976932533000024,69.92705897400003],[21.045321331000025,69.96710855100008],[21.064842266000028,69.93622172400006]],[[21.29147098800007,70.03924741400004],[21.219292315000075,70.02125590300005],[21.19989624300007,70.03780127900006],[21.231188562000057,70.05722820500006],[21.27782120300003,70.05589131700003],[21.29147098800007,70.03924741400004]],[[27.230984040000067,70.79302874300004],[27.205235531000028,70.76697588100006],[27.150999936000062,70.78620094700005],[27.194887034000033,70.81653815700008],[27.230984040000067,70.79302874300004]],[[7.096287500000074,59.78277699900008],[7.120842435000043,59.702728369000056],[7.214666500000021,59.672686999000064]],[[7.214666500000021,59.672686999000064],[7.100131328000032,59.65000637800006],[7.086150798000062,59.619887462000065],[7.043877682000073,59.58893592800007],[6.995908048000047,59.58721780700006],[6.976587566000035,59.54868187900007],[7.007370403000039,59.47357752000005],[6.91216208000003,59.428900448000036],[6.828866493000021,59.29908042300008],[6.846665601000041,59.192677436000054],[6.939172500000041,59.18191549900007],[6.872107658000061,59.098615479000046],[6.58360831400006,58.91167671000005],[6.53736699600006,58.778884420000054],[6.59168599000003,58.70331136600004],[6.50714498800005,58.64825775600008],[6.588971971000035,58.57908835600006],[6.615048805000072,58.42886192000003],[6.559021374000054,58.33560823000005],[6.438414023000064,58.29072668100008]],[[6.438414023000064,58.29072668100008],[6.296960951000074,58.308157350000045],[5.882109193000076,58.44532469400008],[5.665567554000063,58.572334960000035],[5.548792017000039,58.713708557000075],[5.624855712000056,58.99768545900008],[5.720502927000041,58.99643718500005],[5.790801048000048,58.94301619300006],[6.002680278000071,58.942558114000065],[5.942867398000033,59.06491757200007],[6.001944236000043,59.15155287400006],[5.944208295000067,59.22040487500004],[5.98585836500007,59.26387942700006],[6.073628266000071,59.28963143400006],[5.940846692000036,59.46101545600004],[5.864622490000045,59.47822705500005],[5.81479162100004,59.35282133900006],[5.677482252000061,59.28316435500005],[5.579327668000076,59.290932791000046],[5.445761907000076,59.21057648900006],[5.398153831000059,59.26883034700006],[5.355854211000064,59.27704609800003],[5.241873115000033,59.180897978000075],[5.203180445000044,59.237360659000046],[5.216367037000055,59.355216072000076],[5.302875500000027,59.481167999000036]],[[5.457233500000029,59.49800649900004],[5.547249013000055,59.54959166000003],[5.562676343000021,59.64382888400007],[5.595831266000062,59.672064427000066],[5.823972500000025,59.64592299900005]],[[5.604201397000054,59.143398571000034],[5.699507312000037,59.116728082000066],[5.745437911000067,59.12567701800003],[5.776229912000076,59.082218786000055],[5.687457297000037,59.08818803000008],[5.698434482000039,59.05474477900003],[5.670445168000072,59.02913289300005],[5.638080636000041,59.03842836700005],[5.604201397000054,59.09624836800003],[5.564155932000062,59.10841631300008],[5.604201397000054,59.143398571000034]],[[5.871922399000027,59.15048236400003],[5.794007669000052,59.137134993000075],[5.768099878000044,59.15493227200005],[5.808144919000028,59.17232298200008],[5.811433271000055,59.20497085200003],[5.878939624000054,59.18704855700008],[5.871922399000027,59.15048236400003]],[[5.897630770000035,59.26967419600004],[5.866608896000059,59.23948537500007],[5.807984012000077,59.23229388000004],[5.770261512000047,59.24995775000008],[5.788152897000032,59.27027052100004],[5.841727400000025,59.26117640000007],[5.863859919000049,59.290091792000055],[5.897630770000035,59.26967419600004]],[[5.95138299000007,59.142829919000064],[5.889023252000072,59.10231868200003],[5.868987184000048,59.12332497400007],[5.926955487000043,59.160267238000074],[5.95138299000007,59.142829919000064]],[[5.422955176000073,59.068660726000076],[5.413052621000077,59.02238471600003],[5.364055592000057,59.05847511600007],[5.38843195000004,59.08663092900008],[5.422955176000073,59.068660726000076]],[[4.929804700000034,59.29869146900006],[4.898472964000064,59.28190291900006],[4.868908993000048,59.30296155900004],[4.875239022000073,59.331547998000076],[4.91674910200004,59.32691163000004],[4.929804700000034,59.29869146900006]],[[7.349109,62.007681999000056],[7.389434638000068,61.98543435400006],[7.419640290000075,61.85603542100006],[7.523228129000074,61.73373045900007],[7.856110419000061,61.73812553400006],[7.900026487000048,61.717305785000065],[7.903462552000065,61.64181350100006],[7.959213485000021,61.55773325400003],[8.103550486000074,61.52693435900005],[8.21305927800006,61.542775024000036],[8.275289242000042,61.51547725000006],[8.306206145000033,61.45060898600008],[8.155977867000047,61.41583493200005],[8.164461861000063,61.375556439000036],[8.234683492000045,61.32782789600003],[8.054885231000071,61.22227952500003],[8.086916809000058,61.15897697100007],[8.177366267000025,61.107497684000066],[8.198621097000057,61.095400503000064],[8.251701,61.07394399900005]],[[8.251701,61.07394399900005],[8.268733302000044,61.03084232600003],[8.218604379000055,60.976687225000035],[8.148691016000043,60.97366492900005],[8.032127568000021,60.89607162100003],[7.826927270000056,60.905007769000065],[7.722331087000043,60.81067948300006],[7.699028784000063,60.74344063500007],[7.603548900000021,60.737298890000034],[7.46964,60.67554749900006],[7.619191962000059,60.634683746000064],[7.64120211200003,60.56394980700003],[7.724015326000028,60.50946290700006],[7.668121313000029,60.29531699900008],[7.488040500000068,60.09883849900007]],[[7.488040500000068,60.09883849900007],[7.420818251000071,60.01680704300003],[7.23081516700006,59.95895274800006],[7.165377326000055,59.87325617100004],[7.096287500000074,59.78277699900008]],[[7.096287500000074,59.78277699900008],[7.043877682000073,59.778030554000054],[6.691638940000075,59.69711721700003],[6.659749627000053,59.71558259600005],[6.686634279000032,59.78044800500004],[6.673369870000045,59.83180779600008],[6.599058109000055,59.83438109700006],[6.531629767000027,59.83671603600004],[6.319274970000038,59.772471206000034],[6.209268806000068,59.65000637800006],[6.144529684000076,59.58571716400007],[5.97814698600007,59.58585098000003],[5.823972500000025,59.64592299900005]],[[5.823972500000025,59.64592299900005],[5.907312701000023,59.754242685000065],[5.765434284000037,59.77778736000005],[5.749299149000024,59.849988961000065],[6.031420426000068,60.02537338700006],[6.298460086000034,60.348169993000056],[6.18972285600006,60.33005803900005],[6.035683320000032,60.22715542700007],[5.977021448000073,60.126433603000066],[5.870999298000072,60.03940698200006],[5.70220041500005,59.963694488000044],[5.604670394000038,59.887218450000034],[5.532294084000057,59.87665248400003],[5.472313309000072,59.80138603200004],[5.366002048000041,59.77005608300004],[5.21796990100006,59.66230586000006],[5.176065331000075,59.85889884300008],[5.407076111000038,60.03101767700008],[5.62330759200006,60.069052285000055],[5.686890844000061,60.126604446000044],[5.593750546000024,60.24310049700006],[5.40765381500006,60.17701187100005],[5.203021848000049,60.27913306000005],[5.100412870000071,60.22366353400008],[5.01022705500003,60.246497333000036],[4.99494154100006,60.35913130400007],[5.084653149000076,60.44730393700007],[4.892709627000045,60.77281972600008],[4.997450798000045,60.80452752300005],[5.263027248000071,60.75934217200006],[5.243903155000055,60.79402380500005],[5.140299,60.84025249900003],[4.888733402000071,60.87906039900008],[4.825346340000067,60.94741950200006],[5.115188873000022,61.05292108900005],[5.461300426000037,61.037873869000066],[5.913642042000049,61.11905722400007],[6.407075267000039,61.06665288700003],[6.716425353000034,61.15326539200004],[6.839516569000068,61.13183933800008],[7.009886048000055,61.049897559000044],[7.055318056000033,61.08587189700006],[6.591795772000069,61.24654323900006],[6.512059482000041,61.15606162200004],[6.429846632000022,61.12563328900006],[5.911467716000061,61.17105243200007],[5.411241543000074,61.08863577500006],[5.111121784000034,61.186318682000035],[5.028726367000047,61.24319494200006],[5.013897752000048,61.317216417000054],[4.967797988000029,61.36327798200006],[5.22238761400007,61.51360127000004],[5.168129984000075,61.57962842100005],[5.023112463000075,61.64610853100004],[5.021838519000028,61.70727278800007],[5.080189786000062,61.78464345300006],[4.91929994700007,61.78624443600006],[4.911262737000072,61.84805386700003],[5.058538573000021,61.991899200000034],[5.274631756000076,62.022736757000075],[5.261395309000022,62.07157267400004],[5.170077959000025,62.12794005100005],[5.18858711300004,62.17422808300006],[5.283820977000062,62.156297332000065],[5.491458,62.01478749900008]],[[5.457233500000029,59.49800649900004],[5.302875500000027,59.481167999000036]],[[5.302875500000027,59.481167999000036],[5.258492119000039,59.54878959900003],[5.514268155000025,59.71064843800008],[5.525891069000068,59.571942696000065],[5.457233500000029,59.49800649900004]],[[4.890323923000039,61.209214057000054],[5.011680089000038,61.178340684000034],[5.054905977000033,61.19217752800006],[5.077437438000061,61.12360933900004],[5.032949591000033,61.107497684000066],[4.900556235000067,61.05099678600004],[4.772167664000051,61.05088951300007],[4.767552257000034,61.094500088000075],[4.831145176000064,61.107497684000066],[4.825167064000027,61.14390516100008],[4.841824389000067,61.161695544000054],[4.890323923000039,61.209214057000054]],[[5.27527810600003,60.01432707100008],[5.258256868000046,59.99997283300007],[5.220098093000047,60.009172670000055],[5.202726894000023,59.98160104800007],[5.142010692000042,59.971702605000075],[5.121091131000071,59.993049720000045],[5.208451663000062,60.01432707100008],[5.200429199000041,60.04677778400003],[5.220764477000046,60.06475501700004],[5.201791420000063,60.101953276000074],[5.220764477000046,60.12313561800005],[5.291909213000054,60.08138048900008],[5.27527810600003,60.01432707100008]],[[4.907289126000023,60.523715879000065],[4.892488552000032,60.48976083200006],[4.781738486000052,60.60054728100005],[4.797895230000051,60.66101405200004],[4.836614153000028,60.63032709300006],[4.907289126000023,60.523715879000065]],[[4.735701212000038,61.017646143000036],[4.692238627000052,60.987312201000066],[4.650383763000036,61.04740171600008],[4.684657092000066,61.095400503000064],[4.698619362000045,61.095400503000064],[4.735701212000038,61.017646143000036]],[[5.142522491000022,60.14214470400003],[5.193208819000063,60.102427514000055],[5.17012158600005,60.07229724300004],[5.132635382000046,60.11836211100007],[5.084556589000044,60.107160786000065],[5.059470959000066,60.13249884900006],[5.092106787000034,60.14731612400004],[5.142522491000022,60.14214470400003]],[[4.969626816000073,60.491009113000075],[4.941586252000036,60.430602828000076],[4.92337615100007,60.442199724000034],[4.859704606000037,60.427629695000064],[4.849634061000074,60.448815781000064],[4.920643128000052,60.46912863300008],[4.938895670000022,60.50515833500003],[4.969626816000073,60.491009113000075]],[[4.741368056000056,61.28760334200007],[4.701246975000061,61.28757146200007],[4.693165991000058,61.31266694900006],[4.767577604000053,61.35276014500005],[4.795295215000067,61.326655122000034],[4.741368056000056,61.28760334200007]],[[5.083512598000027,60.04764914300006],[5.089134521000062,59.99189238500003],[5.031661323000037,60.013605262000056],[5.059612486000049,60.06462345300008],[5.083512598000027,60.04764914300006]],[[4.83674828900007,61.630408945000056],[4.784923155000058,61.62239430900007],[4.766458536000073,61.64352002500004],[4.790567005000071,61.67874469700007],[4.83674828900007,61.630408945000056]],[[4.775589159000049,60.671485217000054],[4.743476673000032,60.660164131000045],[4.708049111000037,60.68889593100005],[4.748687596000025,60.718560979000074],[4.775589159000049,60.671485217000054]],[[4.758156733000021,60.75688010700003],[4.698428450000051,60.74367076700008],[4.694138139000074,60.790951680000035],[4.753907433000052,60.777170340000055],[4.758156733000021,60.75688010700003]],[[5.114914351000039,61.50970274300005],[5.117206260000046,61.474167727000065],[5.047585490000074,61.47668615200007],[5.048846762000039,61.50057325600005],[5.114914351000039,61.50970274300005]],[[4.792571778000024,60.86988720000005],[4.737200503000054,60.85621798800008],[4.709451062000028,60.88123905800006],[4.77840549900003,60.899132663000046],[4.792571778000024,60.86988720000005]],[[4.976058962000025,61.52208288700007],[4.970786135000026,61.48576719700003],[4.930631392000066,61.49326188300006],[4.91827181900004,61.51883087400006],[4.940395795000029,61.53771537600005],[4.976058962000025,61.52208288700007]],[[4.847208047000038,61.222326269000064],[4.821981567000023,61.181334639000056],[4.773293569000032,61.19331980700008],[4.806145999000023,61.22970835500007],[4.847208047000038,61.222326269000064]],[[4.891767825000045,61.67738372700006],[4.870323958000029,61.65756354700005],[4.82439189400003,61.68344834100003],[4.880858047000061,61.71650101200004],[4.891767825000045,61.67738372700006]],[[5.705222640000045,59.73736493900003],[5.683333677000064,59.70313723000004],[5.635574623000025,59.71792173800003],[5.648537946000033,59.75135556400005],[5.705222640000045,59.73736493900003]],[[4.883937132000028,61.58593545900004],[4.838938678000034,61.55590076500005],[4.832309973000065,61.59737510600007],[4.87211093600007,61.62670405700004],[4.883937132000028,61.58593545900004]],[[5.092523926000069,59.872580235000044],[5.068191596000077,59.872580235000044],[5.04605650700006,59.89231270400006],[5.073877666000044,59.92855870500006],[5.111048230000051,59.88783875400003],[5.092523926000069,59.872580235000044]],[[4.866474333000042,61.32476083500006],[4.822514220000073,61.32292260600008],[4.810221305000027,61.34945391100007],[4.865593723000075,61.37573907400008],[4.866474333000042,61.32476083500006]],[[9.062062,62.37260849900008],[8.261890472000061,62.34465165800003],[8.151633983000067,62.301162188000035],[7.981467188000067,62.18111927100006],[7.736997780000024,62.18197972100006],[7.614882317000024,62.12792402500003],[7.589559873000042,62.07144918000006],[7.423469939000029,62.08857079900008],[7.349109,62.007681999000056]],[[7.349109,62.007681999000056],[7.226233722000075,62.02605781400007],[7.007136876000061,61.98628959600006],[6.817796049000037,61.97196180600008],[6.501337500000034,61.92343999900004],[6.40811000900004,61.99215396400007],[6.350729880000074,61.96589315400007],[6.278271738000058,61.977896275000035],[6.19738785100003,62.00783829400007],[6.053639356000076,61.96115615200006],[5.936788100000058,61.99443838600007],[5.573429123000039,61.96262627400006],[5.500865287000067,61.982008215000064],[5.491458,62.01478749900008]],[[5.491458,62.01478749900008],[5.496386915000073,62.140339089000065],[5.609806157000037,62.297764381000036],[5.920294883000054,62.40159939000006],[5.986526559000026,62.38798259400005],[6.007252287000028,62.33689450500003],[5.844423221000056,62.20251374600008],[5.951881283000034,62.13494311000005],[6.081858105000038,62.27583398200005],[6.257814250000024,62.33179310500003],[6.440402191000032,62.29730064600005],[6.496082002000037,62.37611375800003],[6.662365625000064,62.42183288200005],[6.850363063000032,62.399117758000045],[6.97779011800003,62.28403061200004],[7.033797678000042,62.27101747300003],[7.03053219700007,62.31271492900004],[6.927629760000059,62.39366862600008],[6.767941884000038,62.45908163800004],[6.298136431000046,62.41920318500007],[6.20913147300007,62.45528700300008],[6.342707293000046,62.58046396200007],[6.698036830000035,62.62923262100003],[7.027248415000031,62.63253433400007],[7.486219344000062,62.57765797800005],[7.52063395600004,62.69738681800004],[7.325645580000071,62.74690789200008],[7.064436960000023,62.754336598000066],[7.002117720000058,62.875727564000044],[7.191751213000032,62.97376280200007],[7.560272262000069,63.07851636400005],[7.800937756000053,63.09802930700005],[7.812318355000059,63.070801102000075],[7.762149901000043,63.01069192800003],[7.767299991000073,62.97957133600005],[8.010548958000072,62.93993428500005],[8.20144915800006,62.82077001500005],[8.215168377000055,62.83977486800006],[7.996686425000064,63.004837001000055],[7.98695692900003,63.04683024000008],[8.097523248000073,63.06788507200008],[8.350826193000046,62.910706075000064],[8.437475592000055,62.88790834100007],[8.424239004000071,62.95516633900007],[8.26781158800003,63.03952700700006],[8.17423645100007,63.13067752400008],[8.007428793000031,63.18177040000006],[8.398474856000064,63.27973794400003],[8.525793064000027,63.35586497700007],[8.755111500000055,63.42434099900004]],[[8.19559412500007,63.39909336900007],[8.208007124000062,63.35213557600008],[8.238507036000044,63.35213557600008],[8.24164197400006,63.322336420000056],[8.204937095000048,63.30161300900005],[8.185186240000064,63.34493674200007],[8.163692497000056,63.34363577600004],[8.156350065000026,63.30029901700004],[8.090083890000074,63.31818994400004],[8.090083890000074,63.29451878600008],[7.991903859000047,63.285386876000075],[7.938908961000038,63.34363577600004],[7.814814622000029,63.31887526200006],[7.821060819000024,63.34427176000008],[7.790279899000041,63.366843250000045],[7.783553486000073,63.40507264000007],[7.950934654000037,63.44576381400003],[7.978362397000069,63.485099364000064],[8.090083890000074,63.46578754400008],[8.19559412500007,63.39909336900007]],[[6.939724329000057,62.73254011200004],[6.929570045000048,62.70512668200007],[6.678929630000027,62.66096099600003],[6.655717098000025,62.67617947100007],[6.693149980000044,62.69941211400004],[6.678789808000033,62.73097090600004],[6.708593321000023,62.74033895800005],[6.74406897800003,62.72760021000005],[6.905496195000069,62.74762764400003],[6.939724329000057,62.73254011200004]],[[6.95886213600005,62.82664700600003],[6.891148718000068,62.77702047000008],[6.792083357000024,62.801547492000054],[6.81686542500006,62.84775442500006],[6.928699994000056,62.85238134900004],[6.95886213600005,62.82664700600003]],[[6.155726524000045,62.50396353300005],[6.096342703000062,62.49590227600004],[6.114055204000067,62.53686033100007],[6.055459448000022,62.559735802000034],[6.11919705400004,62.599257452000074],[6.155726524000045,62.50396353300005]],[[7.329071112000065,62.65152183300006],[7.236979405000056,62.64992622900007],[7.215327311000067,62.66405495100008],[7.267501751000054,62.68190552100003],[7.330652439000062,62.66970926100004],[7.329071112000065,62.65152183300006]],[[6.492342613000062,62.75216071500006],[6.452564216000042,62.721393610000064],[6.418853252000076,62.741546208000045],[6.448508809000032,62.78956157200008],[6.492342613000062,62.75216071500006]],[[6.262898007000047,62.64425423800003],[6.249653852000051,62.63169866000004],[6.157240293000029,62.66775273700006],[6.201903282000046,62.69450278100004],[6.208119,62.67422967700003],[6.262898007000047,62.64425423800003]],[[5.436196724000069,62.27914262300004],[5.447819753000033,62.235746746000075],[5.395507003000034,62.23891950900003],[5.372358040000051,62.260311838000064],[5.436196724000069,62.27914262300004]],[[6.001611820000051,62.464312],[5.940641477000042,62.453509257000064],[5.951178093000067,62.500739088000046],[5.993891294000036,62.49505122000005],[6.001611820000051,62.464312]],[[5.436336445000052,62.200117429000045],[5.390095792000068,62.17901422500006],[5.356277699000032,62.21575094700006],[5.369772673000057,62.233381472000076],[5.436336445000052,62.200117429000045]],[[7.606493757000067,63.19759846100004],[7.551156509000066,63.18239962000007],[7.530938873000025,63.196036451000055],[7.568325521000077,63.22653989400004],[7.611596657000064,63.21276739400008],[7.606493757000067,63.19759846100004]],[[5.652873543000055,62.400791767000044],[5.636141667000061,62.35949332800004],[5.590154489000042,62.38853820000003],[5.615475283000023,62.41978784100007],[5.652873543000055,62.400791767000044]],[[6.645469085000059,62.66078356400004],[6.592705994000028,62.651135331000035],[6.572788815000024,62.66308592300004],[6.614551874000028,62.69427476200008],[6.63993675200004,62.694242392000035],[6.645469085000059,62.66078356400004]],[[6.219043849000059,62.62209990000008],[6.208857517000069,62.59774676900008],[6.143601826000065,62.61368002800003],[6.132958579000046,62.62892920200005],[6.192187318000038,62.63635016500007],[6.219043849000059,62.62209990000008]],[[5.572947312000053,62.33374675300007],[5.532839375000037,62.32783636900007],[5.506462597000052,62.34299727900003],[5.533602245000054,62.375872325000046],[5.576288896000051,62.35136959200008],[5.572947312000053,62.33374675300007]],[[6.333592663000047,62.67989999000008],[6.331999197000073,62.64721782700008],[6.249381508000056,62.67872938700003],[6.268044191000058,62.69424230700008],[6.333592663000047,62.67989999000008]],[[6.438681890000055,62.68759531100005],[6.373095707000061,62.68503859200007],[6.356072674000075,62.701220171000045],[6.367212559000052,62.71419100600008],[6.43584577300004,62.71253159000008],[6.438681890000055,62.68759531100005]],[[11.976052279000044,65.07260128200005],[12.046106500000064,65.06244999900008]],[[12.046106500000064,65.06244999900008],[12.090539516000035,65.01034404500007],[12.22876336400003,64.97400895900006],[12.539336947000038,64.97950387700007],[12.690494218000026,64.94739414900005],[12.889875525000036,64.98333898800007],[12.966287753000074,65.04382625600005],[13.144728598000029,65.11036461900005],[13.225514239000063,65.11096142000008],[14.325985,65.11891599900008]],[[14.325985,65.11891599900008],[13.666585884000028,64.58895409500008],[14.111667407000027,64.45376809800007],[14.13015451800004,64.33229240900005],[14.136527471000022,64.29041680500006],[14.141186093000044,64.25980578300005],[14.150621429000068,64.19780778500007],[14.047886025000025,64.09291461300006],[13.996104980000041,64.04004600200005],[13.97733149000004,64.02087821000003],[13.776877606000028,64.04004600200005],[13.223985614000071,64.09291461300006],[13.21460816900003,64.09381130300005],[13.20965469500004,64.09291461300006],[12.917599009000071,64.04004600200005],[12.827498565000042,64.02373580600005],[12.681629961000056,63.970526749000044],[12.530761200000029,63.857476923000036],[12.455524068000045,63.803898193000066],[12.160811311000032,63.59402396300004],[12.199675331000037,63.46937412900007],[12.05912810600006,63.339180645000056],[11.985527558000058,63.271002054000064],[12.052455500000065,63.183444499000075],[12.196678984000073,63.00712991800003],[12.091922594000039,62.900658269000076],[12.125052354000047,62.74872364700008],[12.073057086000063,62.601717922000034],[12.25465950000006,62.33102449900008]],[[12.25465950000006,62.33102449900008],[12.137077994000038,62.31497780400008],[12.05912810600006,62.33571281800005],[11.960967416000074,62.361823994000076],[11.788280574000055,62.37790449400006],[11.70968210600006,62.35171300500008],[11.560685044000024,62.37643627700004],[11.435495581000055,62.473425159000044],[11.264108558000032,62.53471069700004],[11.141541054000072,62.65253826000003],[10.908484997000073,62.69490088400005],[10.740563374000033,62.65339850600003],[10.171713898000064,62.69057952300005],[10.016132842000047,62.56503327000007],[10.08494597400005,62.42984037000008],[9.965837129000022,62.39764722400008],[9.913872397000034,62.35119468200003],[9.862595937000037,62.35523200700004],[9.792455,62.28793199900008],[9.592403448000027,62.260642088000054],[9.36776476700004,62.30806811300005],[9.062062,62.37260849900008]],[[9.062062,62.37260849900008],[9.163984460000052,62.43256036300005],[9.21082589100007,62.55014297400004],[8.988648345000058,62.711525504000065],[9.36776476700004,62.81883925100004],[9.43766285700002,62.83727266300008],[9.440258008000058,62.94362627000004],[9.486355053000068,63.00242991600004],[9.449673951000022,63.07587815000005],[9.460985178000044,63.164443274000064],[9.36776476700004,63.19275607800006],[9.334070825000026,63.20298956600004],[9.165174896000053,63.17431150600004],[9.142185363000067,63.13405419700007],[8.88642036300007,63.119722710000076],[8.764588476000029,63.18458343800006],[8.817507094000064,63.19828311100008],[8.832189,63.20197999900006],[8.851695034000045,63.23029855000004],[8.828839703000028,63.26690752800005],[8.87763817800004,63.35054733800007],[8.755111500000055,63.42434099900004]],[[8.755111500000055,63.42434099900004],[8.886103812000044,63.418181281000045],[9.052086364000047,63.453297699000075],[9.15795729100006,63.38626686600003],[9.105842229000075,63.31751140800003],[9.11887841400005,63.30102765000004],[9.253654616000063,63.35683321300007],[9.20401925300007,63.40452764500003],[9.213403467000035,63.44519493400003],[9.175830069000028,63.48179302900007],[9.198919642000021,63.50342223300004],[9.36776476700004,63.53370995300003],[9.710203174000071,63.626193052000076],[9.943542569000044,63.43565403200006],[9.90543606700004,63.32934656600008],[10.143093466000039,63.33416548900004],[10.110033470000076,63.39740764600003],[10.219212542000037,63.44564455400007],[10.85359,63.43909349900008],[10.77312771100003,63.60909908200006],[10.929846524000027,63.67957308000007],[11.188018680000027,63.73073681100004],[11.348256630000037,63.79785948800003],[11.323940851000032,63.88356987600008],[11.190079668000067,63.89645326600004],[11.25571074000004,63.99782491000008],[11.190820522000024,64.00331962100006],[11.058957827000029,63.94965982000008],[10.994090678000077,63.82687025200005],[10.87961421700004,63.73286372400008],[10.170315,63.52613449900008],[9.966010868000069,63.52097546300007],[9.85115472900003,63.62161041100006],[9.875278523000077,63.716097766000075],[9.616952558000037,63.701194272000066],[9.626113094000061,63.776430393000055],[9.961234181000066,63.93143231400006],[9.988995289000059,64.04004600200005],[9.987733614000035,64.06243764100003],[10.097165515000029,64.09291461300006],[10.12623602800005,64.10101080100003],[10.223294185000043,64.20237939700007],[10.39812799300006,64.29041680500006],[10.481288909000057,64.33229240900005],[10.51422427600005,64.37052318700006],[10.493648803000042,64.40882839100004],[10.5104,64.42929099900005],[10.636943053000039,64.46297653200003],[10.721604930000069,64.53150000900007],[10.899099937000074,64.53008187700004],[10.97479538400006,64.58356923100007],[11.085810226000035,64.56491062000003],[11.112675957000022,64.62424847000005],[11.239951769000072,64.67148868000004],[11.31019369300003,64.65962915200004],[11.292838232000065,64.58995454700005],[11.330757352000035,64.57068825400006],[11.606057321000037,64.78851120000007],[11.56642696800003,64.80537278000003],[11.386090104000061,64.77056925200003],[11.236519169000076,64.83944911300006],[10.866167755000049,64.85504267300007],[10.784147695000058,64.88672905000004],[10.763734674000034,64.93274016000004],[10.884329303000072,64.97448789300006],[11.069711349000045,64.97244111700007],[11.272881222000024,64.92418617600003],[11.485990814000047,64.95288362500008],[11.739324456000077,65.02386018600004],[11.938759,65.14892399900003]],[[11.938759,65.14892399900003],[11.93334272900006,65.11909164400004],[11.924039,65.06784749900004],[11.946803097000043,65.07355292900007],[11.976052279000044,65.07260128200005]],[[8.692267943000047,63.67581563600004],[8.67948829200003,63.62857365000008],[8.825165824000067,63.65908608700005],[9.015033182000025,63.622403613000074],[9.058865618000027,63.66954936500008],[9.149454846000026,63.664751599000056],[9.157148265000046,63.640155564000054],[9.11104096300005,63.608227413000066],[9.166636719000053,63.562606232000064],[9.130217784000024,63.48048137900008],[9.071943589000057,63.51293975100003],[8.451460505000057,63.41823665000004],[8.331498878000048,63.447858532000055],[8.33060865300007,63.51417161100005],[8.450085975000036,63.553326466000044],[8.448271954000063,63.57079220800006],[8.372369476000074,63.57915280800006],[8.396397475000072,63.60666669500006],[8.46567522600003,63.62020757300007],[8.458754271000032,63.56976917500003],[8.47046096500003,63.56000371400006],[8.635042275000046,63.61393995200007],[8.595455840000056,63.66613198300007],[8.420142678000047,63.67606082100008],[8.418756450000046,63.693819863000044],[8.538914896000051,63.71972905700005],[8.688334145000056,63.81412160200006],[8.791198369000028,63.81564528100006],[8.811558216000037,63.80394680400008],[8.822461284000042,63.71301518800004],[8.692267943000047,63.67581563600004]],[[11.711812764000058,65.06200384300007],[11.649497728000028,65.03993120100006],[11.635742027000049,65.06020374000008],[11.607357441000033,65.04425718100003],[11.54409473000004,65.03613918600007],[11.511831588000064,65.06952576100008],[11.576898108000023,65.10778198400004],[11.688117257000044,65.11995370000005],[11.735011779000047,65.13708735900008],[11.74072175300006,65.08506421800007],[11.711812764000058,65.06200384300007]],[[9.903914421000025,63.995749956000054],[9.845437139000069,63.99131760900008],[9.842008595000038,64.03326092400005],[9.860607591000075,64.04004600200005],[9.889160667000056,64.05046241600007],[9.907401120000031,64.04004600200005],[9.936316368000064,64.02353362700006],[9.903914421000025,63.995749956000054]],[[11.123282206000056,63.78392388200007],[11.035143771000037,63.74406990700004],[11.007479620000026,63.75248610500006],[11.054747903000077,63.80010535800005],[11.116760274000058,63.799690224000074],[11.123282206000056,63.78392388200007]],[[10.56827026600007,64.80122579600004],[10.514897503000043,64.77313723700007],[10.486608784000055,64.80050094300003],[10.540191377000042,64.82277123900008],[10.56827026600007,64.80122579600004]],[[10.819766678000065,64.76233823900003],[10.783001119000062,64.72025269900007],[10.744218556000021,64.73473931700005],[10.795759586000031,64.77832127300007],[10.819766678000065,64.76233823900003]],[[11.148706239000035,65.01707459300007],[11.109626391000063,64.99000334000004],[11.066120554000065,65.02331899500007],[11.086915103000024,65.04057711900003],[11.148706239000035,65.01707459300007]],[[9.226185693000048,64.03994064100004],[9.218970600000034,64.01782006300004],[9.163814316000071,64.02833211900008],[9.181604901000071,64.07555634200003],[9.226185693000048,64.03994064100004]],[[9.450152584000023,63.80364088700003],[9.397769504000053,63.77639173500006],[9.388573905000044,63.785358348000045],[9.39062156600005,63.80364088700003],[9.394412330000023,63.82054966000004],[9.424457024000048,63.83331578600007],[9.450152584000023,63.80364088700003]],[[11.221786043000066,63.80381546700005],[11.197016344000076,63.777575299000034],[11.152211703000035,63.80381546700005],[11.199028216000045,63.82710942400007],[11.230989940000029,63.82025607400004],[11.221786043000066,63.80381546700005]],[[10.84484248800004,64.56453108400007],[10.810546363000071,64.55994965800005],[10.780225557000051,64.57740509100006],[10.799198689000036,64.60139059500005],[10.829240738000067,64.61006253600004],[10.84484248800004,64.56453108400007]],[[9.449820592000037,63.67822913100008],[9.427667007000025,63.64810496400008],[9.374414283000021,63.66772325200003],[9.41924771400005,63.70044010200007],[9.449820592000037,63.67822913100008]],[[10.883393257000023,64.55902569500006],[10.863533357000051,64.54647717700004],[10.851316387000054,64.56481389500004],[10.863644557000043,64.58139984500008],[10.883393257000023,64.55902569500006]]]}