{"type":"Topology","objects":{"data":{"geometries":[{"properties":{"id":"PL","name":"Polska"},"type":"MultiPolygon","arcs":[[[0]],[[1]],[[2]]],"id":"feature_0"}],"type":"GeometryCollection"}},"bbox":[14.125820762000046,49.00421343200003,24.141787694000072,54.83349962400007],"arcs":[[[18.54764521900006,54.57128387600005],[18.561360689000026,54.540704454000036],[18.55366676500006,54.51186286300003],[18.566222735000053,54.48804586700004],[18.563992753000036,54.459996026000056],[18.597702923000043,54.426809382000044],[18.635613097000032,54.41086314300003],[18.672336616000052,54.408883797000044],[18.734572385000035,54.37528421500008],[18.882623829000067,54.34824044000004],[18.921992447000036,54.34787799900005],[18.950029500000028,54.35831049900003],[18.95558936300006,54.360000239000044],[18.96876971000006,54.35007548300007],[18.98913618100005,54.345280106000075],[19.078757944000074,54.34569716800007],[19.14492050000007,54.34904899900005],[19.227461708000078,54.35461321100007],[19.301758351000046,54.36325985900004],[19.33136950000005,54.366705499000034],[19.383664603000057,54.37541228100008],[19.40612702900006,54.38018390900004],[19.443514211000036,54.38812596000008],[19.494378660000052,54.40131456200004],[19.54996774500006,54.419131409000045],[19.555113732000052,54.42117605300007],[19.598914939000053,54.43857536400003],[19.639032,54.45829449900003],[19.648523,54.45333899900004],[19.550351128000045,54.40949341700008],[19.40612702900006,54.36637266200006],[19.230977519000078,54.33737854800006],[19.25960777800003,54.30731293800005],[19.25034927300004,54.293041077000055],[19.256953,54.27846049900006],[19.379590089000033,54.26512940300006],[19.37306938000006,54.232137941000076],[19.380708473000027,54.22937231700007],[19.409502540000062,54.267945445000066],[19.498620496000058,54.31811768700004],[19.651409036000075,54.34889647000006],[19.70748301200007,54.38420645300005],[19.751140814000053,54.42887559600007],[19.803768500000047,54.44241049900006],[19.91667084100004,54.433504620000065],[20.313503,54.402201999000056],[20.55992616900005,54.37577904700004],[20.632316701000036,54.36801690500005],[20.690982914000074,54.37184550300003],[21.002511902000037,54.353544216000046],[21.26490397500004,54.329243011000074],[21.38088318800004,54.33052431600004],[21.449844204000044,54.31919086100004],[21.559322,54.32250399900005],[21.56927044100007,54.32227345600006],[21.57697608500007,54.32544871300007],[21.63375133900007,54.32732332300003],[21.676770083000065,54.32682808700008],[21.739232,54.32970299900006],[21.823561940000047,54.33123879300007],[21.938005,54.333322999000075],[21.96852615000006,54.33277097600006],[21.98410862700007,54.33433070500007],[22.01320536000003,54.33625984000008],[22.138872500000048,54.33646599900004],[22.17930513700003,54.33765115500006],[22.22366852400006,54.34343990800005],[22.231331347000037,54.34053366300003],[22.31591226100005,54.34062073800004],[22.32487177400003,54.34408815100005],[22.38063517100005,54.34466585700005],[22.421807686000022,54.34816331700006],[22.43376582800005,54.346595715000035],[22.447865575000037,54.34866442400005],[22.473127111000053,54.34915191700003],[22.490776,54.349492499000064],[22.527272496000023,54.34928548500005],[22.571618459000035,54.35377655000008],[22.59840568900006,54.353716993000035],[22.619009431000052,54.35571267200004],[22.64788300300006,54.35407618000005],[22.67740453600004,54.359687533000056],[22.72558282500006,54.36122980700003],[22.792095500000073,54.36335899900007],[22.85280302700005,54.40820239200008],[22.975068556000053,54.389709725000046],[23.002550404000033,54.380175809000036],[23.006184375000032,54.358861363000074],[23.05376275800006,54.343046650000076],[23.047881645000075,54.32032888700007],[23.058105569000077,54.310835885000074],[23.095923251000045,54.30085779600006],[23.145852930000046,54.31191129500007],[23.16316386400007,54.29633546600007],[23.202580282000042,54.28588093800005],[23.241237543000068,54.26055472500008],[23.321498500000075,54.253325999000026],[23.38382702800004,54.225208112000075],[23.426072522000027,54.17983807300004],[23.45623212600003,54.17406403700005],[23.487430318000065,54.148148767000066],[23.49503753700003,54.118605209000066],[23.526900538000064,54.06360535600004],[23.52295283500007,54.03324708300005],[23.514766708000025,54.02551878400004],[23.48379384100008,53.996278147000055],[23.49150538400005,53.97583497000005],[23.51465,53.956559999000035],[23.511589,53.915868499000055],[23.526105208000047,53.86884135100007],[23.524764181000023,53.86277339700007],[23.535490508000066,53.857676292000065],[23.54734953600007,53.856123239000055],[23.551130043000057,53.85118476100007],[23.545531448000077,53.84575711900004],[23.551774269000077,53.84065176300004],[23.548780822000026,53.835375887000055],[23.553458294000052,53.83121548500003],[23.546453,53.82633099900005],[23.544823144000077,53.796300289000044],[23.549005513000054,53.76883318100005],[23.582107996000047,53.74317442500006],[23.585718789000055,53.72705362100004],[23.58546824000007,53.70580895900008],[23.588702,53.69592849900005],[23.592999380000037,53.68533687100006],[23.630679475000022,53.59246782200006],[23.65554276900008,53.53118797700006],[23.68878456500005,53.47221022400004],[23.813857317000043,53.25179163200005],[23.853042455000036,53.23058831800006],[23.865243485000065,53.19845097700005],[23.912324822000073,53.15720583700005],[23.876881018000063,53.08499175500003],[23.924676482000052,53.01980901700006],[23.936487156000055,52.98036518400005],[23.940054162000024,52.968452539000054],[23.918982886000038,52.93486067500004],[23.916239,52.90481199900006],[23.92522486000007,52.89186980300008],[23.92573082800004,52.83303267000008],[23.928789637000023,52.82709848400003],[23.939094621000038,52.80710649300005],[23.933568337000054,52.71114484800006],[23.891811545000053,52.68190740400007],[23.76099152300003,52.61684324300006],[23.638291733000074,52.606263365000075],[23.592999380000037,52.594131735000076],[23.54112851600007,52.58023803900005],[23.470035936000045,52.55026605900008],[23.355575696000074,52.467593298000054],[23.32052907900004,52.431120081000074],[23.178338,52.28314099900007],[23.19937632400007,52.274902170000075],[23.197122285000034,52.23887489300006],[23.20742174700007,52.22675884600005],[23.32052907900004,52.21156193400003],[23.36391579600007,52.20573256700004],[23.395182718000058,52.19685399700006],[23.40321384400005,52.18100818500005],[23.425859976000027,52.174931093000055],[23.45176592400003,52.182620428000064],[23.490752102000044,52.17824052600008],[23.496159015000046,52.17331332500004],[23.490605810000034,52.154137054000046],[23.509745,52.14122011100005],[23.548691038000072,52.11493562700008],[23.592999380000037,52.114329557000076],[23.602704887000073,52.11419680000006],[23.649940628000024,52.07308259200005],[23.647070232000033,52.05927280600008],[23.660531797000033,52.04146212200004],[23.661442308000062,52.01910508200007],[23.685695948000046,51.99084824000005],[23.66505957800007,51.96610760000004],[23.641987481000058,51.95492528600005],[23.641135692000034,51.93368356000008],[23.61572658800003,51.919298809000054],[23.633644842000024,51.89313920700005],[23.626335508000068,51.87813828800006],[23.609844235000025,51.873491211000044],[23.614480369000034,51.85342929300003],[23.605867095000065,51.83383242800005],[23.619126239000025,51.828549431000056],[23.637728794000054,51.80054148200003],[23.623372709000023,51.777451823000035],[23.592999380000037,51.764265970000054],[23.581454434000023,51.75925400800003],[23.558022022000046,51.75831859500005],[23.529385594000075,51.73439189700008],[23.547902644000033,51.72195549500003],[23.55664051100007,51.69790114600005],[23.55505202300003,51.666688812000075],[23.539697688000047,51.64839917900008],[23.543823408000037,51.602414717000045],[23.57318594800006,51.558398227000055],[23.566218029000026,51.53798405500004],[23.592999380000037,51.532115126000065],[23.609803836000026,51.52843255800008],[23.62038307000006,51.51774135200003],[23.617443,51.509536999000034],[23.631158267000046,51.49076368200008],[23.669073764000075,51.48130762300008],[23.671361373000025,51.47237071300003],[23.650092305000044,51.451259624000045],[23.681924459000072,51.44178231200004],[23.699198866000074,51.408387496000046],[23.685937678000073,51.396504357000026],[23.681664486000045,51.37005719300004],[23.660203486000057,51.35823901500004],[23.640682265000066,51.33276756500004],[23.638973625000062,51.314754307000044],[23.653271610000047,51.29063474900005],[23.681731839000065,51.29045823400003],[23.709221,51.277648499000065],[23.74440473100003,51.21569306200007],[23.805199678000065,51.18458797900007],[23.821820478000063,51.16554138400005],[23.865287779000028,51.150967137000066],[23.86872104300005,51.135382621000076],[23.85357567500006,51.12338669500008],[23.860381147000055,51.100762528000075],[23.877773244000025,51.08076469900004],[23.908320574000072,51.07342035700003],[23.924264675000074,51.03610232400007],[23.92610514300003,51.00800406900004],[23.96106927200003,50.98469296900004],[23.972214536000024,50.95249875800005],[24.05468674800005,50.89289633000004],[24.141787694000072,50.86729521500007],[24.12097801500005,50.844856367000034],[24.079591736000054,50.83483817000007],[23.99966512000003,50.838579339000034],[23.981115017000036,50.82909426500004],[23.96149114700006,50.79779018900007],[23.973418809000066,50.77564798700007],[24.01757976300007,50.76730311000006],[24.021580294000046,50.724877452000044],[24.070226667000043,50.714631249000035],[24.065619682000033,50.68005805900003],[24.085195338000062,50.667473769000026],[24.09571098400005,50.63452757200008],[24.08814563900006,50.55409249400003],[24.06866442200004,50.50200616400008],[24.03313905400006,50.44656337100008],[24.008242403000054,50.43452959200005],[23.991619124000067,50.413228795000066],[23.803661631000068,50.40456339000008],[23.725076949000027,50.38652737500007],[23.701537684000073,50.371320635000075],[23.68420353500005,50.33364574700005],[23.642485227000066,50.320314273000065],[23.592999380000037,50.277719465000075],[23.58085397900004,50.267265344000066],[23.547642,50.25160199900006],[23.47082595300003,50.21716056500003],[23.32052907900004,50.122574317000044],[23.282737231000056,50.09879079400008],[22.998595615000056,49.84585914400003],[22.97005364300003,49.83483754900004],[22.95658910700007,49.80399487100004],[22.90780049700004,49.772741445000065],[22.840502773000026,49.70600294600007],[22.798129928000037,49.68571339200008],[22.778266165000048,49.65365826400006],[22.72558282500006,49.60762286100004],[22.686149500000056,49.57316549900003],[22.671206960000063,49.54677768500005],[22.644350216000078,49.52487217800007],[22.657444403000056,49.50523865900004],[22.69948491200006,49.48793938000006],[22.72558282500006,49.41789398600008],[22.730741485000067,49.40404841900005],[22.74440454100005,49.36737751000004],[22.749026584000035,49.317107357000054],[22.73904230200003,49.252472382000064],[22.72558282500006,49.23834948800004],[22.717441914000062,49.22980731300004],[22.72558282500006,49.22501795200003],[22.742064508000055,49.21532164900003],[22.72558282500006,49.19338055500003],[22.71111889200006,49.174125573000026],[22.719723307000038,49.16855584000007],[22.72558282500006,49.17094875200007],[22.75069202800006,49.18120286000004],[22.74522769300006,49.15672956700007],[22.78255285000006,49.15544924000005],[22.83208240400006,49.11370212200006],[22.887411,49.09482094700007],[22.867690975000073,49.064020791000075],[22.87104066200004,49.04031794500003],[22.890894587000048,49.01233270400007],[22.849492006000048,49.00421343200003],[22.833299316000023,49.02301475400003],[22.771880896000027,49.05089186300006],[22.75153613300006,49.04463234600007],[22.72558282500006,49.048879913000064],[22.711638246000064,49.051162109000074],[22.680837825000026,49.04122687000006],[22.648362508000048,49.05387582100008],[22.62715436600007,49.07704697500003],[22.59532596500003,49.09359719300005],[22.56684,49.088377499000046],[22.496860565000077,49.08813587900005],[22.46370970600003,49.100252484000066],[22.42167179200004,49.100733760000026],[22.365662626000073,49.144879744000036],[22.315040623000073,49.137387699000044],[22.231391403000032,49.15354138600003],[22.23283917400005,49.173367076000034],[22.22412065700007,49.18182770800007],[22.189772551000033,49.17619971000005],[22.137194892000025,49.19948788000005],[22.05653786000005,49.21418058000006],[22.032983196000032,49.22751355100007],[22.038386368000033,49.25435890600005],[22.030718964000073,49.27844322300007],[21.987004845000058,49.30815647400004],[21.963403894000066,49.34522598800004],[21.902680617000044,49.35274516900006],[21.882259146000024,49.37015189500005],[21.857579088000023,49.37176928200006],[21.837585885000067,49.38987866800005],[21.823561940000047,49.38540479100004],[21.798321704000045,49.37735272700007],[21.783027710000056,49.35670737000004],[21.76026037400004,49.38340829200007],[21.72926967500007,49.40404841900005],[21.719672536000076,49.41044021400006],[21.666237249000062,49.41557508000005],[21.628285548000065,49.44522608700004],[21.444142921000036,49.413129954000055],[21.39771250000007,49.433793999000045],[21.27820841700003,49.45747984600007],[21.236018224000077,49.43523786800006],[21.201051817000064,49.40346945300007],[21.180218919000026,49.40552933500004],[21.126166025000032,49.43257467500007],[21.064629122000042,49.42241526600003],[21.055836037000063,49.40856577300008],[21.094099351000068,49.381230455000036],[21.095631612000034,49.37141242800004],[21.040971223000042,49.36137511100003],[20.997211228000026,49.33054359800008],[20.984318777000055,49.30948528600004],[20.93231383400007,49.299197571000036],[20.86493924000007,49.343206689000056],[20.83317347800005,49.336461737000036],[20.808264270000052,49.34487590400005],[20.763545544000067,49.37641005200004],[20.731295252000052,49.41532255300007],[20.694192693000048,49.41784016200006],[20.649949459000027,49.404464387000075],[20.614939500000048,49.41783299900004],[20.607211864000078,49.40404841900005],[20.598512113000027,49.38852977700003],[20.569626065000023,49.37741357600004],[20.55992616900005,49.38096714100004],[20.462463101000026,49.41507069900007],[20.438559933000022,49.41533956200004],[20.427067217000058,49.39928573600008],[20.400787824000076,49.39367765500003],[20.373782806000065,49.40374532100003],[20.331165863000024,49.40057219600004],[20.32253094500004,49.358170517000076],[20.315038229000038,49.34882636300006],[20.21969672800003,49.34839432100006],[20.176151881000067,49.326835998000035],[20.16345689700006,49.30979241600005],[20.144264332000034,49.31126972200008],[20.10167756000004,49.246638559000075],[20.082183591000046,49.18270684500004],[20.025141389000055,49.20156299200005],[20.001571230000025,49.221853252000074],[19.977432572000055,49.23030487900007],[19.914442122000025,49.230902564000075],[19.883929500000022,49.204176999000026],[19.84547427600006,49.19478219700005],[19.763521808000064,49.209717633000025],[19.76969169700004,49.23709034700005],[19.795770040000036,49.26774512500003],[19.81923396700006,49.27966536500003],[19.79590330600007,49.30066875300008],[19.80218956500005,49.362542079000036],[19.788732467000045,49.407522948000064],[19.75605680700005,49.409915073000036],[19.720585033000077,49.389442572000064],[19.636628939000047,49.41115572800004],[19.645087199000045,49.43224803600003],[19.639453531000072,49.45467523700006],[19.61379812900003,49.44923157900007],[19.577818164000064,49.460437581000065],[19.533603182000036,49.532571638000036],[19.52743240600006,49.57098892400006],[19.476995384000077,49.590386108000075],[19.467386500000032,49.61376699900006],[19.44923742900005,49.61170996700008],[19.438139699000033,49.59869819200003],[19.37544102800007,49.56741030300003],[19.36124667300004,49.538254590000065],[19.261938394000026,49.52987093300004],[19.23766501600005,49.51092370600003],[19.22318045000003,49.474660537000034],[19.225381151000022,49.45920534600003],[19.212003465000066,49.45062026900007],[19.190151985000057,49.438083207000034],[19.188195192000023,49.412028289000034],[19.117846223000072,49.40383702500003],[19.076866014000075,49.416844954000055],[19.029751498000053,49.395640134000075],[18.980659699000057,49.39700330800008],[18.971571339000036,49.410409145000074],[18.985775858000068,49.43097123000007],[18.963318679000054,49.45944986200004],[18.968355822000035,49.50416332800006],[18.93660885500003,49.51854133100005],[18.851551,49.51718899900004],[18.841208892000054,49.526549094000075],[18.856963292000046,49.54773456700008],[18.838688887000046,49.564508395000075],[18.83289661300006,49.586216758000035],[18.803311561000044,49.67788421600005],[18.77783421600003,49.68404251100003],[18.740114917000028,49.67894543400007],[18.71782584700003,49.685965785000064],[18.70437701000003,49.70412208000005],[18.652981702000034,49.70967639500003],[18.629098144000068,49.723071556000036],[18.62691140800007,49.74553665700006],[18.571746936000068,49.82905199600003],[18.60025615400002,49.86001473600004],[18.569419271000072,49.87994427400008],[18.575724,49.91042299900005],[18.570271091000052,49.91902191400004],[18.546986875000073,49.92254043100007],[18.533915617000048,49.901653381000074],[18.496948967000037,49.904166341000064],[18.426650008000024,49.93642993600008],[18.342217643000026,49.94520390900004],[18.341109467000024,49.93049153800007],[18.315950696000073,49.91864719100005],[18.284837467000045,49.93475826000008],[18.274233836000064,49.96320559900005],[18.220894272000066,49.97006202400007],[18.204946263000068,49.995065870000076],[18.17671224700007,49.99900192200005],[18.15674939400003,49.984781475000034],[18.11094653500004,49.99820504100006],[18.084603781000055,50.04389065000004],[18.035061,50.06577199900005],[18.009475429000076,50.05381533900004],[18.005752748000077,50.04214434600004],[18.012854572000037,50.033227784000076],[18.04282551500006,50.03442245700006],[18.041088914000056,50.00987572300005],[17.998002685000074,50.01543872000008],[17.955212501000062,50.004069274000074],[17.920794443000034,49.97926757400006],[17.86889200400003,49.97508613600007],[17.830967534000024,49.99380672800004],[17.828549174000045,50.00885228300007],[17.777009320000047,50.02369042600003],[17.753745215000038,50.071685365000064],[17.71503478300002,50.107750991000046],[17.690104949000045,50.11541299800007],[17.67350838400006,50.105831806000026],[17.658633208000026,50.10886254400003],[17.63743011500003,50.13036879800006],[17.610001758000067,50.142443737000065],[17.596832791000054,50.15803227100008],[17.603553481000063,50.16835812200003],[17.69796771700004,50.18461056500007],[17.718254216000048,50.203470580000044],[17.755723,50.20870185200005],[17.761061910000024,50.23620336300007],[17.726552515000037,50.263231923000035],[17.74814639400006,50.298223396000026],[17.711785621000047,50.32210973000008],[17.69061862500007,50.32524633700007],[17.683994736000045,50.29951373400007],[17.620384675000025,50.26833320500003],[17.588134920000073,50.276715644000035],[17.555219799000042,50.27034279600008],[17.503600495000057,50.274631301000056],[17.429605,50.25451299900004],[17.42137187700007,50.273660663000044],[17.388526033000062,50.28172396000008],[17.371358087000033,50.28123884100006],[17.352045850000025,50.266276101000074],[17.343722030000038,50.281987971000035],[17.349732214000028,50.305968705000055],[17.338386280000066,50.325362064000046],[17.29020864200004,50.31849482800004],[17.251192717000038,50.33127408300004],[17.206518285000072,50.36064810800008],[17.19626364000004,50.38649570600006],[17.144668710000076,50.38149146000006],[17.10556765900003,50.40457697800008],[17.058774363000055,50.40612647900008],[16.999388777000036,50.42533680100007],[16.97269087600006,50.42056489000004],[16.907924500000036,50.44945399900007],[16.882463064000035,50.44062031500005],[16.864934196000036,50.41003449800007],[16.910961779000047,50.38562135900003],[16.945499380000058,50.31851883200005],[17.005639657000074,50.29650649000007],[17.017603877000056,50.27586299600006],[17.005761276000044,50.25208678000007],[17.02481009400003,50.229244047000066],[16.99912586800002,50.219138712000074],[16.97192290000004,50.24163241100007],[16.955042931000037,50.22403675500004],[16.904119497000067,50.223105178000026],[16.88001228400003,50.201467121000064],[16.86327,50.19812299900008],[16.844553572000052,50.20500631600004],[16.81059384400004,50.187735658000065],[16.779849459000047,50.145779729000026],[16.745975800000053,50.13270259800004],[16.70716137200003,50.09828731300007],[16.634136074000025,50.11300266100005],[16.605793771000037,50.13511336100004],[16.58029,50.14278799900006],[16.580544974000077,50.15304103100004],[16.56094561200007,50.16815606800003],[16.55190643800006,50.22438346300004],[16.483296112000062,50.27188413600004],[16.435023729000022,50.32088328300006],[16.41120643200003,50.32370612400007],[16.39156894000007,50.32412210200005],[16.366401376000056,50.347958722000044],[16.359721038000032,50.37727212500005],[16.307572626000024,50.38099202400008],[16.28167756000005,50.370005193000054],[16.24517496900006,50.40913945200003],[16.21404493800003,50.41145397100007],[16.19933561600004,50.43475350400007],[16.20941760200003,50.448334113000044],[16.228761596000027,50.44655162000004],[16.256343272000038,50.47755812100007],[16.29450046900007,50.48207731200006],[16.315501960000063,50.505460706000065],[16.359517913000047,50.502405886000076],[16.396366744000034,50.52792221200008],[16.391082519000065,50.54132776300003],[16.407372146000057,50.549600361000046],[16.41120643200003,50.56926084400004],[16.443687845000056,50.581618855000045],[16.425901492000037,50.60303221000004],[16.41120643200003,50.611700142000075],[16.328510808000033,50.66453458500007],[16.295822679000025,50.66027835700004],[16.237045699000078,50.66935066600007],[16.21516904400005,50.63471540300003],[16.186360700000023,50.62978533900008],[16.16288915100006,50.64763319700006],[16.107318,50.66207299900003],[16.06906060700004,50.63890681100003],[16.05488927300007,50.612490998000055],[16.022730678000073,50.60179831600004],[15.99027532100007,50.613185024000074],[16.010538057000076,50.63061195600005],[15.988458876000038,50.68306513300007],[15.958159153000054,50.69102949900008],[15.866961856000046,50.67435573200004],[15.816829781000024,50.752804955000045],[15.70949805600003,50.738317161000055],[15.60111428700003,50.77599408800006],[15.535267500000032,50.77937599900008],[15.439051736000067,50.807810622000034],[15.396708236000052,50.77902206200008],[15.378363419000038,50.77849663300003],[15.369606008000062,50.79894708100005],[15.372404631000052,50.82464999000007],[15.358764632000032,50.844856367000034],[15.30977606600004,50.86280380900007],[15.279522875000055,50.89021996400004],[15.26884055100004,50.92518374100007],[15.28895958000004,50.95172649600005],[15.271460400000024,50.97720988100008],[15.247043569000027,50.98183478800007],[15.232291026000041,50.99667962500007],[15.180861315000072,50.98434280500004],[15.167680485000062,51.01797611900008],[15.144988178000062,51.01073092000007],[15.127904654000076,50.99226707500003],[15.10720516200007,50.993217024000046],[15.101000725000063,51.010278216000074],[15.063451023000027,51.01966900100007],[15.044187231000024,51.01315526500008],[15.02196663500007,51.02145927500004],[14.98281305100005,51.00702886200003],[14.974287704000062,50.987730174000035],[15.006319334000068,50.98261312000005],[15.017430108000042,50.969131993000076],[15.011918475000073,50.93984445500007],[14.99312128500003,50.921439356000064],[14.997001087000058,50.870306923000044],[14.96110617200003,50.86327282500008],[14.908984013000065,50.87424639500006],[14.823362,50.870550499000046],[14.824218,50.88804780700008],[14.892144563000045,50.93946219000003],[14.901546178000046,50.965938539000035],[14.916824963000067,50.97723825400004],[14.919336693000048,50.99259239500003],[14.96372060400006,51.053509243000065],[14.980520098000056,51.084495135000054],[14.981189156000028,51.11183144600005],[14.995424102000072,51.12531691600003],[14.996383636000076,51.160649102000036],[15.011245909000024,51.207803744000046],[15.033019112000034,51.24430156900007],[15.032059584000024,51.29044341300005],[14.985031401000072,51.33224977200007],[14.974183,51.363949999000056],[14.979060005000065,51.37369689700006],[14.96242382500003,51.393863202000034],[14.97125598100007,51.44165468300008],[14.949105724000049,51.46816482600008],[14.91513326200004,51.48222441200005],[14.85226653500007,51.49124272600005],[14.794642414000066,51.51672005900008],[14.738778265000064,51.526439045000075],[14.715228336000052,51.561558622000064],[14.729862,51.581776999000056],[14.763236902000074,51.60952609900005],[14.753243348000069,51.66567190300003],[14.733979420000026,51.68722719400006],[14.666943917000026,51.728913816000045],[14.645461528000055,51.79238435500008],[14.605104873000073,51.806733991000044],[14.591164186000071,51.82535867400003],[14.612763040000061,51.85483020100003],[14.690667104000056,51.902322920000074],[14.71891550600003,51.946078526000065],[14.707159906000072,51.972240999000064],[14.716716,52.00118799900008],[14.742852913000036,52.02838933000004],[14.755227,52.070024999000054],[14.684010555000043,52.11617074900005],[14.681904417000055,52.14122011100005],[14.700711072000047,52.16937509200005],[14.691844790000061,52.19507060500007],[14.708967347000055,52.21834969900004],[14.708899704000032,52.23819704400006],[14.685540142000036,52.25621586600005],[14.600891500000046,52.27205199900004],[14.57877731700006,52.288834258000065],[14.581372934000058,52.31100521600007],[14.563389376000032,52.33033276700007],[14.54957702400003,52.375763420000055],[14.534362,52.39500799900003],[14.550029046000077,52.430076591000045],[14.601799063000044,52.45882633200006],[14.632686050000075,52.49434533500005],[14.613310013000046,52.51265712000003],[14.606432135000034,52.53195415700003],[14.63509053200005,52.57403665600003],[14.597071750000055,52.60885572400008],[14.565063,52.62449699900003],[14.514601706000064,52.63993955900003],[14.498477,52.64735049900003],[14.46824874300006,52.65974427700007],[14.461730663000026,52.664422728000034],[14.457668320000039,52.67345062900006],[14.453348884000036,52.67680050000007],[14.436438,52.67990049900004],[14.346191210000029,52.752823455000055],[14.278203818000065,52.77553461100007],[14.21348190200007,52.81708042000008],[14.155697043000032,52.82709848400003],[14.13004810600006,52.83154519800007],[14.125820762000046,52.845334738000076],[14.156902842000022,52.87619475000008],[14.156692,52.895590999000035],[14.14185965200005,52.93907512000004],[14.143658,52.96136849900006],[14.191775194000058,52.98036518400005],[14.286577679000061,53.01779323900007],[14.341983155000037,53.050466046000054],[14.359998432000054,53.072427160000075],[14.384706166000058,53.13737418000005],[14.368612015000053,53.16823054400004],[14.375496927000029,53.19507190400003],[14.402700339000035,53.210838530000046],[14.42011003600004,53.23058831800006],[14.447765549000053,53.26196109500006],[14.443638469000064,53.272871363000036],[14.42024835500007,53.28236320500008],[14.40986521900004,53.30909728200004],[14.412157,53.32963599900006],[14.392891164000048,53.35483609600004],[14.392185969000025,53.37936413600005],[14.372639948000028,53.415098913000065],[14.369736487000068,53.45162863400003],[14.355603667000025,53.47221022400004],[14.350089276000062,53.49254174100008],[14.325984238000046,53.50757026200006],[14.306276138000044,53.54695281000005],[14.312402485000064,53.59246782200006],[14.315229686000066,53.61347219700008],[14.286352325000053,53.63535931000007],[14.275011894000045,53.666814557000066],[14.281061684000065,53.68213742100005],[14.267542,53.69780649900008],[14.301424395000026,53.701711964000026],[14.305281840000077,53.71150970300005],[14.287841193000077,53.72342791800003],[14.30579216700005,53.73889415500008],[14.320169877000069,53.73652102800003],[14.39831736900004,53.682693880000045],[14.521492976000047,53.661358077000045],[14.570799424000029,53.605759367000076],[14.59275023400005,53.59512857700008],[14.594508873000052,53.62174056900005],[14.613638069000046,53.63231850200003],[14.617406437000056,53.64688673400008],[14.549931714000024,53.67535912000005],[14.541168467000034,53.70381022200007],[14.559381704000032,53.75412670800006],[14.612637583000037,53.77060374200005],[14.608195616000046,53.82767189900005],[14.594434383000078,53.82354512500007],[14.583596516000057,53.807337791000066],[14.57336851100007,53.81989465600003],[14.579950429000064,53.83714325200003],[14.572588886000062,53.84694192900008],[14.540639989000056,53.857892811000056],[14.431981657000051,53.86459467700007],[14.425353173000076,53.87224378500008],[14.430952608000041,53.89445960200004],[14.386156665000044,53.89236566200003],[14.36945862500005,53.87883177600003],[14.382540813000048,53.86927966500008],[14.378244737000045,53.857190080000066],[14.406779611000047,53.85794374500006],[14.407366652000064,53.84683523100006],[14.356101287000058,53.83516647500005],[14.318117753000024,53.81647103800003],[14.274057036000045,53.828970483000035],[14.213077500000054,53.866479499000036],[14.203686873000038,53.91330514600003],[14.226302,53.928652999000064],[14.282167945000026,53.915123236000056],[14.386206103000063,53.91755365300003],[14.518984201000023,53.967123326000035],[14.745094891000065,54.01632653900003],[14.742436999000063,54.00674114600008],[14.70358826100005,53.98689635300008],[14.682720861000064,53.93782579800006],[14.637290399000051,53.89005507300004],[14.639856587000054,53.87906583000006],[14.700298667000027,53.92409690300008],[14.74768300200003,53.93684303600003],[14.748944154000071,53.94659170400007],[14.723693351000065,53.954086586000074],[14.720842007000044,53.967080062000036],[14.763743109000075,53.97849183900007],[14.820787087000042,54.039154686000074],[14.973729098000035,54.074383570000066],[15.267105369000035,54.14196028200007],[15.388074500000073,54.15890699900007],[15.489873081000042,54.167433344000074],[15.554952909000065,54.18656031800003],[15.67766529100004,54.20153098800006],[15.850942603000021,54.24110122600007],[16.002976561000025,54.25489263700007],[16.096306516000027,54.27329702600008],[16.22356748900006,54.32643589200006],[16.29684856600005,54.373155154000074],[16.314443272000062,54.38437239800004],[16.43314082200004,54.48750573700005],[16.48711950200004,54.51952530800003],[16.58836627200003,54.55464084500005],[16.699085,54.56924699900003],[16.721100164000063,54.56885159400008],[16.746341942000072,54.56839823100006],[16.762954080000043,54.569603477000044],[16.769464218000053,54.57128387600005],[16.78662240500006,54.57571275400005],[16.919236657000056,54.601043668000045],[17.049462138000024,54.66842030000004],[17.253531852000037,54.73187164700005],[17.666607,54.78323149900007],[17.833750206000047,54.809737710000036],[17.964449992000027,54.830464584000026],[18.330597735000026,54.83349962400007],[18.421197559000063,54.79448053800007],[18.396697989000074,54.73126177300003],[18.467634477000047,54.69528843000006],[18.472203372000024,54.634906769000054],[18.51070457800006,54.63239979800005],[18.51659455400005,54.60837329200007],[18.54172650000004,54.58447999900005],[18.54764521900006,54.57128387600005]],[[18.829608156000063,54.606143951000035],[18.815251900000078,54.59301129000005],[18.800428043000068,54.59947036700004],[18.801284468000063,54.60413437100004],[18.779376342000035,54.612911430000054],[18.77735427600004,54.62127427400003],[18.76455536900005,54.63687580200008],[18.714592714000048,54.67904817700003],[18.713636595000025,54.681176995000044],[18.723354941000025,54.68423675400004],[18.782306437000045,54.65427884300004],[18.824183532000063,54.62500443000005],[18.829608156000063,54.606143951000035]],[[18.688735670000028,54.69244990000004],[18.674989337000056,54.69223484200006],[18.667840703000024,54.69889447200006],[18.653067028000066,54.700078019000046],[18.638208881000025,54.713997919000064],[18.64191586100003,54.71637934600005],[18.689802600000064,54.69808195000007],[18.688735670000028,54.69244990000004]]]}