{"type":"Topology","objects":{"data":{"geometries":[{"properties":{"id":"ES","name":"Espa\u00f1a"},"type":"MultiPolygon","arcs":[[[0]],[[1]],[[2]],[[3]],[[4]],[[5]],[[6]],[[7]],[[8]],[[9]],[[10]],[[11]],[[12]],[[13]],[[14]],[[15]],[[16]],[[17]],[[18]],[[19]],[[20]],[[21]],[[22]],[[23]],[[24]],[[25]],[[26]],[[27]],[[28]],[[29]],[[30]],[[31]],[[32]],[[33]],[[34]],[[35]],[[36]],[[37]],[[38]],[[39]],[[40]]],"id":"feature_0"}],"type":"GeometryCollection"}},"bbox":[-18.159969805999935,27.63847853200008,4.317080831000055,43.781493685000044],"arcs":[[[-7.699736499999972,43.735114999000075],[-7.682575132999943,43.732472709000035],[-7.668418244999941,43.74525163800007],[-7.635563629999979,43.74948799400005],[-7.628973396999982,43.72543459100007],[-7.607691920999969,43.70090084800006],[-7.611348944999975,43.68342913300006],[-7.604159384999946,43.67573458900006],[-7.581927983999947,43.692774384000074],[-7.582214119999946,43.70843572000007],[-7.558216289999962,43.71331936900003],[-7.548577553999962,43.72885624500003],[-7.477117474999943,43.72493371300004],[-7.469960398999945,43.70482607800005],[-7.360217790999968,43.67022770300008],[-7.295636768999941,43.59482136500003],[-7.250925139999936,43.57489134200006],[-7.25885588999995,43.56018172000006],[-7.252395270999955,43.55039719400003],[-7.234422726999981,43.566704592000065],[-7.157846538999934,43.55507847100006],[-7.05482109299993,43.557363321000025],[-7.031837,43.54447149900005],[-7.021752250999953,43.55764779100008],[-6.989098208999962,43.55610560300005],[-6.943176816999937,43.571986931000026],[-6.852323281999929,43.56639551000006],[-6.800932094999951,43.556740528000034],[-6.769873509999968,43.56662703100005],[-6.722446323999975,43.55832916900005],[-6.632227431999979,43.56944206700007],[-6.536269740999956,43.54896494500008],[-6.482727477999958,43.551828053000065],[-6.463038099999949,43.565257759000076],[-6.431257248999941,43.55570478200008],[-6.358695869999963,43.55271730800007],[-6.238615454999945,43.589232827000046],[-6.183082986999977,43.56613358900006],[-6.104721435999977,43.55792177600006],[-6.029271319999964,43.583771703000025],[-5.997052684999971,43.57678683000006],[-5.95637213599997,43.58173338800003],[-5.921706342999926,43.60357875300008],[-5.908966292999935,43.62131335400005],[-5.876778090999949,43.62856523800008],[-5.845058392999931,43.65369583300003],[-5.791340102999925,43.63081636100003],[-5.783772117999945,43.61202412500006],[-5.758536636999963,43.58942412000005],[-5.70329100899994,43.56950907200007],[-5.68451661499995,43.54467878200006],[-5.617409316999954,43.55408893200007],[-5.491864100999976,43.54755755300005],[-5.411524178999969,43.553632795000055],[-5.380511921999926,43.53790141300004],[-5.291446937999979,43.53138011400006],[-5.217286197999954,43.48091007700003],[-5.210622828999931,43.47637532600004],[-5.135142840999947,43.48091007700003],[-5.120108485999936,43.48091007700003],[-5.083681980999927,43.47235923200003],[-5.041097607999973,43.46236287500005],[-4.924519350999958,43.457640946000026],[-4.621383164999941,43.39773493100006],[-4.512301,43.393203999000036],[-4.378399651999928,43.39220719800005],[-4.34782953499996,43.403846928000064],[-4.320845821999967,43.39011153600006],[-4.220055108999929,43.397212753000076],[-4.119318464999935,43.41780767100005],[-4.086040331999925,43.43405226400006],[-3.978519564999942,43.44394459000006],[-3.943086939999944,43.46824716900005],[-3.91608836599994,43.47235923200003],[-3.859946079999929,43.48091007700003],[-3.790620359999934,43.49146884700008],[-3.785792346999926,43.48091007700003],[-3.781882459999963,43.47235923200003],[-3.779428920999976,43.466993391000074],[-3.83237113499996,43.440285955000036],[-3.810633191999955,43.424597910000045],[-3.819045536999965,43.41223804400005],[-3.813847403999944,43.40576672000003],[-3.785165239999969,43.42086027200003],[-3.772959024999977,43.43968234400006],[-3.768944971999929,43.445872042000076],[-3.749807001999955,43.43459154400006],[-3.747285731999966,43.456378338000036],[-3.720323552999957,43.47235923200003],[-3.715511816999935,43.47521122200004],[-3.684337568999979,43.478542480000044],[-3.677715551999938,43.48091007700003],[-3.589828242999943,43.51233278900003],[-3.548738852999975,43.506636772000036],[-3.508406200999957,43.48091007700003],[-3.495000736999941,43.47235923200003],[-3.435966954999969,43.46079768300007],[-3.430099803999951,43.448009900000045],[-3.43961866099994,43.42910459500007],[-3.426499751999927,43.41708803000006],[-3.339011045999939,43.41499478700007],[-3.313017101999947,43.40503990500008],[-3.245145068999932,43.39929756500004],[-3.186465487999953,43.36291743500004],[-3.153338,43.35322199900003],[-3.09248122799994,43.35965611800003],[-3.020275280999954,43.32897341200004],[-3.015471347999949,43.34246097300007],[-3.029087930999935,43.37617121000005],[-2.952464377999945,43.41501591900004],[-2.936882410999942,43.43347583000008],[-2.813268150999932,43.43201864700006],[-2.754669889999946,43.45076975600006],[-2.692170869999927,43.40656988300003],[-2.644950988999938,43.41388416400008],[-2.619722022999952,43.393960882000044],[-2.511602818999961,43.37524074700008],[-2.461605516999953,43.33910441800003],[-2.412847,43.321082999000055],[-2.322707113999968,43.297647158000075],[-2.28167981699994,43.29564667900007],[-2.226543855999978,43.30925631700006],[-2.176881530999935,43.28913913300005],[-2.128505606999965,43.29007087200006],[-2.112491328999965,43.29911193100003],[-2.06826775299993,43.308011462000024],[-1.908991009999966,43.340064237000036],[-1.861821028999941,43.372670947000074],[-1.794429029999947,43.39192612900007],[-1.785978,43.350478999000075],[-1.741951686999926,43.32938818400004],[-1.728903,43.29608899900006],[-1.670097666999936,43.31282373100004],[-1.628744877999964,43.305524379000076],[-1.624958661999926,43.271083574000045],[-1.614602656999978,43.26114639700006],[-1.606978211999945,43.253830307000044],[-1.57443879899995,43.252803304000054],[-1.570823382999947,43.26114639700006],[-1.558930253999961,43.288591507000035],[-1.53227947299996,43.29400407600008],[-1.507519639999941,43.292314486000066],[-1.462012909999942,43.27258445900003],[-1.411895544999936,43.27124606900003],[-1.393700903999957,43.26114639700006],[-1.380979643999979,43.23542026700005],[-1.384762307999949,43.19311798200005],[-1.41954179399994,43.12674168900003],[-1.466477634999933,43.08531792700006],[-1.433879480999963,43.046410241000046],[-1.357740228999944,43.03209197100006],[-1.345533341999953,43.05176707700008],[-1.336480026999936,43.10011749600005],[-1.318986399999972,43.111168656000075],[-1.288143782999953,43.114888765000046],[-1.30300867099993,43.07421835300005],[-1.263291305999928,43.04725921000005],[-1.21290251299996,43.05012437200003],[-1.156064918999959,43.02816831600006],[-1.138755687999947,43.01242004800008],[-1.109546682999962,43.01823754600008],[-1.07318173699997,42.999965780000025],[-1.013069606999977,42.99023514300006],[-0.946424,42.95630473700004],[-0.907911239999976,42.961652179000055],[-0.82111675799996,42.952469216000054],[-0.75899673999993,42.96525876100003],[-0.736644592999937,42.94591384200004],[-0.724501,42.92015849900008],[-0.733853067999974,42.90937127800004],[-0.726529374999927,42.893194039000036],[-0.706472346999931,42.883252870000035],[-0.666490128999953,42.874159432000056],[-0.609296590999975,42.83385811200003],[-0.596752400999947,42.80808263900008],[-0.573040569999932,42.801904293000064],[-0.557384315999968,42.782125981000036],[-0.530073995999942,42.79537110500007],[-0.508305501999928,42.82273188200003],[-0.445878813999968,42.800091475000045],[-0.391990785999951,42.80251772400004],[-0.313342,42.849364999000045],[-0.212860284999977,42.798778362000064],[-0.158885812999927,42.78864565600003],[-0.111613512999952,42.73302679300008],[-0.044208438999931,42.69324058500007],[-0.017856747999929,42.689111085000036],[0.046042753000052,42.698734193000064],[0.183900668000035,42.73367284900007],[0.254534989000035,42.714845195000066],[0.271436590000064,42.69140648800004],[0.295494701000052,42.67745553300006],[0.314851687000044,42.683777055000064],[0.353279942000029,42.71797467300007],[0.375083418000031,42.715007367000055],[0.430802439000047,42.69119546200005],[0.477755500000058,42.70001999900006],[0.508497010000042,42.692101517000026],[0.519694064000021,42.69686245500003],[0.531133962000069,42.70172665000007],[0.580609983000045,42.69566479500003],[0.599615186000051,42.70313406900004],[0.660127,42.69095249900005],[0.669477548000032,42.68959108700005],[0.67634,42.691009499000074],[0.674384313000076,42.69965879800003],[0.681840974000067,42.708288279000044],[0.673919445000024,42.717740682000056],[0.68022250000007,42.72323599900005],[0.672693456000047,42.72908815300008],[0.662880292000068,42.74753961600004],[0.645854793000069,42.756610901000045],[0.652189882000073,42.76345447800003],[0.662095007000062,42.77415464000006],[0.64843877900006,42.783962805000044],[0.667541318000076,42.803531908000025],[0.662005653000051,42.837037948000045],[0.681191582000054,42.85403022000003],[0.713010181000072,42.85963493300005],[0.771784599000057,42.83845065600008],[0.858215,42.82574099900006],[0.92547823600006,42.791125961000034],[0.960598341000036,42.80343951000003],[0.986609438000073,42.78866068800005],[1.079787794000026,42.78519326400004],[1.112963387000036,42.76345447800003],[1.127513382000075,42.753920383000036],[1.133921976000067,42.72908815300008],[1.170633886000076,42.71012353200007],[1.229561983000053,42.72599557800004],[1.25796208600002,42.716298067000025],[1.353241518000061,42.718300217000035],[1.355467851000071,42.70145602900004],[1.38554072200003,42.68683269300004],[1.389444834000074,42.670698024000046],[1.412158529000067,42.653114870000024],[1.421210110000061,42.626974017000066],[1.442566,42.60366799900004],[1.435849700000063,42.59344240100006],[1.430380658000047,42.585115760000065],[1.440149782000049,42.566738368000074],[1.418870292000065,42.542244433000064],[1.446707756000023,42.53980750200003],[1.464200838000068,42.51452493700003],[1.422791501000063,42.48597654500003],[1.438271013000076,42.47460472700004],[1.453507692000073,42.43848316100008],[1.545421046000058,42.43294142900004],[1.563002123000047,42.455964477000066],[1.579381718000036,42.452866476000054],[1.597330322000062,42.464995249000026],[1.656400203000032,42.47033963300004],[1.668693322000024,42.499626609000074],[1.70158310000005,42.49156279700003],[1.725801,42.50440199900004],[1.731011,42.49240099900004],[1.825636430000031,42.48412104500005],[1.889674823000064,42.45056886300006],[1.934678495000071,42.45159073600007],[1.955969458000027,42.421605053000064],[1.968288915000073,42.37964286400006],[2.01454671700003,42.35061624300005],[2.082917871000063,42.36426258500006],[2.149192381000034,42.42047445500003],[2.201240264000035,42.41791793400006],[2.259013308000021,42.43650506800003],[2.310409758000048,42.42607769700004],[2.360727764000046,42.40365401300005],[2.428250670000068,42.39246734900007],[2.452610442000037,42.36928075800006],[2.482825286000036,42.342536633000066],[2.526938958000073,42.334114699000054],[2.543766145000063,42.33640430200006],[2.568396422000035,42.35690107100004],[2.667943029000071,42.342394340000055],[2.673510779000026,42.35267752100003],[2.657305712000039,42.38344513700008],[2.677600511000037,42.40409597200005],[2.693191979000062,42.40895102500008],[2.742684333000057,42.42436253400007],[2.772620167000071,42.413746864000075],[2.789713246000076,42.41694836400006],[2.840548216000059,42.456412456000066],[2.87187674300003,42.46484847200003],[2.918074230000059,42.45895938000007],[2.945322512000075,42.47959319900008],[2.970493617000045,42.46721961500003],[3.037066910000021,42.472639678000064],[3.089537843000073,42.42653175200007],[3.119095304000041,42.43699213100007],[3.174804,42.43537499900003],[3.175235597000039,42.43498057700003],[3.165218504000052,42.423071840000034],[3.159475443000076,42.38248973300006],[3.179524441000069,42.350528429000065],[3.193986636000034,42.342130661000056],[3.229823874000033,42.34788436700006],[3.246378450000066,42.33628882800008],[3.271930154000074,42.33621894700008],[3.312998722000032,42.31849239600007],[3.295383423000033,42.30329825500007],[3.279929730000049,42.26104210200003],[3.253681958000072,42.24490087000004],[3.235281691000068,42.24759141700008],[3.214173086000073,42.23847016700006],[3.161518842000021,42.260586484000044],[3.133269724000058,42.24292672300004],[3.114429565000023,42.208818834000056],[3.11357107300006,42.16963843000008],[3.124125566000032,42.13384158300005],[3.174559860000045,42.10805617300008],[3.207627642000034,42.06686872600005],[3.197219784000026,42.034360003000074],[3.199764882000068,42.00237098800005],[3.230184205000057,41.956938956000045],[3.208666410000035,41.90426080200007],[3.169735755000033,41.86517855200003],[3.099599581000064,41.84028517400003],[3.054646596000055,41.79155163200005],[2.980045946000075,41.75652867200006],[2.934211905000041,41.71932163300005],[2.819097029000034,41.685388714000055],[2.778513,41.64880749900004],[2.533022342000038,41.56994136800006],[2.452610442000037,41.53678785300008],[2.38237489200003,41.497023166000076],[2.261218582000026,41.45410805400007],[2.156384287000037,41.34581170900003],[2.141279869000073,41.30953599700007],[2.115364463000049,41.29089019200006],[2.023473515000035,41.26674841400006],[1.928635972000052,41.261009183000056],[1.854346053000029,41.235724839000056],[1.813385661000041,41.23472289800003],[1.645323500000075,41.195621499000026],[1.522035927000047,41.179223713000056],[1.395350311000072,41.134961549000025],[1.304190609000045,41.127700308000044],[1.231375853000031,41.108119112000054],[1.199474990000056,41.09230531400004],[1.167484096000067,41.060375658000055],[1.103840892000051,41.07108767900007],[1.047162511000067,41.06202942200008],[0.975765571000068,41.03289966500006],[0.866703160000043,40.94791420300004],[0.79117873000007,40.868596799000045],[0.705719596000051,40.80281258400004],[0.711344404000045,40.78773877000003],[0.73352309400002,40.77019239400005],[0.76573712000004,40.76916708200008],[0.75643192800004,40.78535180200004],[0.769011632000058,40.78830140600007],[0.83440229200005,40.733345590000056],[0.876999536000028,40.72633740300006],[0.881844882000053,40.715875426000025],[0.873748291000027,40.70081950300005],[0.840921324000021,40.676164895000056],[0.753554392000069,40.63858673400006],[0.696452299000043,40.63679702700006],[0.601468591000071,40.61841908200006],[0.54237069900006,40.56927086800005],[0.519694064000021,40.53053033800006],[0.515238500000066,40.52291849900007],[0.417571185000043,40.39827173700007],[0.404413541000054,40.358059523000065],[0.375083418000031,40.32797801100003],[0.328891555000041,40.280602790000046],[0.283096411000031,40.24705786900006],[0.260209729000053,40.20740063300008],[0.197281487000055,40.17612152700008],[0.183900668000035,40.153059074000055],[0.143516475000069,40.08345507400003],[0.11773547100006,40.06206774300006],[0.058338298000024,40.04119462600005],[0.039541859000053,40.01594952500005],[-0.010778301999949,39.911697221000054],[-0.083827670999938,39.85455928300007],[-0.188467,39.72195449900005],[-0.210366968999949,39.657092369000054],[-0.258231596999963,39.614717420000034],[-0.278843060999975,39.56934717000007],[-0.313323389999937,39.52385920300003],[-0.33357667599995,39.42219951000004],[-0.296217361999936,39.31765933200006],[-0.222617897999953,39.188442458000054],[-0.238546927999948,39.17065699400007],[-0.237936889999958,39.14626726300003],[-0.199563013999978,39.059442094000076],[-0.142456922999941,38.97898048600007],[-0.037616,38.88641349900007],[-0.002250991999972,38.86856355700007],[0.092525154000043,38.85411702700003],[0.183900668000035,38.80979559200006],[0.189755755000022,38.78059840100008],[0.219611770000029,38.75929491000005],[0.227209802000061,38.73885057900003],[0.183900668000035,38.717605363000075],[0.17298689200004,38.71334124600003],[0.149688654000045,38.68419470900005],[0.129819800000064,38.68517861200007],[0.09605553800003,38.66931734700006],[0.075287199000059,38.63801929700003],[0.046513861000051,38.63871994300007],[-0.025571296999942,38.61869306400007],[-0.057125639999924,38.58502346700004],[-0.058479750999936,38.558427781000034],[-0.090663357999972,38.53084013500006],[-0.150363752999965,38.532587772000056],[-0.181279745999973,38.51545460400007],[-0.297048078999978,38.48272824500003],[-0.362002984999947,38.44813609200003],[-0.400501875999964,38.40664254600006],[-0.410088505999965,38.35640961100006],[-0.450863504999973,38.35782210800005],[-0.503954207999925,38.32905613400004],[-0.518756480999969,38.28962011900006],[-0.51393501299998,38.20493453900008],[-0.535304801999928,38.190860506000035],[-0.590134844999966,38.18653375500003],[-0.618319225999926,38.16527077200004],[-0.638026195999942,38.12535302500004],[-0.652484879999975,37.99542061500006],[-0.665852516999962,37.979464165000024],[-0.694683593999969,37.96677774800003],[-0.706472346999931,37.94514286400005],[-0.721849954999925,37.916921666000064],[-0.745726582999964,37.89958480800004],[-0.762135499999943,37.84700799900003],[-0.75924605299997,37.80782964800005],[-0.78919045799995,37.809463512000036],[-0.808088603999977,37.77754474300008],[-0.844482918999972,37.74326697600003],[-0.853335780999942,37.719113304000075],[-0.824199213999975,37.677200490000075],[-0.795122194999976,37.656489101000034],[-0.744787892999966,37.638089765000075],[-0.71466576499995,37.643603615000075],[-0.709683177999977,37.62617953300003],[-0.728486948999944,37.60591187700004],[-0.812415317999978,37.580111156000044],[-0.858367864999934,37.581340418000025],[-0.924540922999938,37.559410410000055],[-0.950505052999972,37.56357576200003],[-0.983375216999946,37.591679629000055],[-1.020785063999938,37.57832858100005],[-1.072563035999963,37.57953610000004],[-1.108382874999961,37.56412734600008],[-1.130168456999968,37.540068475000055],[-1.159674480999968,37.54486342700005],[-1.182563648999974,37.563826842000026],[-1.21499877399998,37.57344024100007],[-1.241638511999952,37.57306456900005],[-1.270644813999979,37.560613481000075],[-1.327727190999951,37.55857199800005],[-1.456296753999936,37.484885062000046],[-1.488582344999941,37.42909708600007],[-1.53008891099995,37.42455693100004],[-1.630033,37.37518299900006],[-1.677850346999946,37.350253406000036],[-1.708956428999954,37.30474056500003],[-1.803437579999979,37.215698658000065],[-1.853578831999926,37.06385154800006],[-1.897189774999958,36.98766487700004],[-1.902118618999964,36.946232086000066],[-1.940605326999957,36.93280623100003],[-1.990056939999931,36.891665172000046],[-2.001203104999945,36.875950353000064],[-2.005917737999937,36.84168922300006],[-2.053413955999929,36.81137239900005],[-2.06826775299993,36.77550728700004],[-2.103521763999936,36.760422138000024],[-2.129962722999949,36.73230452200005],[-2.193907799999977,36.72459814700005],[-2.289912716999936,36.81777303200005],[-2.321810229999926,36.83391435400006],[-2.360528054999975,36.84094814500003],[-2.426822048999952,36.81318050700003],[-2.473436550999963,36.83490260000008],[-2.562395379999941,36.81460303700004],[-2.596312799999964,36.77829694900004],[-2.633672743999966,36.71440807400006],[-2.692170869999927,36.68854337200003],[-2.702905573999942,36.68379706700006],[-2.768693126999949,36.68186541000006],[-2.81234332799994,36.70434831700004],[-2.852678775999948,36.69799826000008],[-2.92348243999993,36.75043612800005],[-2.97712874299998,36.739842416000045],[-3.128691,36.75088799900004],[-3.160122830999967,36.74527047000004],[-3.249317735999966,36.75344548600003],[-3.33066271499996,36.739558758000044],[-3.365226588999974,36.71587846500006],[-3.428127083999925,36.69503759400004],[-3.47809024299994,36.69773298700005],[-3.522698998999942,36.722539503000064],[-3.55830352299995,36.71737845900003],[-3.605402530999925,36.742749100000026],[-3.65673800899998,36.74475097900006],[-3.680388562999951,36.731057289000034],[-3.731429680999952,36.72326577600006],[-3.749584444999925,36.734778350000056],[-3.777457499999969,36.737926499000025],[-3.843043355999953,36.75294510500004],[-3.958340126999929,36.72758747800003],[-4.068261154999959,36.747168171000055],[-4.109718116999943,36.72583561500005],[-4.184099624999931,36.714847097000074],[-4.334578260999933,36.71308981200008],[-4.387417899999946,36.72125922400005],[-4.418060743999945,36.714535958000056],[-4.511011348999943,36.59905771500007],[-4.539519481999946,36.580984356000044],[-4.594063308999978,36.56777265200003],[-4.640395686999966,36.50842640400003],[-4.737818071999925,36.48641909500003],[-4.856075295999972,36.50619601500006],[-4.92903892399994,36.50076518900005],[-5.004608655999959,36.46121317800004],[-5.078974868999978,36.449823594000065],[-5.177084456999978,36.41251018400004],[-5.219404119999979,36.374240678000035],[-5.252405,36.31127549900003],[-5.314498146999938,36.231300728000065],[-5.339225,36.15203499900008],[-5.35152249999993,36.15256899900004],[-5.388609902999974,36.17833067500004],[-5.42855248799998,36.172296636000056],[-5.445563941999978,36.14498980600007],[-5.436633520999976,36.124942961000045],[-5.440874874999963,36.093841765000036],[-5.429657618999954,36.080346795000025],[-5.433407192999937,36.07131792700005],[-5.459688372999949,36.05326872300003],[-5.487408978999952,36.05203151100005],[-5.604566419999969,36.010510630000056],[-5.643788162999954,36.046747011000036],[-5.679496331999928,36.06322836700008],[-5.718845084999941,36.06007878100007],[-5.771795834999978,36.08472623500006],[-5.800216602999967,36.08254890400008],[-5.870221685999979,36.153588110000044],[-5.913198516999955,36.18262136100003],[-5.97966510599997,36.178369341000064],[-6.035734838999929,36.18533504200008],[-6.103127843999971,36.28348375100006],[-6.147953616999928,36.30352431000006],[-6.177120310999953,36.36083124400005],[-6.215735621999954,36.39116826700007],[-6.252895516999956,36.45791771900008],[-6.25154546999994,36.46745768400007],[-6.21721219899996,36.46933929800008],[-6.175370210999972,36.51811947600004],[-6.193359272999942,36.52465108700005],[-6.214251019999949,36.50971434300004],[-6.242326417999948,36.51060168200007],[-6.25260015899994,36.52423736800006],[-6.231839241999978,36.53579375100003],[-6.225519318999943,36.56149192700008],[-6.231357911999964,36.57930539300003],[-6.264056799999935,36.58170064900003],[-6.298563119999926,36.61564836500003],[-6.339061921999928,36.62446547900004],[-6.360901761999969,36.617846299000064],[-6.386688601999936,36.62902061400007],[-6.436948529999938,36.71627824800004],[-6.436928490999946,36.74160493800008],[-6.345561,36.798766999000065],[-6.372155139999961,36.796685790000026],[-6.394279329999961,36.80698476400005],[-6.462991863999946,36.92400878700005],[-6.510313963999977,36.96799050200008],[-6.586023140999941,37.01628808900006],[-6.791570745999934,37.11922244800007],[-6.889625054999954,37.15816771800007],[-6.923608851999973,37.16088486700005],[-7.052401756999927,37.207744837000064],[-7.280247243999952,37.20074002900003],[-7.324029566999968,37.19250681900007],[-7.36497286599996,37.17282164900007],[-7.40191649999997,37.17482749900006],[-7.415365982999958,37.22782392900007],[-7.428075846999945,37.244226791000074],[-7.424947378999946,37.27497850800006],[-7.440932016999966,37.31514376900003],[-7.440442240999971,37.38384792900007],[-7.458702747999951,37.408379456000034],[-7.449728027999981,37.42067396700003],[-7.467972799999927,37.48801231500005],[-7.494615851999981,37.520464412000024],[-7.51269149999996,37.526256499000056],[-7.51979704799993,37.55459673000007],[-7.500677038999982,37.582903255000076],[-7.499801194999975,37.60238654700004],[-7.47055189799994,37.629185662000054],[-7.448222112999929,37.66663850600003],[-7.444785555999943,37.69637192500005],[-7.417896589999941,37.75805709600007],[-7.326494539999942,37.81582074800008],[-7.28400178399994,37.870889788000056],[-7.280513549999966,37.89419058500005],[-7.251264768999931,37.95097999600006],[-7.258086399999968,37.981402665000076],[-7.199042839999947,38.00241805200005],[-7.16586934999998,37.99440056900005],[-7.130037344999948,38.00241093500006],[-7.125894004999964,38.02764362100004],[-7.099012949999974,38.041198129000065],[-7.049557992999951,38.01694807500007],[-7.007111363999968,38.024444595000034],[-6.990158580999946,38.06146397400005],[-6.987505284999941,38.09971571800003],[-6.972883769999953,38.11089431900007],[-6.957128588999979,38.14464901700006],[-6.965131127999939,38.16981014800007],[-6.931738499999938,38.20837799900005],[-6.952208103999965,38.21485892100003],[-7.004445041999929,38.20368134900008],[-7.02641478299995,38.18562478700005],[-7.064856534999933,38.18287104900003],[-7.082110866999926,38.17324692700004],[-7.107952499999953,38.18812149900003],[-7.140906489999963,38.24060693600006],[-7.150670937999962,38.27174097300008],[-7.171172124999941,38.28370097100003],[-7.204346056999952,38.330140406000055],[-7.262726783999938,38.38584685400008],[-7.28263755699993,38.41915466900008],[-7.328688694999926,38.44143427200004],[-7.299061258999927,38.47387228100007],[-7.300548642999956,38.480446603000075],[-7.320132374999957,38.48213899600006],[-7.301551977999964,38.54267519900003],[-7.248037390999968,38.62246080600005],[-7.268358374999934,38.63917797100004],[-7.262521751999941,38.704668404000074],[-7.249169643999949,38.729025335000074],[-7.203135,38.751017499000056],[-7.131273208999971,38.81129657400004],[-7.090890374999958,38.81964539300003],[-7.070644483999956,38.850479809000035],[-7.040222899999947,38.86726492500003],[-7.035780301999978,38.88120758800005],[-7.047493485999951,38.90723505300008],[-6.955608860999973,39.02345660700007],[-6.964659178999966,39.03981771000008],[-6.962953893999952,39.059184936000065],[-6.978371912999933,39.083005350000064],[-7.020879062999938,39.11184344700007],[-7.052172811999981,39.117156625000064],[-7.109380357999953,39.10105708200007],[-7.14255596199996,39.110818350000045],[-7.13846424999997,39.169686316000025],[-7.212838252999973,39.18987053600006],[-7.240814684999975,39.21067463500003],[-7.245523625999965,39.25309898900008],[-7.231467,39.27843099900008],[-7.30682505599998,39.33902054600003],[-7.320526292999944,39.38303906900006],[-7.30440026499997,39.413339233000045],[-7.299639959999979,39.459833478000064],[-7.376080509999952,39.49107735300004],[-7.387911690999942,39.50364775400004],[-7.394045023999979,39.52965767300003],[-7.430721521999942,39.53658859600006],[-7.462831749999964,39.57182603000007],[-7.495790718999956,39.58904042300003],[-7.542929,39.662814999000034],[-7.460214759999928,39.66356959700005],[-7.408850429999973,39.648651950000044],[-7.335125683999934,39.64291493400003],[-7.260857113999975,39.66599060500005],[-7.149294778999945,39.65414242600008],[-7.122947857999975,39.66329579400008],[-7.06438170499996,39.65897687800003],[-7.02459164499993,39.66927657000008],[-7.011391308999976,39.67934829500007],[-6.990809162999938,39.72567042800006],[-6.979774787999929,39.773934602000054],[-6.98717110299998,39.79582020200007],[-6.982701289999966,39.81433621900004],[-6.944845993999934,39.832357811000065],[-6.923608851999973,39.85674505900005],[-6.905801727999972,39.87299172000007],[-6.904716408999946,39.92200844600006],[-6.887986631999979,39.942863585000055],[-6.87093639099993,40.01594952500005],[-6.895565500999965,40.05868628500008],[-6.91467778599997,40.066928424000025],[-6.923608851999973,40.087605487000076],[-6.943755155999952,40.111055211000064],[-7.00626361999997,40.12475449100003],[-7.024729008999941,40.18660980200008],[-7.006813898999951,40.22858818900005],[-6.964109268999948,40.24123811800007],[-6.95129849999995,40.257445999000026],[-6.923608851999973,40.258021678000034],[-6.878312604999962,40.261784369000054],[-6.865144,40.27069449900006],[-6.858071114999973,40.30092778100004],[-6.795660904999977,40.33096307200003],[-6.785294162999946,40.36480439700006],[-6.833434489999945,40.40840667700007],[-6.847485848999952,40.44837884700007],[-6.797911781999971,40.51537852700005],[-6.807958425999971,40.553193167000074],[-6.841866215999971,40.56991507500004],[-6.797078723999959,40.658661031000065],[-6.828818087999935,40.744882715000074],[-6.819251754999925,40.80633870100007],[-6.823159767999925,40.84024549800006],[-6.80439735899995,40.84710948500003],[-6.80232422499995,40.85749735500008],[-6.810862258999975,40.87952551300003],[-6.845903859999964,40.89914251400006],[-6.862417381999933,40.95013228100004],[-6.923608851999973,41.00696381700004],[-6.930719529999976,41.01688730600006],[-6.929903499999966,41.02946649900008],[-6.923608851999973,41.03317135000003],[-6.852879993999977,41.02736567300008],[-6.811832771999946,41.03654806600008],[-6.758139796999956,41.10082309000006],[-6.766278218999958,41.13248667700003],[-6.705410670999981,41.17761326300007],[-6.689786,41.20524149900007],[-6.646776512999963,41.244837966000034],[-6.590790416999937,41.25138918500005],[-6.57864396399998,41.24125594800006],[-6.559945598999946,41.24406104500008],[-6.523604248999959,41.27183500500007],[-6.504388674999973,41.26557201700007],[-6.485135942999932,41.27264647100003],[-6.487878835999936,41.285751237000056],[-6.479713,41.29437999900006],[-6.444157483999959,41.30516918700005],[-6.417261275999977,41.34244128100005],[-6.386695405999944,41.35786428900008],[-6.383037916999967,41.38557503900006],[-6.345675680999932,41.38164083000004],[-6.324570531999939,41.38831271400005],[-6.325205015999927,41.411771316000056],[-6.30438940199997,41.428398007000055],[-6.295904199999939,41.459343397000055],[-6.197079199999962,41.57037620600005],[-6.200015830999973,41.58813433100005],[-6.263401874999943,41.63958534100004],[-6.30955040799995,41.664592593000066],[-6.44293870599995,41.68249899800003],[-6.460313528999961,41.668164286000035],[-6.495535349999955,41.658862645000056],[-6.546108112999946,41.685734110000055],[-6.54597038299994,41.70613364800005],[-6.564928674999976,41.746274527000026],[-6.531146105999937,41.82070876200004],[-6.519779454999934,41.870421633000035],[-6.567282663999947,41.88411869400005],[-6.559964425999965,41.90331379100007],[-6.547547728999973,41.93588169700007],[-6.578115165999975,41.96264678400007],[-6.588290727999947,41.96465164700004],[-6.621439094999971,41.94169894500004],[-6.632227431999979,41.94110049500006],[-6.717310651999981,41.93638076900004],[-6.74938995399998,41.94520731600005],[-6.77322496499994,41.98484495800005],[-6.805689529999938,41.99124802700004],[-6.825654706999956,41.94692238700003],[-6.923608851999973,41.94465206900003],[-6.943218476999959,41.94711160700007],[-6.963390244999971,41.96987255700003],[-6.985800499999925,41.97144699900008],[-7.011578276999956,41.95115367600005],[-7.061141352999925,41.95003567900005],[-7.075603615999967,41.953999415000055],[-7.091380275999938,41.97440613900005],[-7.12283660099996,41.98689211400006],[-7.177091854999958,41.97760990200004],[-7.185497280999925,41.96250190100005],[-7.177212578999956,41.91973551400008],[-7.186761832999935,41.90331379100007],[-7.200464499999953,41.87974949900007],[-7.314728216999981,41.84476959800003],[-7.370432797999968,41.84961283100006],[-7.424683030999972,41.81012770500007],[-7.429665698999941,41.83254340500008],[-7.454823042999976,41.86363671200007],[-7.498419088999981,41.86972649100005],[-7.522598217999928,41.84203963600004],[-7.607900983999969,41.83139864000003],[-7.610733642999946,41.84564486800008],[-7.591567521999934,41.878641378000054],[-7.652294669999947,41.882585138000024],[-7.695952591999969,41.90331379100007],[-7.702351488999966,41.90635196800008],[-7.718394769999975,41.90331379100007],[-7.839685288999931,41.880344543000035],[-7.848226305999958,41.86544045800008],[-7.878450021999981,41.853355117000035],[-7.889240373999939,41.861278119000076],[-7.886926398999947,41.90331379100007],[-7.885937507999927,41.92127799200006],[-7.899455125999964,41.92682420800003],[-7.91207654599998,41.90331379100007],[-7.924892941999929,41.87944018200005],[-7.979314035999948,41.871685315000036],[-8.01388904299995,41.832217300000025],[-8.05186249999997,41.820613999000045],[-8.057909670999948,41.81716930700003],[-8.094769699999972,41.80985960600003],[-8.10867938499996,41.812004681000076],[-8.12905819499997,41.80906675700004],[-8.152625887999932,41.81749498800008],[-8.165075499999944,41.81830199900003],[-8.166420238999933,41.86921613700008],[-8.198825046999957,41.878087074000064],[-8.209384172999933,41.90331379100007],[-8.21420607899995,41.914833764000036],[-8.160666769999978,41.98126894400008],[-8.090383784999972,42.01574032900004],[-8.084367004999933,42.03392510200007],[-8.094106160999957,42.06589093900004],[-8.114090327999975,42.07948150800007],[-8.18154607899993,42.07051822500006],[-8.199000499999954,42.15441899900003],[-8.21813954199996,42.13709054900005],[-8.249753013999964,42.13631511400007],[-8.336223882999946,42.086528642000076],[-8.363552007999942,42.089286781000055],[-8.384101400999953,42.07779877400003],[-8.423064952999937,42.073681658000055],[-8.450217761999966,42.08249355400005],[-8.518152641999961,42.07764274700003],[-8.545973730999947,42.055570690000025],[-8.632583331999967,42.04787662000007],[-8.655008347999967,42.03106708200005],[-8.668023540999968,41.999777462000054],[-8.733060386999966,41.97086229700005],[-8.756337247999966,41.93522372700005],[-8.823219430999927,41.90331379100007],[-8.863186,41.87206649900003],[-8.88009152199993,41.88997179900008],[-8.880248384999959,41.90331379100007],[-8.881473661999962,42.00752935500003],[-8.894242137999981,42.10572773700005],[-8.856363252999927,42.121845998000026],[-8.82851438299997,42.12023643400005],[-8.82320133099995,42.13637396400003],[-8.83684279199997,42.153189240000074],[-8.822910467999975,42.16156901700003],[-8.809611625999935,42.187881134000065],[-8.766629334999948,42.22338979800003],[-8.710311071999968,42.246567732000074],[-8.65720287299996,42.28314940100006],[-8.621998899999937,42.29056384900008],[-8.614206757999966,42.33584398000005],[-8.63544819799995,42.34237044900004],[-8.659003751999933,42.296240545000046],[-8.683948874999942,42.284525452000025],[-8.726022188999934,42.28482790000004],[-8.792258015999948,42.25234031100007],[-8.864002305999975,42.25442054400003],[-8.855645978999974,42.29756303600004],[-8.822762055999931,42.286055762000046],[-8.828631590999976,42.33696760200007],[-8.771891474999961,42.33412906400008],[-8.674724092999952,42.42112367100003],[-8.69746168599994,42.43246234500003],[-8.76976136099995,42.39417972800004],[-8.808075032999966,42.39787007000007],[-8.838233300999946,42.38995187000006],[-8.87347004299994,42.41533961300007],[-8.885839776999944,42.45266899200004],[-8.928802563999966,42.45677013100004],[-8.937221436999948,42.468922580000026],[-8.875430772999948,42.49614335700005],[-8.845801049999977,42.49404344200008],[-8.84304680799994,42.482064448000074],[-8.858658453999965,42.47858460600003],[-8.86615003199995,42.45440563300008],[-8.825346810999974,42.45772237700004],[-8.82713053699996,42.48401276800007],[-8.810216461999971,42.50146967000006],[-8.832382855999981,42.54737430100005],[-8.830750661999957,42.56590256100003],[-8.773933346999968,42.59877910500006],[-8.769994826999948,42.62124740100006],[-8.743959323999945,42.65016223200007],[-8.726749499999926,42.688251499000046],[-8.754394045999959,42.655639621000034],[-8.789625414999932,42.64344011000003],[-8.810184059999926,42.64652530600006],[-8.840969750999932,42.66812665000003],[-8.85731342899993,42.61978860600004],[-8.871742660999928,42.61755025000008],[-8.889412271999959,42.63203504200004],[-8.904159342999947,42.63077382900008],[-8.925333414999955,42.61229148700005],[-8.935979872999951,42.58592949400003],[-8.977318154999978,42.565530746000036],[-8.999424985999951,42.53630923500003],[-9.03382335799995,42.52839378800007],[-9.045103410999957,42.56088390800005],[-9.078522402999965,42.58202749600008],[-9.044740173999969,42.63710986500007],[-9.026434201999962,42.69510864000006],[-8.932772926999974,42.775393388000055],[-8.90103075999997,42.78866384600008],[-8.898276812999939,42.81042637400003],[-8.964773135999963,42.78460435100004],[-9.03926626499998,42.78866050800008],[-9.070368824999946,42.75616962000004],[-9.097312625999962,42.75102163100007],[-9.136659048999945,42.79319023200003],[-9.11368153999996,42.828868216000046],[-9.14084526199997,42.866545270000074],[-9.144290249999926,42.91158478800003],[-9.176492872999972,42.93314978400008],[-9.199319369999955,42.92330280200008],[-9.228570738999963,42.93321053500006],[-9.279358187999946,42.902932029000056],[-9.287528359999953,42.93049639100008],[-9.26324087699993,42.99310556300003],[-9.28499236999994,43.046637341000064],[-9.264943552999966,43.05661692100006],[-9.249530088999961,43.08215350100005],[-9.228991914999938,43.095991473000026],[-9.188290164999955,43.09978164100005],[-9.171945507999965,43.112305485000036],[-9.170529098999964,43.12990055100005],[-9.192650345999937,43.13534977300003],[-9.20181677499994,43.14805057600006],[-9.177658082999926,43.17672960600004],[-9.130194674999927,43.19180880000005],[-9.064188197999954,43.18982021000005],[-9.01383111399997,43.22275943100004],[-8.957919733999972,43.22882033600007],[-8.954123224999933,43.248181964000025],[-8.969175227999926,43.27964879600006],[-8.927659522999932,43.292053320000036],[-8.900147182999945,43.31417031900003],[-8.84153480499998,43.332274391000055],[-8.773335970999938,43.30415467600005],[-8.695071859999928,43.29560978100005],[-8.602197772999943,43.31627380100008],[-8.53626143799994,43.32032513100006],[-8.486249848999933,43.35467796000006],[-8.433021416999964,43.37579066600006],[-8.406785190999926,43.37576164600006],[-8.384233084999948,43.35219142700004],[-8.368134115999965,43.34889897900007],[-8.337942298999963,43.39001158100007],[-8.318845181999961,43.39701829400008],[-8.277119299999981,43.38207866500005],[-8.244748675999972,43.351598565000074],[-8.219678746999932,43.34319470600008],[-8.203309961999935,43.41475471700005],[-8.279986253999937,43.43230793200007],[-8.332176512999979,43.47235923200003],[-8.330404682999927,43.48091007700003],[-8.324361425999939,43.51007479700007],[-8.306951939999976,43.53600183000003],[-8.308161609999956,43.55910627500003],[-8.256782599999951,43.563110196000025],[-8.188196196999968,43.611497556000074],[-8.150488476999953,43.62226182100005],[-8.10124562599998,43.651391525000065],[-8.070944589999954,43.65240853300003],[-8.051430625999956,43.70288939500006],[-7.988702337999939,43.71322671100006],[-7.899859665999941,43.76344805000008],[-7.869519948999937,43.76254754000007],[-7.858779697999978,43.72791953400008],[-7.860142378999967,43.71513716100003],[-7.887200450999956,43.680894350000074],[-7.88427995099994,43.66849162300008],[-7.856253494999976,43.672962848000054],[-7.851082560999942,43.69678939600004],[-7.825768145999973,43.70106995300006],[-7.805675613999938,43.72269830100004],[-7.730336528999942,43.748800681000034],[-7.674039430999926,43.781493685000044],[-7.670272721999936,43.771004738000045],[-7.699736499999972,43.735114999000075]],[[3.134892543000035,39.92501706400003],[3.107039334000035,39.906371712000066],[3.08844590700005,39.907178534000025],[3.080322659000046,39.89342391400004],[3.088129320000064,39.87074904100007],[3.104987910000034,39.85946413100004],[3.188480009000045,39.88621981500006],[3.187124208000057,39.871909886000026],[3.192835638000076,39.858516972000075],[3.180863597000041,39.84444248300008],[3.128619400000048,39.837629795000055],[3.120678529000031,39.82992632300005],[3.122521075000066,39.80125882300007],[3.143941333000043,39.775424361000034],[3.252226353000026,39.73079844800003],[3.324748595000074,39.75973928700006],[3.347721418000049,39.786114171000065],[3.455724266000061,39.74272106500007],[3.455725375000043,39.724403737000046],[3.473087489000022,39.71492639600007],[3.457364349000045,39.70134689900004],[3.453916308000032,39.660418908000054],[3.435003879000021,39.636588380000035],[3.406132050000053,39.635001318000036],[3.393804890000069,39.62084013500004],[3.386513143000059,39.59565212100006],[3.397548333000032,39.57903878700006],[3.379467372000022,39.573252909000075],[3.369890570000052,39.55717148100007],[3.298764174000041,39.50079686000004],[3.272639913000035,39.41917087200005],[3.242802575000042,39.37756043400003],[3.176590980000071,39.33172952500007],[3.118635450000056,39.310882063000065],[3.064937709000048,39.26765358000006],[3.050200821000033,39.26867707000008],[3.011731754000039,39.30976505000007],[2.989537527000039,39.31837859600006],[2.98598284000002,39.34100211500004],[2.958910579000076,39.36062595000004],[2.930757692000043,39.36323493000003],[2.909227631000022,39.355298806000064],[2.883154362000028,39.364503109000054],[2.826808784000036,39.358317475000035],[2.785818454000037,39.36680107700005],[2.741597537000075,39.41075710500007],[2.745304633000046,39.44142483400003],[2.725449827000034,39.47465749600008],[2.746734427000035,39.510946524000076],[2.693191979000062,39.54758958900004],[2.684028235000028,39.55386101900007],[2.636306012000034,39.56703937700007],[2.621839756000043,39.548478095000064],[2.60282654100007,39.54968232900006],[2.58504673300007,39.53468336900005],[2.545966087000068,39.524882769000044],[2.514950486000032,39.46014409900005],[2.481174811000074,39.47393563300005],[2.461755766000067,39.500798073000055],[2.468203265000056,39.51767599400006],[2.452627325000037,39.53458773800003],[2.424808240000061,39.52676176500006],[2.411222268000074,39.53500932000003],[2.390045453000027,39.52429378800008],[2.381989820000058,39.53848290800005],[2.371773263000023,39.52739031600004],[2.357781605000071,39.52799579300006],[2.366207923000047,39.54101360200008],[2.376299503000041,39.546364338000046],[2.351499972000056,39.56320768100005],[2.347672200000034,39.587659332000044],[2.364038736000055,39.60969387400007],[2.452627325000037,39.64917767700007],[2.526434835000032,39.69892762200004],[2.555910176000054,39.70152593800003],[2.581242666000037,39.71454307500005],[2.632559202000039,39.76059187000004],[2.658344969000041,39.77073684700008],[2.673066551000034,39.79352186800003],[2.693191979000062,39.80480941500008],[2.734359651000034,39.82789871400007],[2.758627396000065,39.83211959600004],[2.782380380000063,39.85451442300007],[2.843659573000025,39.86431288700004],[2.949572483000054,39.91603037500005],[2.981086160000075,39.91022673500004],[3.028536551000059,39.932684348000066],[3.069798694000042,39.923026621000076],[3.119179883000072,39.93305891800003],[3.170166053000059,39.95923491700006],[3.20972458600005,39.95743427800005],[3.199414266000076,39.944529474000035],[3.160414956000068,39.927196448000075],[3.134892543000035,39.92501706400003]],[[-16.13622578899998,28.58006732900003],[-16.122822033999967,28.556265653000025],[-16.12931146899996,28.534656661000042],[-16.23431379999994,28.484959598000046],[-16.25216450399995,28.456093192000026],[-16.35702759999998,28.380392615000062],[-16.367996037999944,28.354768338000042],[-16.361256641999944,28.313094165000052],[-16.37204325999994,28.29548832300003],[-16.422160662999943,28.20666314700003],[-16.43099502399997,28.14672696300005],[-16.543575287999943,28.030869921000033],[-16.596930260999954,28.027329465000037],[-16.643483085999947,28.00603443500006],[-16.684561507999945,28.00005165300007],[-16.704460223999945,28.00906564400003],[-16.710029909999946,28.03925858300005],[-16.733580419999953,28.055703934000064],[-16.73962375499997,28.086559088000058],[-16.775825978999933,28.11868063000003],[-16.83223023499994,28.20216018800005],[-16.843477854999946,28.235863297000037],[-16.842004319999944,28.26213308000007],[-16.921907336999936,28.350064160000045],[-16.91490358699997,28.360126282000067],[-16.836376074999976,28.390374662000056],[-16.805471245999968,28.37741393500005],[-16.750393747999965,28.374394296000048],[-16.67067836399997,28.39974768700006],[-16.602694846999952,28.395142494000027],[-16.552645085999927,28.417184778000035],[-16.51586851999997,28.42044195400007],[-16.478376884999932,28.442630467000072],[-16.433583667999926,28.48584075100007],[-16.41079428599994,28.52694524700007],[-16.37204325999994,28.546173343000078],[-16.33911543599993,28.557625914000027],[-16.32276689699995,28.575271041000065],[-16.22132631599993,28.567036187000042],[-16.15888009699995,28.58743419700005],[-16.13622578899998,28.58006732900003]],[[-13.888194307999981,28.75642859100003],[-13.872292209999955,28.74452569400006],[-13.865756637999937,28.74485321800006],[-13.863940763999949,28.732127303000027],[-13.843318846999978,28.725901088000057],[-13.83111738699995,28.692605911000044],[-13.833334605999937,28.67388970500008],[-13.825223654999945,28.61409060300008],[-13.82331303999996,28.591326392000042],[-13.829740686999969,28.576129095000056],[-13.82609554499993,28.553424633000077],[-13.836636207999959,28.54162573600007],[-13.835388329999944,28.52591608700004],[-13.84371604699993,28.50435464800006],[-13.860180438999976,28.49658418000007],[-13.867303536999941,28.480666135000035],[-13.85713020199995,28.45904868300005],[-13.857335845999955,28.445262366000065],[-13.862257234999959,28.43348394900005],[-13.850711626999953,28.420442490000028],[-13.849043682999934,28.41076084200006],[-13.852982528999974,28.39386002200007],[-13.859383161999972,28.392824484000073],[-13.866819704999955,28.372837055000048],[-13.876956113999938,28.355661745000077],[-13.879176080999969,28.33961644200008],[-13.886839620999979,28.325960293000037],[-13.894591643999945,28.323742880000054],[-13.894161640999926,28.314928782000038],[-13.902513459999966,28.302142659000026],[-13.897972337999931,28.289841178000074],[-13.902299821999975,28.275651507000077],[-13.909804721999933,28.273483803000033],[-13.915076479999982,28.257811357000037],[-13.935880920999978,28.23461557400003],[-13.950916880999955,28.22802136300004],[-13.985489262999977,28.228400899000064],[-13.995504205999964,28.21823237600006],[-14.011564903999954,28.208344796000063],[-14.020356101999937,28.210792007000066],[-14.04293122799993,28.20256795100005],[-14.074187678999976,28.20074167100006],[-14.110828794999975,28.18913081000005],[-14.120704554999975,28.191322499000023],[-14.152207830999942,28.181826886000067],[-14.165836385999967,28.175045905000047],[-14.197955075999971,28.17329225900005],[-14.22138353899993,28.162998850000065],[-14.231381142999965,28.148827502000074],[-14.248463338999954,28.132600685000057],[-14.27436211099996,28.09771100900008],[-14.302104244999953,28.072909369000058],[-14.32174822899998,28.050280342000065],[-14.330702989999963,28.04524778700005],[-14.36675885699998,28.053277773000048],[-14.380315395999958,28.052667144000054],[-14.407702153999935,28.058315390000075],[-14.451911116999952,28.07309218900008],[-14.47419337599996,28.077053876000036],[-14.500616045999948,28.07138552400005],[-14.50384086899993,28.073590609000064],[-14.49340277999994,28.085436981000043],[-14.49749313999996,28.10105643000003],[-14.49159084799993,28.108695441000066],[-14.48079759899997,28.10190478100003],[-14.45645163699993,28.104214212000045],[-14.441578376999928,28.101418066000065],[-14.42560049499997,28.103445823000072],[-14.370588475999966,28.118064890000028],[-14.310910408999973,28.147214442000063],[-14.297907106999958,28.158815168000046],[-14.249712896999938,28.19186776400005],[-14.223809116999973,28.216019454000048],[-14.215572589999965,28.228096352000023],[-14.209468116999972,28.258000115000073],[-14.212486639999952,28.287312795000048],[-14.207877328999928,28.31492094200007],[-14.20084200499997,28.33106968100003],[-14.178814297999963,28.34622711000003],[-14.164035336999973,28.368468644000075],[-14.16198183199998,28.389054934000058],[-14.15671069299998,28.395621093000045],[-14.157808111999941,28.41146638200007],[-14.150309125999968,28.422491405000073],[-14.145873251999944,28.43850442200005],[-14.101142567999943,28.475343370000076],[-14.088098327999944,28.502274127000078],[-14.064514968999958,28.543447841000045],[-14.065437567999936,28.551963568000076],[-14.044540773999927,28.57751397800007],[-14.033702207999966,28.59562738300008],[-14.038557983999965,28.61409060300008],[-14.009638172999928,28.674837792000062],[-14.017761097999937,28.694392075000053],[-14.016234374999954,28.71087185700003],[-14.006126619999975,28.71143205000004],[-13.996367315999976,28.722366661000024],[-13.977949462999959,28.733120850000034],[-13.955047132999937,28.736560526000062],[-13.942419642999937,28.74480574200004],[-13.937683548999928,28.74179447000006],[-13.926450644999932,28.751097403000074],[-13.90892342799998,28.74715833700003],[-13.888194307999981,28.75642859100003]],[[-15.428891895999982,28.12921032400004],[-15.415028228999972,28.111053295000033],[-15.411775890999934,28.100412060000053],[-15.418826283999977,28.061843897000074],[-15.41483292199996,28.04674285300007],[-15.388120237999942,28.028068089000044],[-15.384342496999977,28.017050523000023],[-15.375165257999981,28.00878029200004],[-15.369134871999961,27.99227919200007],[-15.382622113999957,27.972773803000052],[-15.380054876999964,27.949230743000044],[-15.369845236999936,27.94399210000006],[-15.358757013999934,27.932521036000026],[-15.373907090999978,27.93497506400007],[-15.382582827999954,27.929473045000066],[-15.386547881999945,27.902291959000024],[-15.393334333999974,27.889476253000055],[-15.382015131999935,27.875027593000027],[-15.386041466999927,27.857993398000076],[-15.397779861999936,27.854995545000065],[-15.414416093999932,27.845229172000074],[-15.421838931999957,27.831412451000062],[-15.42115864799996,27.81572515000005],[-15.428189194999959,27.805260848000046],[-15.441737083999953,27.800033953000025],[-15.490321564999931,27.79234094900005],[-15.50758486799998,27.781341325000028],[-15.522234546999982,27.779641019000053],[-15.534556626999972,27.77004177500004],[-15.550569940999935,27.766324561000033],[-15.566394923999951,27.754995774000065],[-15.569546835999972,27.73907080500004],[-15.57972364099993,27.734648376000052],[-15.60028773099998,27.735501353000075],[-15.619010334999928,27.74812231100003],[-15.629924693999953,27.745785053000077],[-15.65711037799997,27.75644126700007],[-15.673039322999955,27.74981930000007],[-15.69127412499995,27.77153884100005],[-15.699087002999931,27.772019581000052],[-15.713050471999964,27.784196173000055],[-15.721346942999958,27.786177722000048],[-15.729306443999974,27.79694777700007],[-15.739245636999954,27.79955482300005],[-15.754103466999936,27.814440630000036],[-15.772133468999982,27.82123589100007],[-15.788031350999972,27.83574838900006],[-15.817129129999955,27.891925741000023],[-15.833470122999927,27.912111288000062],[-15.82809363399997,27.945570297000074],[-15.83402954099995,27.971471433000033],[-15.822967545999973,27.989378095000063],[-15.818223358999944,28.00384305800003],[-15.821308201999955,28.013740872000028],[-15.79062055099996,28.019461901000057],[-15.77241814599995,28.032222570000044],[-15.765796446999957,28.045301395000024],[-15.745902316999945,28.05085077600006],[-15.733691057999977,28.063472945000058],[-15.72140927099997,28.070335552000074],[-15.709197256999971,28.086672660000033],[-15.712017333999938,28.103712606000045],[-15.704800807999959,28.11763341900007],[-15.708169319999968,28.122116856000048],[-15.699840154999947,28.133458759000064],[-15.70289844499996,28.143135221000023],[-15.69704679199998,28.150935228000037],[-15.70842208099998,28.16511543100006],[-15.697471697999958,28.163856423000027],[-15.683741548999933,28.169956827000078],[-15.678541701999961,28.162174194000045],[-15.667096440999956,28.15867858100006],[-15.636506381999936,28.170712758000036],[-15.63010810999998,28.167546593000054],[-15.613033282999936,28.14776112900006],[-15.600405247999959,28.144840759000033],[-15.588680659999966,28.147001707000072],[-15.57743903499994,28.14383104600006],[-15.544354735999946,28.147116314000073],[-15.525269900999945,28.15401018700004],[-15.477511207999953,28.135514529000034],[-15.467617278999967,28.126130450000062],[-15.445124962999955,28.131807054000035],[-15.432157333999953,28.14599091200006],[-15.439301486999966,28.168449628000076],[-15.421613156999967,28.180099537000046],[-15.405911461999949,28.175658705000046],[-15.406671494999955,28.160029267000027],[-15.416026647999956,28.14772427500003],[-15.427570815999957,28.145605524000075],[-15.428891895999982,28.12921032400004]],[[-13.464256947999957,29.12809877500007],[-13.463358402999972,29.11575504700005],[-13.449718279999956,29.100354835000076],[-13.448469409999973,29.089510442000062],[-13.465706157999932,29.054909955000028],[-13.46873291299994,29.033963972000038],[-13.46538699499996,29.019681787000025],[-13.47557905399998,29.013993285000026],[-13.478103355999963,29.004305687000056],[-13.48851444199994,28.99616959900004],[-13.515894010999943,28.98117747300006],[-13.518550037999944,28.976330011000073],[-13.538618885999938,28.96813448300003],[-13.541986548999944,28.959258798000064],[-13.597684115999982,28.948255809000045],[-13.614876697999932,28.932303052000066],[-13.633582243999967,28.92643380100003],[-13.642976192999981,28.919831819000024],[-13.675826091999966,28.921293303000027],[-13.70103813399993,28.91774668100004],[-13.738957418999973,28.904348895000055],[-13.748954522999952,28.883411162000073],[-13.74990609699995,28.875598945000036],[-13.770967589999941,28.857119500000067],[-13.775581792999958,28.847999961000028],[-13.78712442099993,28.839726248000034],[-13.791837714999929,28.851549152000075],[-13.801090675999944,28.858587252000063],[-13.810837498999945,28.85691227800004],[-13.828980583999964,28.862241961000052],[-13.839838886999928,28.856936165000036],[-13.853245281999932,28.861873165000077],[-13.87162111799995,28.855725994000068],[-13.876618987999962,28.860352015000046],[-13.875285204999955,28.87553309100008],[-13.88085689999997,28.887251537000054],[-13.872847659999934,28.894042651000063],[-13.858863957999972,28.897127242000067],[-13.847051377999946,28.91493374500004],[-13.830102803999978,28.928888242000028],[-13.833872541999938,28.953603891000057],[-13.833659237999939,28.97020164500003],[-13.829864983999926,28.97708533900004],[-13.833374293999952,28.990052337000066],[-13.829202162999934,29.008272197000053],[-13.816440411999963,29.031469884000046],[-13.793265327999961,29.05157431300006],[-13.775581792999958,29.063116861000026],[-13.763217159999954,29.06692760800007],[-13.75221456099996,29.078806416000077],[-13.722852288999945,29.08476908800003],[-13.70765279799997,29.08017509000007],[-13.701014568999938,29.08942229200005],[-13.686413647999927,29.09310872800006],[-13.679950532999953,29.102754102000063],[-13.658200930999953,29.112869526000054],[-13.659959926999932,29.12202217600003],[-13.643028375999961,29.124245529000063],[-13.633210591999955,29.116582480000034],[-13.620281371999965,29.127562178000062],[-13.604223673999968,29.13517147600004],[-13.58456545599995,29.133201778000057],[-13.563059088999978,29.11770963400005],[-13.557009758999982,29.11645413900004],[-13.541142521999973,29.12318893400004],[-13.524215829999946,29.144401404000064],[-13.521764562999977,29.168456185000025],[-13.512879118999933,29.180539150000072],[-13.505357622999952,29.201802987000065],[-13.497460481999951,29.208610775000068],[-13.49623897999993,29.218126385000062],[-13.48090149799998,29.226413840000077],[-13.47020361999995,29.23751728800005],[-13.464482167999961,29.226613908000047],[-13.45441432299998,29.225816424000072],[-13.420026402999952,29.201411636000046],[-13.421169765999934,29.181527111000037],[-13.428691909999941,29.155430170000045],[-13.445587623999927,29.14709080700004],[-13.464256947999957,29.12809877500007]],[[4.09362167200004,40.06182257300003],[4.103334609000058,40.04641647100004],[4.111429421000025,40.053948512000034],[4.130740198000069,40.05701446300003],[4.121143990000064,40.03550394400003],[4.126413896000031,40.02801173000006],[4.139806214000032,40.03556014600008],[4.14147932700007,40.048753506000025],[4.138643646000048,40.06683744600008],[4.154597520000038,40.06743277400005],[4.17036747700007,40.060754287000066],[4.165676469000061,40.056459053000026],[4.161347407000051,40.03575537800003],[4.170361870000022,40.03518442400008],[4.170507851000025,40.026860998000075],[4.181653395000069,40.023376530000064],[4.18800436600003,40.032298182000034],[4.201198659000056,40.01956510700006],[4.199005474000046,40.00754881600005],[4.207512335000047,40.008325220000074],[4.223038676000044,39.99843937900005],[4.247296048000067,39.99997084200004],[4.260702982000055,39.99673633500004],[4.257305686000052,39.99054878600003],[4.261739600000055,39.97892618600008],[4.257202118000066,39.96461207600004],[4.266328753000039,39.95402971000004],[4.27710965700004,39.96640160000004],[4.290391938000027,39.96196734400007],[4.281068687000072,39.95243198900005],[4.276498510000067,39.93384031700003],[4.287844478000068,39.91365750400007],[4.306757821000076,39.89401435800005],[4.317080831000055,39.87705269500003],[4.308696373000032,39.872748933000025],[4.29935206600004,39.88275893100007],[4.295344297000042,39.87915668200003],[4.305831775000058,39.86703651300007],[4.30802029900002,39.84941549600006],[4.299900282000067,39.840374696000026],[4.302723324000056,39.83361877400006],[4.287980925000056,39.81549313700003],[4.272684875000039,39.809241593000024],[4.245689005000031,39.81602672400004],[4.237572097000054,39.815143628000044],[4.220082667000042,39.826540375000036],[4.207143423000048,39.82576424200005],[4.202648350000061,39.83345929700005],[4.193170783000028,39.833829768000044],[4.15644035300005,39.85508192000003],[4.13124743100002,39.86720226600005],[4.098694946000023,39.878445835000036],[4.08622931900004,39.88567818200005],[4.076652448000061,39.896785246000036],[4.020697321000057,39.92176917000006],[3.972025935000033,39.93322953000006],[3.962477358000058,39.93248656900005],[3.957265311000072,39.93858365400007],[3.947255875000053,39.93396560700006],[3.914949663000073,39.92976128600003],[3.898706008000033,39.922733555000036],[3.893255138000029,39.92724882300007],[3.876434567000047,39.922339418000035],[3.85374388300005,39.92215436400005],[3.833765401000051,39.925445041000046],[3.823144471000035,39.923017049000066],[3.820251818000031,39.92800629200008],[3.824960482000051,39.952301403000035],[3.833394241000065,39.96154468000003],[3.828660687000024,39.99359546100004],[3.796753111000044,39.998939921000044],[3.791761351000048,40.01753139500005],[3.808569465000062,40.02641092600004],[3.822038044000067,40.050213091000046],[3.86553284300004,40.05596247100004],[3.878454608000027,40.05355191700005],[3.885893236000072,40.05810826100003],[3.903389679000043,40.057113764000064],[3.908931644000063,40.050431348000075],[3.92070566700005,40.047012746000064],[3.921098053000037,40.05616591200004],[3.934813099000053,40.06170026900003],[3.943334431000039,40.057330551000064],[3.95964897600004,40.06046652600003],[3.970503497000038,40.053771218000065],[3.984128145000057,40.05231264200006],[3.99505711200004,40.058336463000046],[4.017927521000047,40.05892557200008],[4.032361192000053,40.06436591900007],[4.05090274600002,40.05355013700006],[4.073004100000048,40.059113798000055],[4.089225332000069,40.07846266400003],[4.095961059000047,40.08270895600003],[4.09362167200004,40.06182257300003]],[[-17.892639347999932,28.84152961500007],[-17.85715755299998,28.833073571000057],[-17.83068088999994,28.837039024000035],[-17.80873156599995,28.84258662800005],[-17.789331068999957,28.84335433600006],[-17.778100732999974,28.838580799000056],[-17.770591700999944,28.818827380000073],[-17.760727489999965,28.80554626000003],[-17.75793224599994,28.788064958000064],[-17.742640645999927,28.761855427000057],[-17.73512918399996,28.75758058200006],[-17.72471315599995,28.741062448000037],[-17.734599509999953,28.718995995000057],[-17.75235613899997,28.70511564700007],[-17.760184226999968,28.686968259000025],[-17.77034990599998,28.67604226000003],[-17.75682096099996,28.649150469000062],[-17.757217627999978,28.640098969000064],[-17.750401489999945,28.62124877000008],[-17.75568918999994,28.611708790000023],[-17.755029089999937,28.592332166000062],[-17.759563214999957,28.57390729800005],[-17.771922566999933,28.556310427000028],[-17.787252630999944,28.542399979000038],[-17.79677503499994,28.518276323000066],[-17.816669968999975,28.495587369000077],[-17.83380617499995,28.45794941300005],[-17.843690927999944,28.454486290000034],[-17.85576870899996,28.46009245600004],[-17.866543846999946,28.471151981000048],[-17.874866032999932,28.49417315000005],[-17.87618736099995,28.520411298000056],[-17.880018604999975,28.53741332000004],[-17.89968821599996,28.57110270900006],[-17.90585284699995,28.57390729800005],[-17.910795508999968,28.58587032300005],[-17.925204058999952,28.596547386000054],[-17.926086983999937,28.616586022000035],[-17.940409373999955,28.64253781700006],[-17.96333439199998,28.66765440100005],[-17.965569511999945,28.68514516600004],[-17.98086772599993,28.725494986000058],[-18.00531653099995,28.755148766000048],[-18.006538725999974,28.77513901800006],[-18.002904988999944,28.78602380500007],[-17.97966337099996,28.80421695900003],[-17.96615705199997,28.82631361800003],[-17.952511795999953,28.833569306000072],[-17.946715050999956,28.84200251900006],[-17.93087646899994,28.84461676600006],[-17.92045756799996,28.85644562500005],[-17.90690968399997,28.854795586000023],[-17.904070806999982,28.848021120000055],[-17.892639347999932,28.84152961500007]],[[1.538731256000062,39.10781084600006],[1.557242975000065,39.093853823000074],[1.567352628000037,39.097981108000056],[1.593234381000059,39.09614916900006],[1.602116908000028,39.09075302900004],[1.601241547000029,39.07776523300004],[1.592559334000043,39.075564428000064],[1.588647165000054,39.063066924000054],[1.59154359200005,39.056542242000035],[1.618435500000032,39.033223004000035],[1.615925597000057,39.026457],[1.604889455000034,39.027841995000074],[1.593624697000052,39.016509502000076],[1.586555795000038,39.01503292800004],[1.579277287000025,39.001123275000054],[1.578684548000069,38.99080941700004],[1.553375612000025,38.99163394900006],[1.533537848000037,38.98175921200004],[1.526375058000042,38.946067956000036],[1.511926260000052,38.945656],[1.503765761000068,38.93416668100008],[1.488725400000021,38.92672928300004],[1.473445325000057,38.91499518200004],[1.454595367000024,38.916487704000076],[1.452274459000023,38.91057350800003],[1.437986942000066,38.914927230000046],[1.436732408000069,38.90309127900008],[1.422736835000023,38.90437335400003],[1.409950348000052,38.89094206000004],[1.40410025500006,38.87679842500006],[1.406116932000032,38.860634195000046],[1.402510617000075,38.84800424300005],[1.40392547600004,38.83462673100007],[1.386621499000057,38.841436531000056],[1.371814207000057,38.83376717900006],[1.365280925000036,38.853362778000076],[1.353031388000034,38.865969359000076],[1.343933127000071,38.87011969400004],[1.323128648000022,38.86259279500007],[1.312507873000072,38.86805244800007],[1.306502446000025,38.86507375600007],[1.296736633000023,38.87549600600005],[1.27229195700005,38.878641628000025],[1.265207057000055,38.87565355300006],[1.25329505000002,38.859427641000025],[1.247856471000034,38.85763949300008],[1.237969632000045,38.870409118000055],[1.225590550000049,38.87413810700008],[1.223891792000074,38.88862123500007],[1.214131839000061,38.89885756100006],[1.221918620000054,38.91328676400008],[1.221421941000074,38.920963527000026],[1.23498128500006,38.937859411000034],[1.216068163000045,38.95822738700008],[1.230195894000076,38.97170327200007],[1.245669563000035,38.96705775400005],[1.266634092000061,38.968219341000065],[1.283249626000043,38.97300185100005],[1.302148423000062,38.96946808400003],[1.306736409000052,38.97755543000005],[1.295750992000023,38.98031856000006],[1.284539432000031,38.99906178800006],[1.297492605000059,39.00968437100005],[1.292224995000026,39.014647643000046],[1.292077517000052,39.02875372300008],[1.31102319300004,39.04367534600004],[1.32399545100003,39.04734655300007],[1.326222577000067,39.05254189400006],[1.34131906500005,39.053930120000075],[1.34509362600005,39.06430905800005],[1.362823816000059,39.07396270600003],[1.366550346000054,39.06446661100006],[1.380537203000074,39.06631631600004],[1.384441532000039,39.075567113000034],[1.396460125000033,39.079744944000026],[1.404287157000056,39.07547570300005],[1.415720661000023,39.077867867000066],[1.42528902600003,39.09182040300004],[1.439530902000058,39.082085885000026],[1.451940792000073,39.08921620700005],[1.451861052000027,39.09569471900005],[1.474446787000034,39.104711044000055],[1.483411526000054,39.10158973600005],[1.490196894000064,39.10978606200007],[1.49642263100003,39.099455557000056],[1.508389573000045,39.10412358800005],[1.507501627000067,39.11347857800007],[1.516810553000028,39.11589932000004],[1.541075560000024,39.11579444800003],[1.538731256000062,39.10781084600006]],[[-17.250676142999964,28.20502695500005],[-17.242699008999978,28.201974265000047],[-17.210623736999935,28.20136681200006],[-17.19579318999996,28.19868340900007],[-17.183963380999955,28.181105864000074],[-17.16793854799994,28.179627496000023],[-17.164856603999965,28.172690690000024],[-17.128475956999978,28.15293925800006],[-17.118966074999946,28.15145057600006],[-17.111650447999978,28.142010690000063],[-17.11260828099995,28.133593165000036],[-17.103475438999965,28.127129482000043],[-17.103924933999963,28.104449917000068],[-17.099566662999962,28.094945712000026],[-17.11219194599994,28.086306929000045],[-17.119285076999972,28.074198600000045],[-17.13771175499994,28.066387277000047],[-17.14542830299996,28.054346011000064],[-17.152477852999937,28.053814084000066],[-17.167744539999944,28.041061375000027],[-17.177868641999964,28.038032059000045],[-17.18619678799996,28.02975615500003],[-17.201103057999944,28.02396813000007],[-17.22959207699995,28.02614738500006],[-17.24547081099996,28.02044661900004],[-17.254840341999966,28.025971334000076],[-17.271393973999977,28.02635539700003],[-17.275106954999956,28.036072734000072],[-17.289544917999933,28.038815916000033],[-17.292275768999957,28.04571095700004],[-17.31102367099993,28.052790693000077],[-17.31941520999993,28.059829371000035],[-17.321338598999944,28.075868059000072],[-17.339020862999973,28.086140571000044],[-17.348479149999946,28.09986070000008],[-17.347756957999934,28.118855385000074],[-17.342114745999936,28.13128243700004],[-17.346479708999937,28.14725801800006],[-17.33546718399998,28.164172835000045],[-17.335952044999942,28.17499805400007],[-17.32230528699995,28.192161573000078],[-17.317264170999977,28.204348942000024],[-17.307216041999936,28.203935195000042],[-17.28234727199998,28.21182975000005],[-17.276403194999943,28.217489925000052],[-17.260734528999933,28.217288637000024],[-17.250676142999964,28.20502695500005]],[[-17.90512806399994,27.841689664000057],[-17.894943172999945,27.831606355000076],[-17.892393468999956,27.82231691900006],[-17.883846008999967,27.812212561000024],[-17.884939378999945,27.802051826000024],[-17.897790047999933,27.787564678000024],[-17.903429701999983,27.784749865000038],[-17.913340594999966,27.77077214700006],[-17.91150704399996,27.76511253500007],[-17.925270916999978,27.74374751700003],[-17.928156098999978,27.73210332600007],[-17.93354159499995,27.72850334700007],[-17.948264758999983,27.728618830000073],[-17.956985359999976,27.720206336000047],[-17.960365499999966,27.692123499000047],[-17.965749307999943,27.686788083000067],[-17.971844569999973,27.672464099000024],[-17.971502751999935,27.648154514000055],[-17.977877648999936,27.641101436000042],[-17.98932095699996,27.63847853200008],[-17.999323182999944,27.646312284000032],[-18.011615870999947,27.65115588900005],[-18.030185707999976,27.679535736000048],[-18.050897043999953,27.692707969000026],[-18.122279610999954,27.70430329900006],[-18.14584619799996,27.704122349000045],[-18.15835949999996,27.712901499000054],[-18.159969805999935,27.724708897000028],[-18.152819334999947,27.73197145100005],[-18.15177552199998,27.746559433000073],[-18.154582897999944,27.751853848000053],[-18.15096895099998,27.75971191800005],[-18.129552756999942,27.771129103000078],[-18.12226869899996,27.76901428000008],[-18.11804020099993,27.762473803000034],[-18.10794900099995,27.75799053600008],[-18.08118268499993,27.75340145000007],[-18.068706211999938,27.753731884000047],[-18.037278492999974,27.76252327000003],[-18.020236213999965,27.774848880000036],[-18.013507464999975,27.783103766000067],[-17.99612379299998,27.792612732000066],[-17.989004190999935,27.800751584000068],[-17.98714103499998,27.810390254000026],[-17.99196539899998,27.821702677000076],[-17.973119408999935,27.827488887000072],[-17.958069577999936,27.84125388600006],[-17.947204994999936,27.84104291500006],[-17.93627215799995,27.848082055000077],[-17.922818544999927,27.849195959000042],[-17.90512806399994,27.841689664000057]],[[1.458115980000059,38.725527843000066],[1.471075056000075,38.72287318000008],[1.481002416000024,38.70132414500006],[1.514219148000052,38.67914675600008],[1.531009324000024,38.674026285000025],[1.557047614000055,38.68884653900005],[1.568849821000072,38.69038827300005],[1.581076819000032,38.67832654100005],[1.582188933000054,38.66931734700006],[1.583016898000039,38.662610044000076],[1.565625023000052,38.65063436100007],[1.52508113600004,38.65367592900003],[1.511497250000048,38.66463110400008],[1.502855404000059,38.66931734700006],[1.492274831000032,38.67505491000003],[1.470595527000057,38.683072967000044],[1.451552807000041,38.68464251200004],[1.439478115000043,38.68110460500003],[1.430920678000064,38.66931734700006],[1.39061050600003,38.64400395100006],[1.38469778700005,38.64990612100007],[1.385636099000067,38.66931734700006],[1.381587270000068,38.688211747000025],[1.388503651000065,38.69907509600006],[1.38201594800006,38.71917379800004],[1.395545499000036,38.73198886800003],[1.407250106000049,38.72371188100004],[1.415423838000038,38.72350057600005],[1.413385762000075,38.73330586000003],[1.427649583000061,38.739144113000066],[1.437306727000021,38.752518235000025],[1.448042208000061,38.73283976600004],[1.458115980000059,38.725527843000066]],[[0.672582685000066,40.593211781000036],[0.692343570000048,40.58926112300003],[0.709660765000024,40.59132768000006],[0.708822035000026,40.58501713100003],[0.693362391000051,40.57143098600005],[0.674889346000043,40.56169417000007],[0.649893005000024,40.55485676600006],[0.628485592000061,40.55369710300005],[0.608535737000068,40.558895577000044],[0.596812955000075,40.57373460700006],[0.615055476000066,40.57908073400006],[0.616490753000051,40.586663661000046],[0.63129634400002,40.581542195000054],[0.654011261000051,40.585514713000066],[0.660549849000063,40.592078969000056],[0.672582685000066,40.593211781000036]],[[-13.489201169999944,29.245231686000068],[-13.504932209999936,29.22461898100005],[-13.513337733999947,29.22620074100007],[-13.522708015999967,29.21841222000006],[-13.534051595999927,29.216438417000063],[-13.54865431899998,29.225763404000077],[-13.545757527999967,29.232208209000078],[-13.526611334999927,29.242943343000036],[-13.52107945199998,29.258150486000034],[-13.522637054999961,29.26872256300004],[-13.51127736899997,29.291293473000053],[-13.493366185999946,29.27973097100005],[-13.475851575999968,29.27451866000007],[-13.472313626999949,29.264577677000034],[-13.48360084199993,29.259801193000044],[-13.489201169999944,29.245231686000068]],[[-5.320084039999927,35.894294313000046],[-5.34337063199996,35.87087626600004],[-5.35030267999997,35.87458889900006],[-5.355709187999935,35.87362514000006],[-5.371966316999931,35.88306347100007],[-5.377831821999962,35.90691900200005],[-5.38193549999994,35.913023499000076],[-5.363050975999954,35.91472789900007],[-5.320084039999927,35.894294313000046]],[[2.009205859000076,42.44824501200003],[1.980892734000065,42.44787005300003],[1.960217349000061,42.45355353700006],[1.957214188000023,42.45876056900005],[1.962646016000065,42.47786847500004],[1.976963807000061,42.485997746000066],[1.980577371000038,42.49459242100005],[1.989469609000025,42.49336076800006],[1.998264507000044,42.48486583700003],[1.986534564000067,42.47279167900007],[1.99264366500006,42.46262313200003],[2.013082895000025,42.45206512000004],[2.009205859000076,42.44824501200003]],[[2.957208741000045,39.14757903900005],[2.961638755000024,39.14193598900005],[2.955353217000038,39.12786767700004],[2.947114544000044,39.12401095200005],[2.924139589000049,39.13158934200004],[2.924788014000058,39.13815528900005],[2.912262989000055,39.14278659300004],[2.923314828000059,39.152545416000066],[2.929246558000045,39.14310094700005],[2.936167629000067,39.143797809000034],[2.951945557000045,39.15679357600004],[2.950739918000068,39.166673278000076],[2.976661020000051,39.15686907400004],[2.970844308000039,39.14784901400003],[2.957208741000045,39.14757903900005]],[[-2.92812349999997,35.27308149900006],[-2.951401655999973,35.26903324700004],[-2.970089,35.28942999900005],[-2.952486499999964,35.319768999000075],[-2.928090214999941,35.27309997000003],[-2.92812349999997,35.27308149900006]],[[-13.506452115999934,29.385167719000037],[-13.522755434999965,29.382885644000055],[-13.530282862999968,29.38604119300004],[-13.532261227999982,29.39731451600005],[-13.522562668999967,29.41199287300003],[-13.504949139999951,29.41645260200005],[-13.489144804999967,29.401960488000043],[-13.506452115999934,29.385167719000037]],[[-8.876934088999974,42.57436387900003],[-8.872858067999971,42.56554956400004],[-8.855882532999942,42.56555023300007],[-8.861606304999952,42.553169885000045],[-8.857150661999981,42.54731303300008],[-8.866272212999945,42.54142964600004],[-8.864960063999945,42.52744834200007],[-8.87256625699996,42.52509133800004],[-8.881009666999944,42.53200375700004],[-8.870575232999954,42.55881743100008],[-8.887297213999943,42.56191428000005],[-8.889194356999951,42.56707875700005],[-8.876934088999974,42.57436387900003]],[[-6.263413753999941,36.48791205800006],[-6.268435200999932,36.48756651400004],[-6.289543457999969,36.52272494700003],[-6.304511339999976,36.53252720900008],[-6.294248108999966,36.537747696000054],[-6.279353598999933,36.52983978100008],[-6.269855609999979,36.51124348500008],[-6.260863804999929,36.503616874000045],[-6.263413753999941,36.48791205800006]],[[-8.92391054899997,42.392680014000064],[-8.938958807999938,42.354827002000036],[-8.948309070999926,42.36067527600005],[-8.939739926999948,42.37045219600003],[-8.945083459999978,42.380731282000056],[-8.935116229999949,42.38821874800004],[-8.932091291999939,42.39743636000003],[-8.92391054899997,42.392680014000064]],[[-13.813581520999946,28.74094485300003],[-13.819373240999937,28.73537889800008],[-13.828491981999946,28.74019035200007],[-13.836003733999974,28.75164631800004],[-13.812381727999934,28.765021988000058],[-13.813581520999946,28.74094485300003]],[[-5.287280447999933,35.89069980800008],[-5.307073417999959,35.88410765900005],[-5.311468151999975,35.88824830100003],[-5.287172921999968,35.90696117400006],[-5.277732764999939,35.900427163000074],[-5.287280447999933,35.89069980800008]],[[-8.897987902999944,42.21553350500005],[-8.911268164999967,42.21290457600003],[-8.905600462999928,42.224314236000055],[-8.908328715999971,42.240843029000075],[-8.919375696999964,42.24933571400004],[-8.914751105999926,42.25287361200003],[-8.902089089999947,42.245900059000064],[-8.897987902999944,42.21553350500005]],[[2.334704652000028,39.58900244500006],[2.317972246000068,39.57572294200003],[2.308323108000025,39.57852180900005],[2.323353190000034,39.59328931300007],[2.337447260000033,39.59744079400008],[2.334704652000028,39.58900244500006]],[[-9.002379377999944,42.46899630000007],[-9.008966438999948,42.46293570200004],[-9.020689379999965,42.47463559400006],[-9.017818027999965,42.484363864000045],[-9.007536392999953,42.481168651000075],[-9.002379377999944,42.46899630000007]],[[-8.699064840999938,42.411575715000026],[-8.71027154799998,42.402727248000076],[-8.718382954999981,42.411182008000026],[-8.713061957999969,42.41853382700003],[-8.703430075999961,42.41779546500004],[-8.699064840999938,42.411575715000026]],[[1.649648885000033,39.04579398800007],[1.648796641000047,39.02927637100004],[1.638581438000074,39.029723655000055],[1.63448210200005,39.04130238400006],[1.649648885000033,39.04579398800007]],[[2.971691460000045,39.19046323300006],[2.966713986000059,39.173422575000075],[2.955344728000057,39.17992834800003],[2.960893515000066,39.191886123000074],[2.971691460000045,39.19046323300006]],[[-8.778663936999976,42.62242246300008],[-8.787390431999938,42.60711618000005],[-8.797560954999938,42.615774491000025],[-8.792526911999971,42.62452577800008],[-8.778663936999976,42.62242246300008]],[[-0.72083917599997,37.662983041000075],[-0.722686720999945,37.65720602700003],[-0.735186188999933,37.66280913000003],[-0.736221791999981,37.67452270600006],[-0.728916534999939,37.67634553800008],[-0.72083917599997,37.662983041000075]],[[-0.762293476999957,37.69730380100003],[-0.768298786999935,37.68639783800006],[-0.779523864999931,37.69643643000006],[-0.77164552499994,37.707304726000075],[-0.762293476999957,37.69730380100003]],[[1.210240210000052,38.867044484000075],[1.202934337000045,38.860152576000075],[1.187118420000047,38.86634631700008],[1.198293807000027,38.87571784100004],[1.210240210000052,38.867044484000075]],[[-13.531357463999939,29.28979109100004],[-13.541889111999978,29.287576320000028],[-13.541537091999942,29.303279966000048],[-13.53020694199995,29.307769329000052],[-13.531357463999939,29.28979109100004]],[[1.432561846000056,38.784708642000055],[1.419357012000035,38.77819782300003],[1.415479824000045,38.78491679600006],[1.421362769000041,38.79943179300005],[1.432561846000056,38.784708642000055]],[[1.485518937000052,38.797443979000036],[1.472188237000069,38.79104419300006],[1.467002254000022,38.800142031000064],[1.473188671000059,38.807188782000026],[1.485297354000068,38.80260627400003],[1.485518937000052,38.797443979000036]],[[-8.830869181999958,43.355879928000036],[-8.846734004999973,43.35227034500008],[-8.853149540999937,43.36369734400006],[-8.837413926999943,43.36529875800005],[-8.830869181999958,43.355879928000036]],[[-0.732272154999976,37.736337597000045],[-0.73883449799996,37.73376904600008],[-0.74540716599995,37.74283195500004],[-0.739510636999967,37.754509753000036],[-0.73250507299997,37.750060217000055],[-0.732272154999976,37.736337597000045]],[[-8.893401595999933,42.19851207700003],[-8.908682880999947,42.18943204900006],[-8.91383988299998,42.19395715600007],[-8.910645113999976,42.20676221100007],[-8.893401595999933,42.19851207700003]],[[1.219292246000066,38.98129598200006],[1.214697579000074,38.97164175200004],[1.202812124000047,38.98296322200008],[1.214786858000025,38.99366754700003],[1.219292246000066,38.98129598200006]]]}