{"type":"Topology","objects":{"data":{"geometries":[{"properties":{"NUTS_ID":"SE11","LEVL_CODE":2,"CNTR_CODE":"SE","NAME_LATN":"Stockholm","NUTS_NAME":"Stockholm","MOUNT_TYPE":0.0,"URBN_TYPE":0,"COAST_TYPE":0,"NAME_ENGL":"Sweden","NAME_FREN":"Su\u00e8de","ISO3_CODE":"SWE","SVRG_UN":"UN Member State","CAPT":"Stockholm","EU_STAT":"T","EFTA_STAT":"F","CC_STAT":"F","NAME_GERM":"Schweden","bidding_zone":"SE3"},"type":"MultiPolygon","arcs":[[[-18,0]],[[1]],[[2]],[[3]],[[4]],[[5]],[[6]],[[7]],[[8]],[[9]],[[10]],[[11]],[[12]],[[13]],[[14]],[[15]],[[16]]],"id":247},{"properties":{"NUTS_ID":"SE12","LEVL_CODE":2,"CNTR_CODE":"SE","NAME_LATN":"\u00d6stra Mellansverige","NUTS_NAME":"\u00d6stra Mellansverige","MOUNT_TYPE":0.0,"URBN_TYPE":0,"COAST_TYPE":0,"NAME_ENGL":"Sweden","NAME_FREN":"Su\u00e8de","ISO3_CODE":"SWE","SVRG_UN":"UN Member State","CAPT":"Stockholm","EU_STAT":"T","EFTA_STAT":"F","CC_STAT":"F","NAME_GERM":"Schweden","bidding_zone":"SE3"},"type":"MultiPolygon","arcs":[[[17,18,-26,-37,-49,19]],[[20]],[[21]],[[22]],[[23]],[[24]]],"id":248},{"properties":{"NUTS_ID":"SE21","LEVL_CODE":2,"CNTR_CODE":"SE","NAME_LATN":"Sm\u00e5land med \u00f6arna","NUTS_NAME":"Sm\u00e5land med \u00f6arna","MOUNT_TYPE":0.0,"URBN_TYPE":0,"COAST_TYPE":0,"NAME_ENGL":"Sweden","NAME_FREN":"Su\u00e8de","ISO3_CODE":"SWE","SVRG_UN":"UN Member State","CAPT":"Stockholm","EU_STAT":"T","EFTA_STAT":"F","CC_STAT":"F","NAME_GERM":"Schweden","bidding_zone":"SE3"},"type":"MultiPolygon","arcs":[[[25,26,-34,-38]],[[27]],[[28]],[[29]],[[30]],[[31]]],"id":292},{"properties":{"NUTS_ID":"SE22","LEVL_CODE":2,"CNTR_CODE":"SE","NAME_LATN":"Sydsverige","NUTS_NAME":"Sydsverige","MOUNT_TYPE":0.0,"URBN_TYPE":0,"COAST_TYPE":0,"NAME_ENGL":"Sweden","NAME_FREN":"Su\u00e8de","ISO3_CODE":"SWE","SVRG_UN":"UN Member State","CAPT":"Stockholm","EU_STAT":"T","EFTA_STAT":"F","CC_STAT":"F","NAME_GERM":"Schweden","bidding_zone":"SE4"},"type":"MultiPolygon","arcs":[[[32,-39,33]],[[34]],[[35]]],"id":293},{"properties":{"NUTS_ID":"SE23","LEVL_CODE":2,"CNTR_CODE":"SE","NAME_LATN":"V\u00e4stsverige","NUTS_NAME":"V\u00e4stsverige","MOUNT_TYPE":0.0,"URBN_TYPE":0,"COAST_TYPE":0,"NAME_ENGL":"Sweden","NAME_FREN":"Su\u00e8de","ISO3_CODE":"SWE","SVRG_UN":"UN Member State","CAPT":"Stockholm","EU_STAT":"T","EFTA_STAT":"F","CC_STAT":"F","NAME_GERM":"Schweden","bidding_zone":"SE3"},"type":"MultiPolygon","arcs":[[[36,37,38,39,-50]],[[40]],[[41]],[[42]],[[43]],[[44]],[[45]],[[46]],[[47]]],"id":294},{"properties":{"NUTS_ID":"SE31","LEVL_CODE":2,"CNTR_CODE":"SE","NAME_LATN":"Norra Mellansverige","NUTS_NAME":"Norra Mellansverige","MOUNT_TYPE":0.0,"URBN_TYPE":0,"COAST_TYPE":0,"NAME_ENGL":"Sweden","NAME_FREN":"Su\u00e8de","ISO3_CODE":"SWE","SVRG_UN":"UN Member State","CAPT":"Stockholm","EU_STAT":"T","EFTA_STAT":"F","CC_STAT":"F","NAME_GERM":"Schweden","bidding_zone":"SE3"},"type":"MultiPolygon","arcs":[[[48,49,50,-56,51]],[[52]],[[53]]],"id":295},{"properties":{"NUTS_ID":"SE32","LEVL_CODE":2,"CNTR_CODE":"SE","NAME_LATN":"Mellersta Norrland","NUTS_NAME":"Mellersta Norrland","MOUNT_TYPE":0.0,"URBN_TYPE":0,"COAST_TYPE":0,"NAME_ENGL":"Sweden","NAME_FREN":"Su\u00e8de","ISO3_CODE":"SWE","SVRG_UN":"UN Member State","CAPT":"Stockholm","EU_STAT":"T","EFTA_STAT":"F","CC_STAT":"F","NAME_GERM":"Schweden","bidding_zone":"SE2"},"type":"MultiPolygon","arcs":[[[54,55,56,-62]],[[57]],[[58]],[[59]],[[60]]],"id":296},{"properties":{"NUTS_ID":"SE33","LEVL_CODE":2,"CNTR_CODE":"SE","NAME_LATN":"\u00d6vre Norrland","NUTS_NAME":"\u00d6vre Norrland","MOUNT_TYPE":0.0,"URBN_TYPE":0,"COAST_TYPE":0,"NAME_ENGL":"Sweden","NAME_FREN":"Su\u00e8de","ISO3_CODE":"SWE","SVRG_UN":"UN Member State","CAPT":"Stockholm","EU_STAT":"T","EFTA_STAT":"F","CC_STAT":"F","NAME_GERM":"Schweden","bidding_zone":"SE1"},"type":"MultiPolygon","arcs":[[[61,62]],[[63]],[[64]],[[65]],[[66]],[[67]],[[68]],[[69]],[[70]],[[71]],[[72]],[[73]],[[74]],[[75]],[[76]],[[77]],[[78]],[[79]],[[80]],[[81]],[[82]],[[83]]],"id":297}],"type":"GeometryCollection"}},"bbox":[10.980436488000066,55.34220103600006,24.155129,69.05996849900004],"arcs":[[[18.513265500000045,60.14808899900004],[18.682917734000057,60.132641843000044],[18.771705784000062,60.15572136700007],[18.91929446000006,59.96396611600005],[19.03701775600007,59.86064526200005],[19.038316286000054,59.733471988000076],[18.78142934300007,59.65141318000008],[18.622215974000028,59.453553975000034],[18.468071863000034,59.46661299300007],[18.332685966000042,59.40382216300003],[18.394542439000077,59.36058415300005],[18.502300353000066,59.38507461200004],[18.677800097000045,59.35420129100004],[18.755772317000037,59.284400677000065],[18.747668495000028,59.22126024100004],[18.719308005000073,59.20959918900007],[18.67650762200003,59.258033846000046],[18.512623330000054,59.24029447700008],[18.358316797000043,59.27923170100007],[18.357542246000037,59.21544351600005],[18.43529725800005,59.120815640000046],[18.421266658000036,59.07204030300005],[18.326094518000048,59.09542028000004],[18.158639866000044,59.05731556500007],[18.13522893100003,58.99889367700007],[18.00187587100004,58.93925455400006],[17.899548023000023,58.838475507000055],[17.785943880000048,58.91337086700008],[17.73254184600006,59.01363357000008],[17.659726259000024,58.951121916000034],[17.572396,58.950852499000064]],[[18.956254371000057,59.42166626800008],[18.964650879000033,59.400888929000075],[18.94471690100005,59.36451023900008],[18.901248851000048,59.40493345900006],[18.843841007000037,59.390219364000075],[18.851526165000053,59.43061671300006],[18.907271740000056,59.44727562200006],[18.922071234000043,59.42262131000007],[18.956254371000057,59.42166626800008]],[[18.973767096000074,59.637645235000036],[18.889937665000048,59.581849601000044],[18.837090267000065,59.59426159100008],[18.87390739700004,59.637645235000036],[18.921607512000037,59.637645235000036],[18.95398337000006,59.654218049000065],[18.973767096000074,59.637645235000036]],[[19.19059976500006,59.80339447100005],[19.21764820900006,59.76268322100003],[19.208644331000073,59.74950355800007],[19.16038902300005,59.75989034400004],[19.11930918300004,59.72113460700007],[19.094529805000036,59.75398149800003],[19.136929492000036,59.78787669700006],[19.155169372000046,59.77566815300003],[19.19059976500006,59.80339447100005]],[[18.820875010000066,59.41150278200007],[18.792549406000035,59.404849967000075],[18.772806848000073,59.45838524900006],[18.710574741000073,59.468353567000065],[18.72896852100007,59.49190415500004],[18.80736239400005,59.49125079500004],[18.79324158000003,59.465110999000046],[18.820875010000066,59.41150278200007]],[[18.827292140000054,59.54425572200006],[18.740198168000063,59.534743253000045],[18.73009673300004,59.54312505000007],[18.75429821000006,59.577585310000075],[18.798590270000034,59.58693248900005],[18.827292140000054,59.54425572200006]],[[18.28598153100006,58.96678863600005],[18.275073639000027,58.91632627000007],[18.197138196000026,58.92103036100008],[18.207377794000024,58.939328301000046],[18.28598153100006,58.96678863600005]],[[19.30554930200003,59.522630864000064],[19.262645771000052,59.49903415600005],[19.231779552000035,59.51861781800005],[19.28769014200003,59.55509176800007],[19.30554930200003,59.522630864000064]],[[18.14455500200006,58.870234907000054],[18.135748096000043,58.84056629600008],[18.08811935800003,58.88006635900007],[18.120059754000067,58.91479404800003],[18.14455500200006,58.870234907000054]],[[18.86943124900006,59.48912827700008],[18.834784675000037,59.477099587000055],[18.80867462300006,59.51373631700005],[18.867708762000063,59.53017453100006],[18.86943124900006,59.48912827700008]],[[19.23172290800005,59.43955696300003],[19.22200367800008,59.399928404000036],[19.176007362000064,59.43638634800004],[19.213476763000074,59.471861939000064],[19.23172290800005,59.43955696300003]],[[18.78821674900007,59.38698434600008],[18.75755676800003,59.36323104500008],[18.709349101000043,59.39030936900008],[18.75763716700004,59.41438743800006],[18.78821674900007,59.38698434600008]],[[19.137349741000037,59.810773521000044],[19.111371750000046,59.810773521000044],[19.10202441900003,59.84792635700006],[19.134094349000065,59.86726294500005],[19.156269301000066,59.84959544800006],[19.137349741000037,59.810773521000044]],[[18.55610854400004,59.035954952000054],[18.502610167000057,59.02050811400005],[18.503990330000022,59.05977803500008],[18.552901458000065,59.07493741800005],[18.55610854400004,59.035954952000054]],[[18.99616280600003,59.455116727000075],[18.955812758000036,59.448597895000034],[18.921149421000052,59.47130207400005],[18.983768001000044,59.49635452400008],[18.99616280600003,59.455116727000075]],[[18.51104090000007,58.995232470000076],[18.490800927000066,58.95547337600004],[18.472434578000048,58.975297889000046],[18.425820315000067,58.97070527200003],[18.429961108000043,58.99714260500008],[18.51104090000007,58.995232470000076]],[[19.171042854000063,59.36861329100003],[19.133010864000028,59.33274330000006],[19.102634211000066,59.35769822900005],[19.15775061200003,59.39567230100005],[19.171042854000063,59.36861329100003]],[[18.513265500000045,60.14808899900004],[18.42038225700003,60.03935579200004],[18.446384016000025,59.99755993500003],[18.369423033000032,59.87325617100004],[18.156211641000027,59.81892209000006],[18.037344760000053,59.735036595000054],[17.797855749000064,59.68185772800007],[17.627348520000055,59.67831696400003],[17.536318453000035,59.61649393300007],[17.554033638000078,59.55234442200003],[17.49053744300005,59.50860519100007],[17.484028652000063,59.45211497500003],[17.416126500000075,59.38413999900007],[17.34517971100007,59.34499088600006],[17.348123051000073,59.28690177100003],[17.25450848500003,59.21349589500005],[17.313447245000077,59.13887135300007],[17.33057554900006,59.03962377400006],[17.383204504000048,58.98662520500005],[17.529987248000054,58.983628295000074],[17.572396,58.950852499000064]],[[17.572396,58.950852499000064],[17.611374064000074,58.89298992600004],[17.31468824700005,58.72606577700003],[17.120756200000073,58.730333460000054],[17.119963194000036,58.67214612400005],[16.983465298000056,58.62520471800008],[16.75066350000003,58.62693199900008],[16.748178161000055,58.59440024600008],[16.919890380000027,58.50144022100005],[16.810439918000043,58.41788840600003],[16.861391062000052,58.26678949300003],[16.77439676700004,58.257307413000035],[16.863557809000042,58.124309922000066],[16.771955811000055,58.036806023000054],[16.666683500000033,57.99607649900008]],[[17.370218,60.654461499000035],[17.628481716000067,60.63602921700004],[17.605596611000067,60.578129740000065],[17.63872731500004,60.55118573400006],[17.687846410000077,60.52563508900005],[17.808426222000037,60.57243419200006],[17.97810951400004,60.588256140000055],[18.029791944000067,60.50991632800003],[18.139254426000036,60.42824544800004],[18.280338448000066,60.35115633800007],[18.35946976100007,60.34275402600008],[18.412454179000065,60.35416514500008],[18.394930894000026,60.50120106300005],[18.424315104000073,60.50589921300008],[18.471380890000034,60.47725013300004],[18.496455023000067,60.372345764000045],[18.561337369000057,60.36858777400005],[18.65246681600007,60.27958028900008],[18.616227808000076,60.22633032500005],[18.664131739000027,60.21770166700003],[18.660638047000077,60.19486526400004],[18.56111760300007,60.18860259100006],[18.513265500000045,60.14808899900004]],[[16.95442790000004,58.33814795400008],[16.909617575000027,58.31329125000008],[16.871797254000057,58.38105699500005],[16.863303590000044,58.42199220900005],[16.926503284000034,58.39795563500007],[16.920530323000037,58.35875290700005],[16.95442790000004,58.33814795400008]],[[17.501823410000043,58.732401852000066],[17.46308885600007,58.701082900000074],[17.434489245000066,58.731350303000056],[17.484507507000046,58.76246655500006],[17.501823410000043,58.732401852000066]],[[17.199376766000057,58.67005291000004],[17.197168987000055,58.62676598500008],[17.157450614000027,58.62937957500003],[17.144958976000055,58.644540103000054],[17.183393070000022,58.68398782300005],[17.199376766000057,58.67005291000004]],[[16.99866539800007,58.408738045000064],[16.962756416000047,58.369444662000035],[16.948747425000022,58.408738045000064],[16.975757568000063,58.450274301000036],[16.99866539800007,58.408738045000064]],[[16.97024688600004,58.20503586900003],[16.940851890000033,58.16457309400005],[16.891603408000037,58.16848546400007],[16.93174044400007,58.21164406200006],[16.97024688600004,58.20503586900003]],[[14.41671,58.18724049900004],[14.477078649000077,58.13130300700004],[14.60377591300005,58.09914809800006],[14.853311158000054,58.08940223800005],[14.974615970000059,58.135863673000074],[15.06632763500005,58.00559147400003],[15.016110218000051,57.977298982000036],[15.005189218000055,57.90031544700008],[15.121808676000057,57.72878926300007],[15.421051,57.70487949900007],[15.617024363000041,57.85278906800005],[15.849721260000024,57.82631840100004],[15.953572706000045,57.813770085000044],[16.052674068000044,57.87314407400004],[16.055611101000068,57.90572898200003],[16.029936188000022,57.938753760000054],[16.05616000300006,57.978822781000076],[16.005548919000034,58.022354922000034],[16.018128326000067,58.07919537600003],[16.164544275000026,58.066529968000054],[16.18532426300004,58.10324949400007],[16.270618358000036,58.135352486000045],[16.541399786000056,58.10679756700006],[16.589749968000035,58.06718126000004],[16.666683500000033,57.99607649900008]],[[16.666683500000033,57.99607649900008],[16.788602095000044,57.960289904000035],[16.768470794000052,57.82741215100003],[16.701987942000073,57.75559564200006],[16.706615493000072,57.67615660100006],[16.65271606700003,57.60867308100006],[16.710637287000054,57.60001449400005],[16.702092013000026,57.45616406700003],[16.489322677000075,57.26260510900005],[16.480967134000025,57.18354803700004],[16.531873979000068,57.15562948200005],[16.546164662000024,57.068939544000045],[16.44907002900004,56.96479835800005],[16.365668114000073,56.69121426100003],[16.247313345000066,56.60738285300005],[16.04987150000005,56.32188849900007]],[[18.99834938200007,57.915530955000065],[19.076514254000074,57.839526756000055],[19.011982413000055,57.81204618900006],[19.019865372000027,57.75683095800008],[18.95882818800004,57.77898197600007],[18.93776818400005,57.72153010300008],[18.81441813400005,57.73544183300004],[18.766885579000075,57.62164891500004],[18.802137800000025,57.59298910500007],[18.79665140800006,57.54425959500003],[18.766885579000075,57.52474741900005],[18.766885579000075,57.50126209500007],[18.800012939000055,57.45028864200003],[18.88783274900004,57.42726909100003],[18.888591165000037,57.41011523900005],[18.766885579000075,57.36641569200003],[18.675783670000044,57.30471785000003],[18.697339749000037,57.236334869000075],[18.41536061900007,57.141991473000076],[18.34399103100003,57.06055147700005],[18.34471278700005,56.97358812500005],[18.21316153300006,56.91248933000003],[18.128387959000065,56.91248933000003],[18.208472061000066,57.01861136900004],[18.265343526000038,57.05614020200005],[18.260302387000024,57.072629446000064],[18.20723553700003,57.07209333800006],[18.211933041000066,57.13050190200005],[18.15860099400004,57.161400694000065],[18.14355503400003,57.23219517300004],[18.102415241000074,57.26681858300003],[18.171565865000048,57.35450392200005],[18.115018253000073,57.52369394700003],[18.170671011000024,57.58428197300003],[18.323382280000033,57.66617940000003],[18.471051078000073,57.81942171800006],[18.595935034000036,57.84776064200008],[18.70247395100006,57.92030813300005],[18.766885579000075,57.89858219900003],[18.798970353000072,57.85525877500004],[18.86542103200003,57.92210242300007],[18.99834938200007,57.915530955000065]],[[16.49958060800003,56.268555839000044],[16.407706166000025,56.20687473500004],[16.380395333000024,56.535936495000044],[16.610772948000033,56.85072301800005],[16.728127864000044,56.91246675900004],[16.89448334900004,57.11657744100006],[16.978411038000047,57.30427578600006],[17.049783070000046,57.35413613800006],[17.125790378000033,57.33381305900008],[17.069161457000064,57.27881376400006],[17.06819583400005,57.18846412200003],[16.91185372800004,56.98978036400007],[16.888903482000046,56.91246675900004],[16.84839260800004,56.83061191100006],[16.77838321400003,56.783290899000065],[16.49958060800003,56.268555839000044]],[[19.162350812000057,57.99255483400003],[19.24166544600007,57.97446757900008],[19.308111934000067,57.98493527200003],[19.348865742000044,57.96049593400005],[19.30490661700003,57.94420859400003],[19.260201248000044,57.95219781700007],[19.138130985000032,57.91596389800003],[19.168378268000026,57.89250485300005],[19.122991248000062,57.84282121700005],[19.07988285600004,57.86904663100006],[19.049143654000034,57.90884662900004],[19.08636831700005,57.93444421500004],[19.092144975000053,57.96915844200004],[19.162350812000057,57.99255483400003]],[[19.28774899600006,58.337571284000035],[19.21446237200007,58.337205149000056],[19.17053125900003,58.39625494100005],[19.245704897000053,58.392914817000076],[19.310211695000078,58.372378455000046],[19.28774899600006,58.337571284000035]],[[16.48952035800005,56.77099002400007],[16.444906096000068,56.75474660300006],[16.417120659000034,56.77515330300008],[16.473035391000053,56.80885928100008],[16.48952035800005,56.77099002400007]],[[16.04987150000005,56.32188849900007],[16.05227336200005,56.26316177900003],[15.849721260000024,56.07882871700008],[15.805327853000051,56.09299015900007],[15.79309282500003,56.054819139000074],[15.67941197700003,56.076403724000045],[15.650254493000034,56.109013307000055],[15.709391874000062,56.12087689300006],[15.717514828000049,56.158363285000064],[15.590330699000049,56.16552532600008],[15.574842284000056,56.19322283200006],[15.431307451000066,56.133671391000064],[15.315996621000068,56.12817512600003],[15.300102175000063,56.16821929200006],[15.088420866000035,56.15234139900008],[14.694431317000067,56.15421719100004],[14.768549061000044,56.03616737900006],[14.724654262000058,56.002744680000035],[14.624809594000055,55.99892439700005],[14.557036986000071,56.02759548100005],[14.546399500000064,56.06131749900004],[14.350378806000037,55.95872648100004],[14.23048938900007,55.834929869000064],[14.211957745000063,55.711476694000055],[14.34966567400005,55.54776523800007],[14.174235819000046,55.38833642800006],[14.06303639600003,55.38497924700005],[13.915110925000022,55.43023580700003],[13.735825391000049,55.426389432000065],[13.338511500000038,55.34220103600006],[12.854692112000066,55.393806408000046],[12.854537157000038,55.419772316000035],[12.947812100000021,55.44206034200005],[12.917922387000033,55.57809339000005],[13.047178088000067,55.67331689800005],[12.927287289000049,55.75011765800008],[12.906605057000036,55.824743813000055],[12.811778942000046,55.87454610800006],[12.741678729000057,55.98470269900008],[12.575209241000039,56.14746610800006],[12.525823083000034,56.25935183000007],[12.792118381000023,56.236226705000036],[12.80755302800003,56.28145901600004],[12.641463599000076,56.42307051600005],[12.717914677000067,56.46333664800005],[12.899313,56.44900449900007]],[[13.46263650000003,56.42818849900004],[13.522655280000038,56.40893795300008],[13.870894071000066,56.442459444000065],[14.013687314000038,56.470865296000056],[14.085357179000027,56.52762241000005],[14.348991407000028,56.484372879000034],[14.514669500000025,56.46003699900007],[14.691043297000022,56.38904676300007],[14.885290414000053,56.36341296200004],[15.025582977000056,56.447263133000035],[15.185406542000067,56.433502754000074],[15.363503500000036,56.482375999000055],[15.569324164000022,56.49565406000005],[15.849721260000024,56.32119123100006],[16.04987150000005,56.32188849900007]],[[15.52668512400004,56.13838841000006],[15.578994692000038,56.12261851300008],[15.642288533000055,56.13641547000003],[15.65067220800006,56.10177501800007],[15.627815288000022,56.08467515400008],[15.572181741000065,56.110447521000026],[15.558395657000062,56.091319078000026],[15.475517251000042,56.09328704300003],[15.466682322000054,56.10337744100008],[15.52668512400004,56.13838841000006]],[[12.72787598900004,55.885270311000056],[12.696371184000043,55.88303861000003],[12.665348812000047,55.914528518000054],[12.672971732000065,55.92854345300003],[12.737629108000021,55.911718903000065],[12.72787598900004,55.885270311000056]],[[14.295995,59.01277949900003],[14.299778203000074,58.93433171400005],[14.463277363000032,58.77637528900004],[14.485303861000034,58.72001204400004],[14.574894946000029,58.68451382900008],[14.675721418000023,58.736698225000055],[14.778936500000043,58.645992499000045],[14.636677218000045,58.47045882900005],[14.447881512000038,58.23750388700006],[14.41671,58.18724049900004]],[[14.41671,58.18724049900004],[14.311356622000062,58.13559517200008],[14.134951327000067,58.13609009600003],[14.096384937000039,58.05808492500006],[14.038448760000051,58.02078348200007],[13.781029112000056,58.04528741300004],[13.720146829000043,57.97062764200007],[13.780256197000028,57.907046853000054],[13.740101939000056,57.84349265900005],[13.746156433000067,57.776927009000076],[13.717199454000024,57.66019374600006],[13.675171006000028,57.61127292200007],[13.676481299000045,57.55081133500005],[13.487214790000053,57.38302343100003],[13.295429851000051,57.30541033600008],[13.100760500000035,57.145515499000055],[13.088634034000052,57.09715093500006],[13.13364325300006,57.03487093600006],[13.343999807000046,57.10930886600005],[13.484774662000063,57.10419143900003],[13.584093807000045,57.06625408100007],[13.618146444000047,57.00188351200006],[13.681201,56.97211449900004],[13.677324374000023,56.92751373200008],[13.603013726000029,56.89692009300006],[13.381808187000047,56.863227496000036],[13.307626643000049,56.81861911800007],[13.328716692000057,56.69644938600004],[13.452539476000027,56.53742960500006],[13.46263650000003,56.42818849900004]],[[13.46263650000003,56.42818849900004],[13.194974043000059,56.33010629700004],[12.97143851900006,56.364025619000074],[12.956460304000075,56.429348995000055],[12.899313,56.44900449900007]],[[12.899313,56.44900449900007],[12.929210746000024,56.55032414900006],[12.903070307000064,56.61303845800006],[12.845308087000035,56.65185939600008],[12.724379087000045,56.66512602900008],[12.581890034000025,56.824119031000066],[12.371581233000029,56.93512835300004],[12.207640832000038,57.17739105700008],[12.138813884000058,57.23673884600004],[12.091317331000027,57.41791446600007],[12.046860787000071,57.426577199000064],[12.066847248000045,57.38731121600006],[12.048710087000075,57.36022098900003],[11.93671654600007,57.41083941200003],[11.922900500000026,57.56222299900003],[11.832828765000045,57.683722782000075],[11.732162027000072,57.707454433000066],[11.791383326000073,57.77989116600003],[11.714623152000058,57.80904136400005],[11.693955168000059,57.86014566500006],[11.698081738000042,57.889946475000045],[11.77024375800005,57.91782077700003],[11.809749055000054,58.02394412900003],[11.803816618000042,58.107788080000034],[11.719607471000074,58.08847112700005],[11.76278577200003,58.04940214900006],[11.738099774000034,58.00623239500004],[11.567549903000042,57.94384408800005],[11.496582623000052,58.06369842000004],[11.391905403000067,58.142990818000044],[11.400049077000062,58.22100524900003],[11.466582474000063,58.27167292300004],[11.38596612400005,58.333243389000074],[11.23464277000005,58.376022729000056],[11.23985495900007,58.42140981700004],[11.295764897000026,58.47045882900005],[11.23814341700006,58.55477555700003],[11.268563567000058,58.65009852600008],[11.19195815300003,58.721759692000035],[11.22731449500003,58.81905961100006],[11.124979651000046,58.91656132300005],[11.129610598000056,59.00794731500008],[11.194285827000044,59.07271566800006],[11.31545380800003,59.09912827900007],[11.369621283000072,59.08309029600008],[11.460827,58.98865849900005],[11.460046331000058,58.95170193300004],[11.463374006000038,58.89666530100004],[11.507084030000044,58.88298684800003],[11.635364644000049,58.90375936000004],[11.683694869000021,58.95170193300004],[11.772231762000047,59.094077954000056],[11.788254899000037,59.20315681000005],[11.826196500000037,59.23784999900005]],[[11.679437280000059,57.70427541200007],[11.646465054000032,57.694407709000075],[11.615268352000044,57.72014023000003],[11.653788192000036,57.733478768000055],[11.652971597000032,57.75563607700008],[11.69078072800005,57.765167475000055],[11.710226412000054,57.73791115000006],[11.679437280000059,57.70427541200007]],[[11.657245628000055,57.89364816700004],[11.615279400000077,57.84903755300007],[11.57857976300005,57.89364816700004],[11.59729722000003,57.91271062000004],[11.657245628000055,57.89364816700004]],[[11.051482771000053,58.873838472000045],[11.041328066000062,58.854979694000065],[10.980436488000066,58.88192953200007],[11.017018320000034,58.91825342800007],[11.051482771000053,58.873838472000045]],[[11.215362054000025,58.37615961900008],[11.239448073000062,58.32492132400006],[11.194424970000057,58.32614223200005],[11.175721305000025,58.36539522100003],[11.215362054000025,58.37615961900008]],[[11.807184410000048,57.62362146300006],[11.781909278000057,57.58745216800003],[11.74966416500007,57.63017866800004],[11.772358749000034,57.658687549000035],[11.807184410000048,57.62362146300006]],[[11.641772424000067,57.64709428100008],[11.61813298900006,57.609011329000055],[11.56641150200005,57.614377954000076],[11.599988323000048,57.65467458300003],[11.641772424000067,57.64709428100008]],[[11.19200909400007,58.82098558300004],[11.182925934000025,58.76287083500006],[11.150142545000051,58.769287846000054],[11.145155137000074,58.81260474100003],[11.19200909400007,58.82098558300004]],[[11.35249734200005,58.21181162700003],[11.320070650000048,58.18126945800003],[11.269830268000021,58.22011705500006],[11.29735925700004,58.23235968400007],[11.35249734200005,58.21181162700003]],[[17.370218,60.654461499000035],[17.288807236000025,60.45919525100004],[17.227690711000037,60.43254513000005],[17.19852697300007,60.408137741000075],[17.198875546000068,60.37530213700006],[17.19171224300004,60.312611324000045],[17.16123148400004,60.29060265500004],[17.075107137000032,60.26703932600003],[16.94332666200006,60.28861065900003],[16.861848761000033,60.22621288900007],[16.703831,60.19572049900006],[16.301957275000063,60.075566337000055],[16.178459719000045,60.08709312500008],[16.014261658000066,60.175989283000035],[15.806417881000073,60.17085842200004],[15.745014327000035,60.120677724000075],[15.70147182200003,59.964437615000065],[15.521692578000057,59.94290059400004],[15.443004587000075,59.87325617100004],[15.422092500000076,59.85474749900004],[15.393385908000027,59.87325617100004],[15.197809075000066,59.99935499000003],[14.900336683000035,60.05658024100006],[14.812929952000047,60.10298856400004],[14.747613623000063,60.07918058200005],[14.73829405500004,60.00103881400008],[14.437155500000074,60.02616099900007],[14.435486247000028,59.978110369000035],[14.369395380000071,59.93819244000008],[14.416443447000063,59.87325617100004],[14.409991042000058,59.73713126500007],[14.43530146300003,59.64465701100005],[14.469992811000054,59.54301711200003],[14.403013661000045,59.510543504000054],[14.456347623000056,59.44210953600003],[14.311238183000057,59.28953879200003],[14.294894321000072,59.154956509000044],[14.330674399000031,59.08683560800006],[14.295995,59.01277949900003]],[[14.295995,59.01277949900003],[14.165739142000064,59.04969143200003],[14.010374569000021,59.02990302400008],[13.587911348000034,59.05432021200005],[13.408379457000024,58.931935528000054],[13.347071947000074,58.81970931300003],[13.395386384000062,58.74750464700003],[13.258727744000055,58.72874100300004],[12.902943427000025,58.818433096000035],[12.78190759100005,59.02226392000006],[12.761147048000055,59.10857765500003],[12.660424243000023,59.17945045100004],[12.580181216000028,59.12060717400004],[12.489111758000035,59.130240557000036],[12.445354525000027,59.18901237300008],[12.275530281000044,59.19851502700004],[12.222374822000063,59.251783008000075],[12.096761185000048,59.25320252600005],[12.080580530000077,59.185110946000066],[12.05912810600006,59.19473935900004],[11.954620935000037,59.24164492600005],[11.826196500000037,59.23784999900005]],[[11.826196500000037,59.23784999900005],[11.813950931000022,59.338073877000056],[11.699040276000062,59.58116496500003],[11.722385638000048,59.62075726900008],[11.80186214300005,59.64465701100005],[11.930301394000026,59.70173303000007],[11.926970500000039,59.79047599900008],[11.839729,59.84076699900004],[11.917739634000043,59.87325617100004],[11.970523549000063,59.89523914500006],[12.05912810600006,59.89533965900006],[12.175829890000045,59.895472047000055],[12.343282141000032,59.97063268000005],[12.493830936000052,60.09296967900008],[12.535716517000026,60.18984560900003],[12.504107476000058,60.31191246100008],[12.599804876000064,60.40634262400005],[12.602921924000043,60.51042248400006],[12.394830769000066,60.73977429800004],[12.324959095000054,60.89493881400006],[12.235409085000072,61.00963871500005],[12.670176500000025,61.05597649900005],[12.693707288000041,61.09454950600008],[12.71492807800007,61.144698306000066],[12.826030999000068,61.24881160400008],[12.856330403000072,61.36419958500005],[12.579072419000056,61.55968134400007],[12.41581724100007,61.56913901300004],[12.14540157600004,61.73031691800003],[12.29937,62.26749399900007]],[[17.489299500000072,62.13695049900008],[17.342357384000024,61.86559919700005],[17.40011697600005,61.74541373100004],[17.488619631000063,61.69972881500007],[17.484605401000067,61.66145863500003],[17.238777043000027,61.70374838400005],[17.205310472000065,61.59751389500008],[17.131032668000046,61.54762178300007],[17.16324398200004,61.43893479700006],[17.140828802000044,61.38669575100005],[17.206955467000057,61.307460863000074],[17.172598445000062,61.185529544000076],[17.18808161900006,61.04007259700006],[17.223099010000055,61.01107564800003],[17.174775612000076,60.94672528000007],[17.326623144000052,60.80990553700008],[17.27729412700006,60.69754592100003],[17.370218,60.654461499000035]],[[17.342193981000037,61.15342547400007],[17.32527959300006,61.12413370500008],[17.292937962000053,61.14868756900006],[17.288480194000044,61.169449815000064],[17.312470760000053,61.18304569500003],[17.336364239000034,61.176517438000076],[17.342193981000037,61.15342547400007]],[[17.420057934000056,61.53554902600007],[17.37120586800006,61.52312771600003],[17.350285032000045,61.56334590500006],[17.42346691800003,61.56013574600007],[17.420057934000056,61.53554902600007]],[[19.286468,63.469719499000064],[19.227280111000027,63.35082061900005],[19.050107369000045,63.21980824700006],[18.766366412000025,63.184872073000065],[18.67458798800004,63.13694305000007],[18.590393704000064,63.15073376300006],[18.461953893000043,63.03098155400005],[18.446305048000056,62.897713467000074],[18.36648452000003,62.861528616000044],[18.239890630000048,62.85754738700007],[18.09423150300006,62.69583274000007],[18.043876219000026,62.716266122000036],[18.05700815800003,62.80920195500005],[17.95012902700006,62.82326429600005],[17.964134456000068,62.78641121100003],[18.026939111000047,62.768487347000075],[17.982448790000035,62.735013224000056],[18.009152200000074,62.62940095600004],[17.963808633000042,62.57470800400006],[17.658018465000055,62.43677281600003],[17.470235068000022,62.46928255600005],[17.482127689000038,62.40359722200003],[17.422888888000045,62.369078984000055],[17.414925006000033,62.33156818400005],[17.577152644000023,62.22349531500004],[17.489299500000072,62.13695049900008]],[[17.489299500000072,62.13695049900008],[17.218911180000077,62.150970406000056],[16.511077553000064,62.23280588800003],[16.182118788000025,62.24000712700007],[15.717582244000027,62.32116824600007],[15.516599606000057,62.33760135400007],[15.32733950000005,62.272083499000075],[15.404090558000064,62.18069251900005],[15.411421520000033,62.12972100300004],[15.117055119000042,61.998516651000045],[15.085474342000055,61.83361922200004],[14.950271560000033,61.87227398500005],[14.895512804000077,61.821583125000075],[14.796109558000069,61.86736915900008],[14.765733849000071,61.82874267600005],[14.657167844000071,61.87585158700006],[14.537308941000049,61.78210712100008],[14.497748152000042,61.646849934000045],[14.447561500000063,61.594947999000055],[14.391026318000058,61.57122257300006],[14.215534080000054,61.61479850600006],[13.549862611000037,61.65284432000004],[13.381535214000053,61.83219098900008],[13.23867305400006,61.93002818000008],[13.350301739000031,61.99288149100005],[13.281283160000044,62.04841660300008],[13.160601015000054,62.02530743500006],[13.018799200000046,62.064658190000046],[12.796154139000066,62.21703573700006],[12.59953771000005,62.216755945000045],[12.29937,62.26749399900007]],[[12.29937,62.26749399900007],[12.25465950000006,62.33102449900008],[12.073057086000063,62.601717922000034],[12.125052354000047,62.74872364700008],[12.091922594000039,62.900658269000076],[12.196678984000073,63.00712991800003],[12.052455500000065,63.183444499000075],[11.985527558000058,63.271002054000064],[12.05912810600006,63.339180645000056],[12.199675331000037,63.46937412900007],[12.160811311000032,63.59402396300004],[12.455524068000045,63.803898193000066],[12.530761200000029,63.857476923000036],[12.681629961000056,63.970526749000044],[12.827498565000042,64.02373580600005],[12.917599009000071,64.04004600200005],[13.20965469500004,64.09291461300006],[13.21460816900003,64.09381130300005],[13.223985614000071,64.09291461300006],[13.776877606000028,64.04004600200005],[13.97733149000004,64.02087821000003],[13.996104980000041,64.04004600200005],[14.047886025000025,64.09291461300006],[14.150621429000068,64.19780778500007],[14.141186093000044,64.25980578300005],[14.136527471000022,64.29041680500006],[14.13015451800004,64.33229240900005],[14.111667407000027,64.45376809800007],[13.666585884000028,64.58895409500008],[14.325985,65.11891599900008]],[[18.624468825000065,63.088259106000066],[18.65062758600004,63.068556640000054],[18.684722153000052,63.077651443000036],[18.653545335000047,62.98462125600008],[18.616835743000024,62.974375965000036],[18.61039643500004,63.041869130000066],[18.59356011500006,63.07611560200007],[18.624468825000065,63.088259106000066]],[[17.751398014000074,62.22086830100005],[17.706881078000038,62.182341773000076],[17.67330770600006,62.20857076500005],[17.692228596000064,62.23170337000005],[17.751398014000074,62.22086830100005]],[[17.588713142000074,62.41478183800007],[17.607133504000046,62.369940444000065],[17.548444603000064,62.37729789200006],[17.539413189000072,62.39077428200005],[17.562651213000038,62.415426781000065],[17.588713142000074,62.41478183800007]],[[18.888323757000023,63.13328252600007],[18.842939908000062,63.12741232500008],[18.824660582000035,63.15699145700006],[18.87499043400004,63.17885443300008],[18.888323757000023,63.13328252600007]],[[19.286468,63.469719499000064],[19.165617575000056,63.60655822900003],[18.93826149000006,63.76640774300006],[18.774499800000058,63.803898193000066],[18.751282269000058,63.80921345200005],[18.572987478000073,63.82655969000007],[18.48020224100003,63.857476923000036],[18.43166982100007,63.91256579600008],[18.464622407000036,63.96178837000008],[18.401607347000038,63.991965436000044],[17.717142593000062,63.881363933000046],[17.566233082000053,63.89368288400004],[16.89963154800006,63.948098481000045],[16.718954,64.02787799900005],[16.692745328000058,64.04004600200005],[16.578871578000076,64.09291461300006],[16.235766901000034,64.25220916500007],[16.043072132000077,64.25980578300005],[16.02915723800004,64.29041680500006],[16.01012178600007,64.33229240900005],[15.754235615000027,64.41251270100008],[15.690388652000024,64.52167051300006],[15.652465670000026,64.51093641800003],[15.625551615000063,64.45567943800006],[15.590454087000069,64.45493557000003],[15.520284618000062,64.52362521100008],[15.32707980500004,64.61473564700003],[15.286012988000039,64.68816928600006],[15.05596435700005,64.76288440800005],[14.974301948000061,64.83804602600003],[14.845569030000036,64.88346437100006],[14.680561129000068,64.99116505600006],[14.468336410000063,65.06762792500007],[14.325985,65.11891599900008]],[[14.325985,65.11891599900008],[14.365260084000056,65.21411733500008],[14.468336410000063,65.29414106000007],[14.502815605000023,65.32090912400008],[14.507403271000044,65.55732620300006],[14.542813142000057,65.69613660700003],[14.617913379000072,65.81348752700006],[14.587562742000046,65.89464535100007],[14.531552128000044,66.12982692900005],[15.021456823000051,66.15652450100004],[15.047260031000064,66.15793065800005],[15.460316974000023,66.27682457400005],[15.453994500000022,66.34523349900007],[15.387379103000058,66.48101823100006],[15.52308226200006,66.55361809000004],[15.551835414000038,66.56656257200007],[15.629565082000056,66.60155596200008],[15.869537148000063,66.78048786800008],[16.050971725000068,66.91723351200005],[16.380564415000038,67.04980655300005],[16.391625954000062,67.21156474800006],[16.10198759000002,67.44584521200005],[16.16678556100004,67.51631102800008],[16.39773817100007,67.53530132000003],[16.47868423400007,67.58344625000007],[16.554889352000032,67.67228936000004],[16.771936648000064,67.92533216300006],[17.169453667000028,68.04750557000006],[17.27194743000007,68.11245419400007],[17.312718609000058,68.11238940900006],[17.566233082000053,68.05606180800004],[17.90818537900003,67.98008448000007],[18.142879651000044,68.19696277900005],[18.104229330000067,68.40360300900005],[18.125925,68.53651599900007],[18.40895034700003,68.57158072300007],[18.628033121000044,68.51302668700004],[19.028917571000022,68.50760832400005],[19.47564865100003,68.44377475100003],[19.940188084000056,68.37739653600005],[20.126551319000043,68.46192762300007],[20.026315367000052,68.56928171100003],[20.194019095000044,68.67219168000008],[20.30663734500007,68.80180736500006],[20.287760656000046,68.91420241800006],[20.197044721000054,69.02405169700006],[20.548636500000043,69.05996849900004],[20.78521691800006,69.02361595800005],[20.882987239000045,68.97351098100006],[20.87669468200005,68.92701478000004],[20.905192417000023,68.89690888100006],[21.041550405000066,68.87025468900003],[21.10966891100003,68.85693941600005],[21.380511906000038,68.75425676300006],[21.455042150000054,68.69128645000006],[21.912457354000026,68.56971010100006],[22.049652051000066,68.48749808500008],[22.305509545000064,68.47912413400007],[22.92654404900003,68.34826059000005],[23.05391746500004,68.30243261900006],[23.087068353000063,68.27775100900004],[23.141906256000027,68.23692290800005],[23.161984019000045,68.14365081900007],[23.297389860000067,68.14758964900005],[23.389938577000066,68.05138719500007],[23.645457727000064,67.95504744400006],[23.64132063200003,67.92075770300005],[23.487689385000067,67.84846341500008],[23.485232840000037,67.69585440300006],[23.550273970000035,67.60614320500008],[23.41241919600003,67.48350959700008],[23.478132129000073,67.45149894600007],[23.74847870700006,67.42789222300007],[23.758779382000057,67.32307856600005],[23.711354020000044,67.28392549500006],[23.56919815300006,67.25850028100007],[23.583639825000034,67.20784684100005],[23.563050384000064,67.17268270700004],[23.98275010900005,66.83112938500005],[23.978242071000068,66.79633496200006],[23.88999185700004,66.75593720100005],[23.87927725700007,66.62096858500007],[23.858447598000055,66.56389307700005],[23.653532289000054,66.44686098800008],[23.675380430000075,66.37721737700008],[23.65213958100003,66.29579265200005],[23.733260492000056,66.19735024200003],[23.91537723400006,66.15377981200004],[23.94631262300004,66.07716378000003],[24.084828107000078,65.93502817200005],[24.155129,65.81602699900003],[23.80965470700005,65.78274694400005],[23.687649357000055,65.82059496500005],[23.410342155000023,65.76869615700008],[23.239433916000053,65.81324933200005],[23.253521491000072,65.73227017700003],[23.108781728000054,65.72324531900006],[22.92654404900003,65.79180180200007],[22.708481376000066,65.87383538700004],[22.670423183000025,65.77295080400006],[22.390352165000024,65.84664171300005],[22.338784473000032,65.74739505300005],[22.361444259000052,65.61488168700004],[22.329633030000025,65.50850039100004],[22.25909873200004,65.55796484400008],[22.217618193000078,65.53341237700005],[22.165586276000056,65.55292419700004],[22.08229949500003,65.50489392300005],[21.939031487000022,65.51455196200004],[21.97799352000004,65.44157927600003],[21.778802730000052,65.36848079000004],[21.57351800400005,65.38608888800007],[21.560518969000043,65.35908383000003],[21.617634672000065,65.34889435500003],[21.64550143100007,65.29052916300003],[21.560768083000028,65.21437654300007],[21.548154423000028,65.11909164400004],[21.54360450000007,65.06305899900008],[21.488091396000073,65.01847054900003],[21.284462915000063,64.95179778900007],[21.253113067000072,64.88269776000004],[21.124742085000037,64.81801073000008],[21.24270166900004,64.75670634500005],[21.259722671000077,64.69776429200004],[21.239444169000024,64.64131220600007],[21.47201529700004,64.55517147100005],[21.502014390000056,64.47058050000004],[21.55007480000006,64.42837777700004],[21.359449211000026,64.33229240900005],[21.276371402000052,64.29041680500006],[21.215641615000038,64.25980578300005],[21.00005292800006,64.15113769600003],[20.962109688000055,64.09291461300006],[20.92765588900005,64.04004600200005],[20.903437497000027,64.00288340200007],[20.813380298000027,63.934394474000044],[20.667111611000053,63.80820159900003],[20.56217616200007,63.75997102800005],[20.495314515000075,63.79175231200003],[20.41324704500005,63.68524079500003],[20.32653977500007,63.72726904400008],[20.286221382000065,63.66583139200003],[20.049720557000057,63.66362708100007],[19.985952431000044,63.61864759900004],[19.88207103700006,63.60042792200005],[19.757180429000073,63.53291750600005],[19.719773614000076,63.44859993600005],[19.640335839000045,63.44883096400008],[19.571792152000057,63.51948553600005],[19.480737887000032,63.557432007000045],[19.45337728000004,63.528048511000065],[19.472745933000056,63.432717738000065],[19.286468,63.469719499000064]],[[20.940134128000068,63.74815105400006],[20.876279314000044,63.67598491900003],[20.834865286000024,63.77572424700003],[20.895006086000024,63.81870438800007],[20.940134128000068,63.74815105400006]],[[21.829828751000036,65.26824637400006],[21.834086081000066,65.19571907600005],[21.770286464000037,65.21635527100005],[21.758395784000072,65.27445428900006],[21.76927050300003,65.28345881300004],[21.829828751000036,65.26824637400006]],[[22.71529387100003,65.53146375500006],[22.718767928000034,65.47506391500008],[22.664776967000023,65.49198756400006],[22.685329049000075,65.52182998200004],[22.641752697000072,65.55409416600003],[22.657223929000054,65.57721699100006],[22.698597561000042,65.56873165000007],[22.71529387100003,65.53146375500006]],[[23.80850735000007,65.74607369300003],[23.78952607900004,65.71712435200004],[23.743163115000073,65.69656880100007],[23.67662049300003,65.71858653500004],[23.68136265100003,65.73761904700007],[23.745570145000045,65.73709190800008],[23.780193660000066,65.75468634000003],[23.80850735000007,65.74607369300003]],[[22.985543075000066,65.70055140800008],[22.956640681000067,65.66993612700003],[22.872798858000067,65.70992588700005],[22.92644039000004,65.74058524000003],[22.985543075000066,65.70055140800008]],[[22.83033096500003,65.71783431200004],[22.805149709000034,65.70597537800006],[22.743234546000053,65.71446315600008],[22.72587845000004,65.75103420000005],[22.73431131800004,65.76693951500005],[22.754030139000065,65.76693951500005],[22.83033096500003,65.71783431200004]],[[22.23456885300004,65.43666916300003],[22.230163007000044,65.42057117300004],[22.14731813800006,65.43522112100004],[22.142690513000048,65.45358405300004],[22.158449199000074,65.47284156300003],[22.190936185000055,65.46756614700007],[22.23456885300004,65.43666916300003]],[[22.641726953000045,65.58597533500006],[22.608797336000066,65.54635475600003],[22.54773237200004,65.57195470300007],[22.58121137100005,65.59797699700005],[22.641726953000045,65.58597533500006]],[[22.567525198000055,65.47321138900003],[22.514701246000072,65.47273916400007],[22.490727583000023,65.50510515600007],[22.57067465800003,65.51145342100006],[22.567525198000055,65.47321138900003]],[[22.817964646000064,65.55948431400003],[22.82325213200005,65.52808332900008],[22.73715906600006,65.55478925700004],[22.756326038000054,65.57412755000007],[22.817964646000064,65.55948431400003]],[[21.733486525000046,65.22025235600006],[21.722464573000025,65.19659622000006],[21.660783753000032,65.22162925700007],[21.68814184100006,65.25274415900003],[21.733486525000046,65.22025235600006]],[[22.648653092000075,65.66449590100007],[22.64000052800003,65.62675091200003],[22.616256143000044,65.62785828000005],[22.586677547000022,65.66641772000008],[22.632070330000033,65.67785617300007],[22.648653092000075,65.66449590100007]],[[22.329094660000067,65.45241923600008],[22.31748470200006,65.42431971000008],[22.266830024000058,65.42936681800006],[22.296965611000076,65.48152452700003],[22.329094660000067,65.45241923600008]],[[23.531785902000024,65.74897987700007],[23.50693121000006,65.70524073000007],[23.468827272000055,65.71732857500007],[23.480214001000036,65.75589649100004],[23.531785902000024,65.74897987700007]],[[21.713641806000055,65.28931400400006],[21.672034074000067,65.28093096500004],[21.656824888000074,65.33377070300003],[21.720417260000033,65.31408825500006],[21.713641806000055,65.28931400400006]],[[22.041492853000022,65.38033359100007],[22.00612764500005,65.35948346800006],[21.952021229000025,65.39594420100008],[21.98934089900007,65.40750878500006],[22.041492853000022,65.38033359100007]],[[22.412171788000023,65.46206875000007],[22.406720688000064,65.43217353600005],[22.33868093800004,65.43702883200007],[22.367944229000045,65.47386433700007],[22.412171788000023,65.46206875000007]],[[24.14190881500008,65.70278679100005],[24.13120875900006,65.67898621200004],[24.08848485200008,65.70366583600003],[24.12429949500006,65.75462502800008],[24.14190881500008,65.70278679100005]],[[22.73576808400003,65.66204793400004],[22.691243074000056,65.64984860500005],[22.668669735000037,65.67758609500004],[22.697533157000066,65.69531224100007],[22.731761133000077,65.68872168600006],[22.73576808400003,65.66204793400004]],[[20.809857454000053,63.58984156500003],[20.760360582000033,63.589134682000065],[20.74494560900007,63.60201118200007],[20.754927330000044,63.62247334800003],[20.796807233000038,63.63285530300004],[20.809857454000053,63.58984156500003]],[[22.631356268000047,65.51372192200006],[22.615112999000075,65.50077367500006],[22.58795630700007,65.51138040700005],[22.579487839000024,65.52412259700003],[22.603352315000052,65.54797794400008],[22.631356268000047,65.51372192200006]]]}