{"type":"Topology","objects":{"data":{"geometries":[{"properties":{"id":"CH","name":"Schweiz/Suisse/Svizzera"},"type":"MultiPolygon","arcs":[[[0],[1],[2]]],"id":"feature_0"}],"type":"GeometryCollection"}},"bbox":[5.956067,45.820961527000065,10.488774759000023,47.804014539000036],"arcs":[[[8.61383150000006,47.801078999000026],[8.627904949000026,47.76184246100007],[8.647591288000058,47.76863866000008],[8.654166541000052,47.79643544100003],[8.681624253000052,47.78266017300007],[8.691016915000034,47.759518437000054],[8.718509820000065,47.76355852700004],[8.735499256000026,47.75544164000007],[8.73738157400004,47.74872578800006],[8.714577844000075,47.73092636200005],[8.733248349000064,47.71489965400008],[8.727981500000055,47.69268049900006],[8.757429217000038,47.68925839600007],[8.784899936000045,47.67681359300008],[8.795708500000046,47.67559549900005],[8.799426132000065,47.696815224000034],[8.770921843000053,47.712342412000055],[8.804066096000042,47.73581379900003],[8.822496504000071,47.71386772400007],[8.871400727000037,47.701460574000066],[8.853871904000073,47.68445364000007],[8.871339462000037,47.67028847700004],[8.874888,47.65466999900008],[8.883189453000057,47.653964408000036],[8.894603400000051,47.648390446000064],[8.900335665000057,47.64843472100006],[8.906114372000047,47.649624352000046],[8.94305272300005,47.65722801000004],[8.96349301400005,47.66481323000005],[8.980924469000058,47.673980834000076],[9.01021176100005,47.68407588700006],[9.021567168000047,47.686434535000046],[9.033338368000045,47.685366274000046],[9.057666433000065,47.68406154000007],[9.07370580600002,47.67901012600004],[9.095087471000056,47.678706334000026],[9.119423612000048,47.66814087100005],[9.12781,47.66660899900006],[9.135418500000071,47.66520349900003],[9.141593237000052,47.66468627300003],[9.148339500000077,47.667609999000035],[9.157211997000047,47.665738229000056],[9.163047500000062,47.66045949900007],[9.17079891000003,47.65528448200007],[9.182192,47.655890499000066],[9.259147161000044,47.657601629000055],[9.366602649000072,47.62796581600003],[9.388960815000075,47.621799519000035],[9.495604,47.55145499900004],[9.523166500000059,47.54727949900007],[9.533878,47.545656499000074],[9.55872050000005,47.54189299900003],[9.56442024200004,47.49766773700003],[9.592898933000072,47.46755753800005],[9.655783242000041,47.45115804800008],[9.64661503800005,47.43463799500006],[9.651691866000021,47.40959050400005],[9.669473371000038,47.38923821800006],[9.658126608000032,47.371587772000055],[9.61505905200005,47.35633553500003],[9.584001064000063,47.31489461600006],[9.578461914000059,47.31028522200006],[9.530749,47.27058099900006],[9.487447982000049,47.18262260800003],[9.517959702000041,47.09972949300004],[9.509586369000033,47.08481293500006],[9.477948953000066,47.06614588700006],[9.47604750000005,47.05179749900003],[9.536368348000053,47.06359717600003],[9.561887219000027,47.050804294000045],[9.607078,47.06077449900005],[9.629980576000037,47.052504756000076],[9.68112779300003,47.06044912900006],[9.718879769000068,47.044587859000046],[9.784878552000066,47.036763767000025],[9.835244705000036,47.01453742700005],[9.871310010000059,47.02074195100005],[9.889809330000048,46.99330065400005],[9.874641913000062,46.96597485800004],[9.88137574500007,46.93393483700004],[10.018694140000036,46.89890878300008],[10.056627013000025,46.86379291800006],[10.085409394000067,46.85974701300006],[10.104815466000048,46.84360974300006],[10.144974500000046,46.85100949900004],[10.228870117000042,46.86829291400005],[10.229206173000023,46.89840745200007],[10.244074288000036,46.92944188300004],[10.311967773000049,46.925441798000065],[10.31074503800005,46.947010430000034],[10.327022724000074,46.956853462000026],[10.347354154000072,46.987214453000036],[10.389988889000051,46.99867031300005],[10.422348517000046,46.97674120600004],[10.427661865000061,46.95835725100005],[10.48705553600007,46.93598319600005],[10.468226624000067,46.885357928000076],[10.469651500000055,46.85490899900003],[10.451850466000053,46.80796332500006],[10.426050092000025,46.79059293200004],[10.440494147000038,46.75579752200008],[10.405402934000051,46.73483303900008],[10.415094126000042,46.71266028600007],[10.385656162000032,46.68352084500003],[10.403498660000025,46.63925375000008],[10.450022920000038,46.638662398000065],[10.488774759000023,46.61427578800004],[10.475176721000025,46.55514257700003],[10.452801,46.53068299900008],[10.416953596000042,46.548930006000035],[10.30013318600004,46.55010176400003],[10.295643752000046,46.55514257700003],[10.281116153000028,46.57145441100005],[10.24670797500005,46.577398009000035],[10.243689602000075,46.591608464000046],[10.254863030000024,46.610757496000076],[10.236266224000076,46.632193620000066],[10.214080198000033,46.619826567000075],[10.187346008000077,46.62408433000007],[10.13097583800004,46.60753467600006],[10.103089134000072,46.607877544000075],[10.097181163000073,46.58184382500008],[10.064786450000042,46.55514257700003],[10.047015634000047,46.54049503300007],[10.050846385000057,46.46485385900007],[10.043410123000058,46.44655718300004],[10.083465406000073,46.422619042000065],[10.132537867000053,46.43029358000007],[10.163027019000026,46.40988021900006],[10.161665453000069,46.39058783000007],[10.132687641000075,46.379589732000056],[10.106483453000067,46.33541360300006],[10.116927775000022,46.31594353200006],[10.154120586000033,46.29029406500007],[10.173441309000054,46.25857255100004],[10.13905111300005,46.22898904600004],[10.069423036000046,46.21933986500005],[10.048469777000037,46.23014111200007],[10.058631111000068,46.24803167700003],[10.051368687000036,46.26638320300003],[9.997108120000064,46.28872010500004],[9.998322,46.310265807000064],[9.984179114000028,46.32441102100006],[9.994000442000072,46.34823564200008],[9.955258332000028,46.37671121300008],[9.92575821500003,46.36924340000007],[9.902045470000076,46.37832120300004],[9.775335932000075,46.33767564100003],[9.73875109000005,46.34823963500003],[9.726636660000054,46.34008663000003],[9.722353354000063,46.31075728800005],[9.709307093000064,46.29361819600007],[9.67459384500006,46.30043954400003],[9.632909901000062,46.28700154500007],[9.584759175000045,46.29491443200004],[9.539543226000035,46.30873341000006],[9.499393418000068,46.35972352200008],[9.46472185400006,46.37708911400006],[9.456206520000023,46.42372220400006],[9.463513311000042,46.47141747100005],[9.45705923600002,46.50522161400005],[9.43443725800006,46.49669172400007],[9.40816625900004,46.46858035200006],[9.37636053700004,46.487438316000066],[9.366602649000072,46.50426414100008],[9.287210637000044,46.49532706800005],[9.272276512000076,46.45966608300006],[9.251726315000042,46.441866308000044],[9.277267098000038,46.409245620000036],[9.279411304000064,46.36889128800004],[9.29732258000007,46.33673222400006],[9.283651861000067,46.30065695300004],[9.254627481000057,46.26721205000007],[9.24853150000007,46.233767999000065],[9.222222202000069,46.22673765300004],[9.185327072000064,46.17357832300007],[9.159377500000062,46.16960099900007],[9.120551024000065,46.13610008300003],[9.076195724000058,46.11796892400008],[9.087018105000027,46.086646150000036],[9.075481409000076,46.065964045000044],[9.023613161000071,46.05167392800007],[9.01091873100006,46.034214243000065],[9.02634180900003,45.99605217800007],[8.997438061000025,45.97762808500005],[8.996171015000073,45.96829957600005],[9.013306495000052,45.95701199900003],[9.022254090000047,45.93001129800007],[9.071411626000042,45.91218047600006],[9.083299588000045,45.893262580000055],[9.054465206000032,45.870051412000066],[9.027656997000065,45.82158443900005],[9.003497611000057,45.820961527000065],[8.991802263000068,45.835795208000036],[8.95361837400003,45.841590058000065],[8.912147,45.830444999000065],[8.93607438500004,45.867491089000055],[8.92081797800006,45.90815719900007],[8.896252712000035,45.93004165900004],[8.893428258000029,45.95470679700003],[8.829279190000022,45.98691802900004],[8.788291077000054,45.99273941800004],[8.799491279000051,46.014538411000046],[8.849770878000072,46.05591024100005],[8.851401346000046,46.07262832300006],[8.810346201000073,46.09782152900004],[8.764891742000032,46.100611807000064],[8.742918081000028,46.11922162500008],[8.713936,46.09727199900004],[8.64536595800007,46.12163644700007],[8.616095631000064,46.12322192600004],[8.59699964400005,46.14288320300005],[8.598581328000023,46.15417357800004],[8.57776185800003,46.16331276300008],[8.530103377000046,46.216446844000075],[8.472759819000032,46.232906789000026],[8.446631272000047,46.25024276900007],[8.451684302000047,46.26944899200004],[8.43082187500005,46.29701333100007],[8.462725228000068,46.335066546000064],[8.463095385000031,46.44629989800006],[8.440791094000076,46.46318908300003],[8.384717,46.45215849900006],[8.302400477000049,46.420763675000046],[8.29253847800004,46.409369335000065],[8.311747203000039,46.39828509000006],[8.313901176000059,46.380577059000075],[8.266521935000071,46.36272302200007],[8.25865396200004,46.34634019400005],[8.229785485000036,46.33635344900006],[8.205832658000077,46.30663217000006],[8.137051772000063,46.29948176000005],[8.087031117000038,46.26437179900006],[8.08755676900006,46.25574867800003],[8.137980001000074,46.22409193000004],[8.161027537000052,46.18450534600004],[8.151069884000037,46.14534374900006],[8.11935722000004,46.130944105000026],[8.10396305200004,46.11143445700003],[8.03523104900006,46.09820036800005],[8.024150272000043,46.071211093000045],[8.031954149000057,46.04588378300008],[8.016815725000072,46.03250927800008],[8.01224585500006,46.015186923000044],[7.987497775000065,45.997902020000026],[7.907365619000075,45.99405098700004],[7.880624995000062,45.971752785000035],[7.871468722000031,45.93881543100008],[7.87713750000006,45.92695499900003],[7.872852858000044,45.92078414500003],[7.864076500000067,45.916750499000045],[7.822674445000075,45.92517252000005],[7.799833492000062,45.91935848900005],[7.75554549900005,45.93903508900007],[7.723657095000021,45.92474811900007],[7.70382459800004,45.95045784900003],[7.662851143000069,45.97443690000006],[7.594775631000061,45.97110076900003],[7.567238261000057,45.98700906800008],[7.547942994000039,45.981864389000066],[7.540193891000058,45.958233429000074],[7.493541750000077,45.95858185600008],[7.468697689000066,45.93552626200005],[7.386470302000021,45.89942393300004],[7.294035188000066,45.919762899000034],[7.261279547000072,45.89202870500003],[7.215437669000039,45.88641881800004],[7.190650666000067,45.86027334000005],[7.151776905000077,45.87731221200005],[7.10408811700006,45.86051701700006],[7.044886,45.92241299900007],[7.034716030000027,45.95284632000005],[7.013318802000072,45.96702667200003],[7.018795,45.98141792600006],[7.00872432500006,45.99573591500007],[6.987712574000057,46.00594751400007],[6.934701343000029,46.061835485000074],[6.892756766000048,46.04504329300005],[6.877505939000059,46.04955128100005],[6.876654306000034,46.06137501300003],[6.890277019000052,46.077151524000044],[6.886314601000038,46.09528486900007],[6.896348996000029,46.12250245700005],[6.814213514000073,46.13071767200006],[6.794406164000065,46.14582981800004],[6.792645202000074,46.160611267000036],[6.809865924000064,46.181432974000074],[6.807260141000029,46.20852071000007],[6.85269332200005,46.25508109100008],[6.862231951000069,46.27743079900006],[6.859012194000059,46.287536137000075],[6.785056462000057,46.33542043700004],[6.772827434000021,46.35391958000008],[6.801936152000053,46.377463539000075],[6.821064,46.42715449900004],[6.68145697500006,46.45398576000008],[6.521699364000028,46.45587057400007],[6.425654107000071,46.41642895100006],[6.333567674000051,46.402359844000046],[6.257305202000055,46.36240801100007],[6.24136,46.343582499000036],[6.237907500000063,46.33852699900007],[6.231694,46.32942949900007],[6.219547,46.311877999000046],[6.247002701000042,46.29953975600006],[6.240386243000046,46.27657405100007],[6.261261178000041,46.253576],[6.306295931000022,46.25376109600006],[6.295291667000072,46.22676978700008],[6.227699852000057,46.20202880700003],[6.19086640300003,46.180370854000046],[6.179585566000071,46.16109406600003],[6.135546330000068,46.14253942700003],[6.058480020000047,46.15006113800007],[6.038092623000068,46.138494593000075],[5.992462894000028,46.14338966400004],[5.956067,46.13209549900006],[5.989487082000039,46.17902270400003],[5.967413648000047,46.19744230600003],[5.97668800200006,46.21324378400004],[6.028960602000041,46.23616915200006],[6.084977783000056,46.24537454500006],[6.103366507000032,46.239923608000026],[6.119396212000026,46.248913997000045],[6.104622365000068,46.28255487400003],[6.125608,46.31722999900006],[6.163537925000071,46.35814465800007],[6.165892058000054,46.37060250300004],[6.095120770000051,46.408297118000064],[6.064003,46.416228999000055],[6.080855425000038,46.439872136000076],[6.080730684000059,46.46940011500004],[6.148652079000044,46.53740785900004],[6.138106,46.55766699900005],[6.114834290000033,46.57525514500003],[6.125677986000028,46.58856232100004],[6.28382573500005,46.68971327200006],[6.348995577000039,46.714458808000074],[6.44684128800003,46.77055318500004],[6.454841713000064,46.78755187000007],[6.433388133000051,46.81013962000003],[6.460011,46.85155149900004],[6.462374127000032,46.89041155100006],[6.437950061000038,46.930734966000045],[6.493275449000066,46.97115611700008],[6.513123912000026,46.96895488100006],[6.63469322900005,47.001051129000075],[6.66111075200007,47.02670871500004],[6.715026946000023,47.049926835000065],[6.696127623000052,47.06583069700008],[6.709461372000021,47.083675965000054],[6.738965538000059,47.09232924200006],[6.748127048000072,47.111201222000034],[6.806812098000023,47.13211051300004],[6.858914,47.16529449900003],[6.852322915000059,47.175750117000064],[6.947947277000026,47.24120869300003],[6.949234851000028,47.28720362000007],[6.998068446000048,47.299271806000036],[7.00613869600005,47.31028522200006],[7.014928261000023,47.322280281000076],[7.043394454000065,47.32961725300004],[7.05458177600002,47.341151155000034],[7.043775949000064,47.36113605400004],[7.019114209000065,47.36995682200006],[6.885891877000063,47.35657491000006],[6.889831212000047,47.37490980500007],[6.909809471000074,47.38923821800006],[6.917173412000068,47.40339836900006],[6.938510410000049,47.410028682000075],[6.939186,47.433704499000044],[6.998051462000035,47.45337715100004],[6.990474599000038,47.49589208300006],[7.023200409000026,47.502801367000075],[7.077334955000026,47.48980383500003],[7.130353,47.503040499000065],[7.187938735000046,47.48955952700004],[7.173392441000033,47.44855145500003],[7.177766642000051,47.44191699900006],[7.229709158000048,47.43793832800003],[7.249168568000073,47.422204495000074],[7.326466,47.43985349900004],[7.337402779000058,47.440884004000054],[7.352753930000063,47.43441327000005],[7.380894,47.43189249900007],[7.421139500000038,47.44638799900008],[7.445019,47.46172349900007],[7.452296379000074,47.471871097000076],[7.429222474000028,47.484242220000056],[7.433835784000053,47.49471852100004],[7.47882684700005,47.48147019000004],[7.510905500000035,47.50258249900003],[7.521416068000065,47.52503208400003],[7.505214118000026,47.53887330400005],[7.555159500000059,47.56456399900003],[7.558515327000066,47.57295213700007],[7.566868816000067,47.576966896000044],[7.574819,47.576144999000064],[7.584470546000034,47.57647422300005],[7.589039,47.589877999000066],[7.615015214000039,47.57889625100006],[7.658142196000028,47.59458686800008],[7.681322973000022,47.57703096400007],[7.674093501000073,47.56564216700008],[7.634097,47.561113499000044],[7.645305500000063,47.55261499900007],[7.650188574000026,47.54796959600003],[7.661192200000073,47.54439796200006],[7.667489216000035,47.53638788000006],[7.67529,47.53355449900005],[7.68622350000004,47.53249799900004],[7.697038063000036,47.53315854600004],[7.713784500000031,47.539404999000055],[7.72405,47.54222899900003],[7.752676500000064,47.54502699900007],[7.760212500000023,47.54898049700006],[7.794769375000044,47.557258303000026],[7.81113999300004,47.57005080600004],[7.818366405000063,47.58601751600003],[7.824020745000041,47.58767375800005],[7.832744,47.58656099900003],[7.837581,47.582636499000046],[7.852399888000036,47.58377283800007],[7.868647083000042,47.58842126700006],[7.884716086000026,47.58872009400005],[7.894107500000075,47.58637499900004],[7.919968253000036,47.54855892300003],[7.944426372000066,47.54668388700003],[7.963864099000034,47.55658773700003],[8.025776993000022,47.55183804300003],[8.065204719000064,47.56240463900008],[8.091919691000044,47.560208482000064],[8.110577891000048,47.58119631400007],[8.170017013000063,47.59735634800006],[8.206729137000025,47.61940412600006],[8.229856587000029,47.60846729200006],[8.28882900700006,47.608926188000055],[8.30168001800007,47.58782183800008],[8.327523438000071,47.57290715700003],[8.379007724000076,47.56711478200003],[8.402784705000045,47.57491732600005],[8.426434500000028,47.56754899900005],[8.47469662800006,47.578279595000026],[8.463015465000069,47.600919849000036],[8.518994144000033,47.63046472600007],[8.562571083000023,47.61798384400004],[8.562841,47.599432499000045],[8.574549680000075,47.59621046400008],[8.581734743000027,47.59655840700003],[8.595602,47.605544499000075],[8.602096515000028,47.61687771600003],[8.598660451000057,47.643677181000044],[8.60721228400007,47.64887915400004],[8.616254101000038,47.640098143000046],[8.624706281000044,47.64946706100005],[8.606369500000028,47.669005499000036],[8.556143319000057,47.66796282800004],[8.530112648000056,47.658538614000065],[8.526543791000051,47.64662934100005],[8.472324671000024,47.644162175000076],[8.462243640000054,47.654814833000046],[8.411153269000067,47.67020714000006],[8.417182569000033,47.68396988400008],[8.411742582000045,47.70440030300006],[8.453083513000024,47.72431522800008],[8.454090913000073,47.74375461600005],[8.473911324000028,47.763872366000044],[8.510115,47.77619049900005],[8.57211395400003,47.78074797200003],[8.567405669000038,47.804014539000036],[8.61383150000006,47.801078999000026]],[[8.663354,47.68589249900003],[8.670461,47.684862499000076],[8.689851299000054,47.69493830600004],[8.701589,47.691935999000066],[8.70922869800006,47.689687897000056],[8.717719500000044,47.69074199900007],[8.704050276000032,47.71027953200007],[8.67776169800004,47.710829911000076],[8.663354,47.68589249900003]],[[8.958164889000045,45.96449410400004],[8.975915171000054,45.961267158000055],[8.977886789000024,45.98296951300006],[8.966769212000031,45.98462353100007],[8.958164889000045,45.96449410400004]]]}